{
  "type": "FeatureCollection",
  "name": "VATSIM Cross the Land westbound 2026",
  "features": [
    {
      "type": "Feature",
      "id": "DTTA-ESSA",
      "properties": {
        "route_id": "DTTA-ESSA",
        "route_name": "DTTA-ESSA",
        "origin": "DTTA",
        "destination": "ESSA",
        "point_count": 14,
        "source_file": "DTTC-ESSA.gpx"
      },
      "geometry": {
        "type": "LineString",
        "coordinates": [
          [
            10.226944,
            36.851111
          ],
          [
            10.640556,
            37.236111
          ],
          [
            10.863333,
            37.442778
          ],
          [
            10.959167,
            37.742778
          ],
          [
            11.631667,
            40.385833
          ],
          [
            12.281444,
            45.071083
          ],
          [
            12.5975,
            46.706111
          ],
          [
            13.670278,
            48.207222
          ],
          [
            14.265608,
            50.095867
          ],
          [
            15.094667,
            51.013753
          ],
          [
            17.161389,
            55.638611
          ],
          [
            18.001667,
            58.193889
          ],
          [
            17.884722,
            58.815833
          ],
          [
            17.918611,
            59.651944
          ]
        ]
      }
    }
  ]
}
