{
  "type": "FeatureCollection",
  "name": "VATSIM Cross the Land westbound 2026",
  "features": [
    {
      "type": "Feature",
      "id": "DTTA-LOWW",
      "properties": {
        "route_id": "DTTA-LOWW",
        "route_name": "DTTA-LOWW",
        "origin": "DTTA",
        "destination": "LOWW",
        "point_count": 15,
        "source_file": "DTTC-LOWW.gpx"
      },
      "geometry": {
        "type": "LineString",
        "coordinates": [
          [
            10.226944,
            36.851111
          ],
          [
            10.640556,
            37.236111
          ],
          [
            10.863333,
            37.442778
          ],
          [
            10.959167,
            37.742778
          ],
          [
            11.356944,
            39.249722
          ],
          [
            11.631667,
            40.385833
          ],
          [
            11.832778,
            40.861111
          ],
          [
            12.016667,
            41.292778
          ],
          [
            12.237528,
            41.803778
          ],
          [
            12.620556,
            42.471389
          ],
          [
            13.167303,
            43.383725
          ],
          [
            13.686111,
            44.221944
          ],
          [
            14.985525,
            46.059919
          ],
          [
            15.520431,
            46.535497
          ],
          [
            16.569722,
            48.110278
          ]
        ]
      }
    }
  ]
}
