{
  "type": "FeatureCollection",
  "name": "VATSIM Cross the Land westbound 2026",
  "features": [
    {
      "type": "Feature",
      "id": "DTTA-ESSA:001",
      "properties": {
        "route_id": "DTTA-ESSA",
        "route_name": "DTTA-ESSA",
        "origin": "DTTA",
        "destination": "ESSA",
        "point_count": 14,
        "source_file": "DTTC-ESSA.gpx",
        "point_id": "DTTA-ESSA:001",
        "sequence": 1,
        "waypoint": "DTTA",
        "point_role": "origin",
        "overfly": false,
        "longitude": 10.226944,
        "latitude": 36.851111
      },
      "geometry": {
        "type": "Point",
        "coordinates": [
          10.226944,
          36.851111
        ]
      }
    },
    {
      "type": "Feature",
      "id": "DTTA-ESSA:002",
      "properties": {
        "route_id": "DTTA-ESSA",
        "route_name": "DTTA-ESSA",
        "origin": "DTTA",
        "destination": "ESSA",
        "point_count": 14,
        "source_file": "DTTC-ESSA.gpx",
        "point_id": "DTTA-ESSA:002",
        "sequence": 2,
        "waypoint": "ICANI",
        "point_role": "enroute",
        "overfly": false,
        "longitude": 10.640556,
        "latitude": 37.236111
      },
      "geometry": {
        "type": "Point",
        "coordinates": [
          10.640556,
          37.236111
        ]
      }
    },
    {
      "type": "Feature",
      "id": "DTTA-ESSA:003",
      "properties": {
        "route_id": "DTTA-ESSA",
        "route_name": "DTTA-ESSA",
        "origin": "DTTA",
        "destination": "ESSA",
        "point_count": 14,
        "source_file": "DTTC-ESSA.gpx",
        "point_id": "DTTA-ESSA:003",
        "sequence": 3,
        "waypoint": "SIRVI",
        "point_role": "enroute",
        "overfly": false,
        "longitude": 10.863333,
        "latitude": 37.442778
      },
      "geometry": {
        "type": "Point",
        "coordinates": [
          10.863333,
          37.442778
        ]
      }
    },
    {
      "type": "Feature",
      "id": "DTTA-ESSA:004",
      "properties": {
        "route_id": "DTTA-ESSA",
        "route_name": "DTTA-ESSA",
        "origin": "DTTA",
        "destination": "ESSA",
        "point_count": 14,
        "source_file": "DTTC-ESSA.gpx",
        "point_id": "DTTA-ESSA:004",
        "sequence": 4,
        "waypoint": "NIBEL",
        "point_role": "enroute",
        "overfly": false,
        "longitude": 10.959167,
        "latitude": 37.742778
      },
      "geometry": {
        "type": "Point",
        "coordinates": [
          10.959167,
          37.742778
        ]
      }
    },
    {
      "type": "Feature",
      "id": "DTTA-ESSA:005",
      "properties": {
        "route_id": "DTTA-ESSA",
        "route_name": "DTTA-ESSA",
        "origin": "DTTA",
        "destination": "ESSA",
        "point_count": 14,
        "source_file": "DTTC-ESSA.gpx",
        "point_id": "DTTA-ESSA:005",
        "sequence": 5,
        "waypoint": "BETOT",
        "point_role": "enroute",
        "overfly": false,
        "longitude": 11.631667,
        "latitude": 40.385833
      },
      "geometry": {
        "type": "Point",
        "coordinates": [
          11.631667,
          40.385833
        ]
      }
    },
    {
      "type": "Feature",
      "id": "DTTA-ESSA:006",
      "properties": {
        "route_id": "DTTA-ESSA",
        "route_name": "DTTA-ESSA",
        "origin": "DTTA",
        "destination": "ESSA",
        "point_count": 14,
        "source_file": "DTTC-ESSA.gpx",
        "point_id": "DTTA-ESSA:006",
        "sequence": 6,
        "waypoint": "CHI",
        "point_role": "enroute",
        "overfly": false,
        "longitude": 12.281444,
        "latitude": 45.071083
      },
      "geometry": {
        "type": "Point",
        "coordinates": [
          12.281444,
          45.071083
        ]
      }
    },
    {
      "type": "Feature",
      "id": "DTTA-ESSA:007",
      "properties": {
        "route_id": "DTTA-ESSA",
        "route_name": "DTTA-ESSA",
        "origin": "DTTA",
        "destination": "ESSA",
        "point_count": 14,
        "source_file": "DTTC-ESSA.gpx",
        "point_id": "DTTA-ESSA:007",
        "sequence": 7,
        "waypoint": "MALUG",
        "point_role": "enroute",
        "overfly": false,
        "longitude": 12.5975,
        "latitude": 46.706111
      },
      "geometry": {
        "type": "Point",
        "coordinates": [
          12.5975,
          46.706111
        ]
      }
    },
    {
      "type": "Feature",
      "id": "DTTA-ESSA:008",
      "properties": {
        "route_id": "DTTA-ESSA",
        "route_name": "DTTA-ESSA",
        "origin": "DTTA",
        "destination": "ESSA",
        "point_count": 14,
        "source_file": "DTTC-ESSA.gpx",
        "point_id": "DTTA-ESSA:008",
        "sequence": 8,
        "waypoint": "MEDEL",
        "point_role": "enroute",
        "overfly": false,
        "longitude": 13.670278,
        "latitude": 48.207222
      },
      "geometry": {
        "type": "Point",
        "coordinates": [
          13.670278,
          48.207222
        ]
      }
    },
    {
      "type": "Feature",
      "id": "DTTA-ESSA:009",
      "properties": {
        "route_id": "DTTA-ESSA",
        "route_name": "DTTA-ESSA",
        "origin": "DTTA",
        "destination": "ESSA",
        "point_count": 14,
        "source_file": "DTTC-ESSA.gpx",
        "point_id": "DTTA-ESSA:009",
        "sequence": 9,
        "waypoint": "OKL",
        "point_role": "enroute",
        "overfly": false,
        "longitude": 14.265608,
        "latitude": 50.095867
      },
      "geometry": {
        "type": "Point",
        "coordinates": [
          14.265608,
          50.095867
        ]
      }
    },
    {
      "type": "Feature",
      "id": "DTTA-ESSA:010",
      "properties": {
        "route_id": "DTTA-ESSA",
        "route_name": "DTTA-ESSA",
        "origin": "DTTA",
        "destination": "ESSA",
        "point_count": 14,
        "source_file": "DTTC-ESSA.gpx",
        "point_id": "DTTA-ESSA:010",
        "sequence": 10,
        "waypoint": "RASAN",
        "point_role": "enroute",
        "overfly": false,
        "longitude": 15.094667,
        "latitude": 51.013753
      },
      "geometry": {
        "type": "Point",
        "coordinates": [
          15.094667,
          51.013753
        ]
      }
    },
    {
      "type": "Feature",
      "id": "DTTA-ESSA:011",
      "properties": {
        "route_id": "DTTA-ESSA",
        "route_name": "DTTA-ESSA",
        "origin": "DTTA",
        "destination": "ESSA",
        "point_count": 14,
        "source_file": "DTTC-ESSA.gpx",
        "point_id": "DTTA-ESSA:011",
        "sequence": 11,
        "waypoint": "PENOR",
        "point_role": "enroute",
        "overfly": false,
        "longitude": 17.161389,
        "latitude": 55.638611
      },
      "geometry": {
        "type": "Point",
        "coordinates": [
          17.161389,
          55.638611
        ]
      }
    },
    {
      "type": "Feature",
      "id": "DTTA-ESSA:012",
      "properties": {
        "route_id": "DTTA-ESSA",
        "route_name": "DTTA-ESSA",
        "origin": "DTTA",
        "destination": "ESSA",
        "point_count": 14,
        "source_file": "DTTC-ESSA.gpx",
        "point_id": "DTTA-ESSA:012",
        "sequence": 12,
        "waypoint": "ROGMI",
        "point_role": "enroute",
        "overfly": false,
        "longitude": 18.001667,
        "latitude": 58.193889
      },
      "geometry": {
        "type": "Point",
        "coordinates": [
          18.001667,
          58.193889
        ]
      }
    },
    {
      "type": "Feature",
      "id": "DTTA-ESSA:013",
      "properties": {
        "route_id": "DTTA-ESSA",
        "route_name": "DTTA-ESSA",
        "origin": "DTTA",
        "destination": "ESSA",
        "point_count": 14,
        "source_file": "DTTC-ESSA.gpx",
        "point_id": "DTTA-ESSA:013",
        "sequence": 13,
        "waypoint": "NILUG",
        "point_role": "enroute",
        "overfly": false,
        "longitude": 17.884722,
        "latitude": 58.815833
      },
      "geometry": {
        "type": "Point",
        "coordinates": [
          17.884722,
          58.815833
        ]
      }
    },
    {
      "type": "Feature",
      "id": "DTTA-ESSA:014",
      "properties": {
        "route_id": "DTTA-ESSA",
        "route_name": "DTTA-ESSA",
        "origin": "DTTA",
        "destination": "ESSA",
        "point_count": 14,
        "source_file": "DTTC-ESSA.gpx",
        "point_id": "DTTA-ESSA:014",
        "sequence": 14,
        "waypoint": "ESSA",
        "point_role": "destination",
        "overfly": false,
        "longitude": 17.918611,
        "latitude": 59.651944
      },
      "geometry": {
        "type": "Point",
        "coordinates": [
          17.918611,
          59.651944
        ]
      }
    }
  ]
}
