{
  "type": "FeatureCollection",
  "name": "VATSIM Cross the Land westbound 2026",
  "features": [
    {
      "type": "Feature",
      "id": "HECA-ESSA",
      "properties": {
        "route_id": "HECA-ESSA",
        "route_name": "HECA-ESSA",
        "origin": "HECA",
        "destination": "ESSA",
        "point_count": 27,
        "source_file": "HECA-ESSA.gpx"
      },
      "geometry": {
        "type": "LineString",
        "coordinates": [
          [
            31.413889,
            30.111389
          ],
          [
            31.388417,
            30.092306
          ],
          [
            30.301667,
            31.091944
          ],
          [
            29.950833,
            31.1875
          ],
          [
            29.4375,
            32.002778
          ],
          [
            29.303056,
            32.213611
          ],
          [
            28.266667,
            33.8
          ],
          [
            25.874167,
            37.59
          ],
          [
            23.774722,
            41.401667
          ],
          [
            23.645556,
            42.301944
          ],
          [
            21.86,
            47.248333
          ],
          [
            21.010278,
            49.336389
          ],
          [
            20.304444,
            50.557778
          ],
          [
            20.115833,
            50.914722
          ],
          [
            20.019167,
            51.104167
          ],
          [
            19.9575,
            51.224167
          ],
          [
            19.887778,
            51.358611
          ],
          [
            19.844167,
            51.4425
          ],
          [
            19.277222,
            52.563056
          ],
          [
            19.006389,
            53.091944
          ],
          [
            18.614861,
            53.750583
          ],
          [
            18.208056,
            54.299722
          ],
          [
            17.161389,
            55.638611
          ],
          [
            17.228611,
            56.337778
          ],
          [
            17.346111,
            57.500833
          ],
          [
            17.884722,
            58.815833
          ],
          [
            17.918611,
            59.651944
          ]
        ]
      }
    }
  ]
}
