{
  "type": "FeatureCollection",
  "name": "VATSIM Cross the Land westbound 2026",
  "features": [
    {
      "type": "Feature",
      "id": "HECA-LKPR",
      "properties": {
        "route_id": "HECA-LKPR",
        "route_name": "HECA-LKPR",
        "origin": "HECA",
        "destination": "LKPR",
        "point_count": 15,
        "source_file": "HECA-LKPR.gpx"
      },
      "geometry": {
        "type": "LineString",
        "coordinates": [
          [
            31.413889,
            30.111389
          ],
          [
            31.388417,
            30.092306
          ],
          [
            30.301667,
            31.091944
          ],
          [
            29.950833,
            31.1875
          ],
          [
            29.309722,
            31.585556
          ],
          [
            29.071944,
            31.731111
          ],
          [
            27.432222,
            32.711111
          ],
          [
            26.976111,
            32.975556
          ],
          [
            25.15,
            34.0
          ],
          [
            20.594722,
            40.0725
          ],
          [
            19.335,
            42.228333
          ],
          [
            15.976167,
            46.309675
          ],
          [
            14.336028,
            48.948328
          ],
          [
            14.1225,
            49.648333
          ],
          [
            14.26,
            50.100833
          ]
        ]
      }
    }
  ]
}
