{
  "type": "FeatureCollection",
  "name": "VATSIM Cross the Land westbound 2026",
  "features": [
    {
      "type": "Feature",
      "id": "HECA-LKPR:001",
      "properties": {
        "route_id": "HECA-LKPR",
        "route_name": "HECA-LKPR",
        "origin": "HECA",
        "destination": "LKPR",
        "point_count": 15,
        "source_file": "HECA-LKPR.gpx",
        "point_id": "HECA-LKPR:001",
        "sequence": 1,
        "waypoint": "HECA",
        "point_role": "origin",
        "overfly": false,
        "longitude": 31.413889,
        "latitude": 30.111389
      },
      "geometry": {
        "type": "Point",
        "coordinates": [
          31.413889,
          30.111389
        ]
      }
    },
    {
      "type": "Feature",
      "id": "HECA-LKPR:002",
      "properties": {
        "route_id": "HECA-LKPR",
        "route_name": "HECA-LKPR",
        "origin": "HECA",
        "destination": "LKPR",
        "point_count": 15,
        "source_file": "HECA-LKPR.gpx",
        "point_id": "HECA-LKPR:002",
        "sequence": 2,
        "waypoint": "CVO",
        "point_role": "enroute",
        "overfly": false,
        "longitude": 31.388417,
        "latitude": 30.092306
      },
      "geometry": {
        "type": "Point",
        "coordinates": [
          31.388417,
          30.092306
        ]
      }
    },
    {
      "type": "Feature",
      "id": "HECA-LKPR:003",
      "properties": {
        "route_id": "HECA-LKPR",
        "route_name": "HECA-LKPR",
        "origin": "HECA",
        "destination": "LKPR",
        "point_count": 15,
        "source_file": "HECA-LKPR.gpx",
        "point_id": "HECA-LKPR:003",
        "sequence": 3,
        "waypoint": "MENKU",
        "point_role": "enroute",
        "overfly": false,
        "longitude": 30.301667,
        "latitude": 31.091944
      },
      "geometry": {
        "type": "Point",
        "coordinates": [
          30.301667,
          31.091944
        ]
      }
    },
    {
      "type": "Feature",
      "id": "HECA-LKPR:004",
      "properties": {
        "route_id": "HECA-LKPR",
        "route_name": "HECA-LKPR",
        "origin": "HECA",
        "destination": "LKPR",
        "point_count": 15,
        "source_file": "HECA-LKPR.gpx",
        "point_id": "HECA-LKPR:004",
        "sequence": 4,
        "waypoint": "NOZ",
        "point_role": "enroute",
        "overfly": false,
        "longitude": 29.950833,
        "latitude": 31.1875
      },
      "geometry": {
        "type": "Point",
        "coordinates": [
          29.950833,
          31.1875
        ]
      }
    },
    {
      "type": "Feature",
      "id": "HECA-LKPR:005",
      "properties": {
        "route_id": "HECA-LKPR",
        "route_name": "HECA-LKPR",
        "origin": "HECA",
        "destination": "LKPR",
        "point_count": 15,
        "source_file": "HECA-LKPR.gpx",
        "point_id": "HECA-LKPR:005",
        "sequence": 5,
        "waypoint": "SOBAX",
        "point_role": "enroute",
        "overfly": false,
        "longitude": 29.309722,
        "latitude": 31.585556
      },
      "geometry": {
        "type": "Point",
        "coordinates": [
          29.309722,
          31.585556
        ]
      }
    },
    {
      "type": "Feature",
      "id": "HECA-LKPR:006",
      "properties": {
        "route_id": "HECA-LKPR",
        "route_name": "HECA-LKPR",
        "origin": "HECA",
        "destination": "LKPR",
        "point_count": 15,
        "source_file": "HECA-LKPR.gpx",
        "point_id": "HECA-LKPR:006",
        "sequence": 6,
        "waypoint": "NABSI",
        "point_role": "enroute",
        "overfly": false,
        "longitude": 29.071944,
        "latitude": 31.731111
      },
      "geometry": {
        "type": "Point",
        "coordinates": [
          29.071944,
          31.731111
        ]
      }
    },
    {
      "type": "Feature",
      "id": "HECA-LKPR:007",
      "properties": {
        "route_id": "HECA-LKPR",
        "route_name": "HECA-LKPR",
        "origin": "HECA",
        "destination": "LKPR",
        "point_count": 15,
        "source_file": "HECA-LKPR.gpx",
        "point_id": "HECA-LKPR:007",
        "sequence": 7,
        "waypoint": "LAKBA",
        "point_role": "enroute",
        "overfly": false,
        "longitude": 27.432222,
        "latitude": 32.711111
      },
      "geometry": {
        "type": "Point",
        "coordinates": [
          27.432222,
          32.711111
        ]
      }
    },
    {
      "type": "Feature",
      "id": "HECA-LKPR:008",
      "properties": {
        "route_id": "HECA-LKPR",
        "route_name": "HECA-LKPR",
        "origin": "HECA",
        "destination": "LKPR",
        "point_count": 15,
        "source_file": "HECA-LKPR.gpx",
        "point_id": "HECA-LKPR:008",
        "sequence": 8,
        "waypoint": "ITEXO",
        "point_role": "enroute",
        "overfly": false,
        "longitude": 26.976111,
        "latitude": 32.975556
      },
      "geometry": {
        "type": "Point",
        "coordinates": [
          26.976111,
          32.975556
        ]
      }
    },
    {
      "type": "Feature",
      "id": "HECA-LKPR:009",
      "properties": {
        "route_id": "HECA-LKPR",
        "route_name": "HECA-LKPR",
        "origin": "HECA",
        "destination": "LKPR",
        "point_count": 15,
        "source_file": "HECA-LKPR.gpx",
        "point_id": "HECA-LKPR:009",
        "sequence": 9,
        "waypoint": "METRU",
        "point_role": "enroute",
        "overfly": false,
        "longitude": 25.15,
        "latitude": 34.0
      },
      "geometry": {
        "type": "Point",
        "coordinates": [
          25.15,
          34.0
        ]
      }
    },
    {
      "type": "Feature",
      "id": "HECA-LKPR:010",
      "properties": {
        "route_id": "HECA-LKPR",
        "route_name": "HECA-LKPR",
        "origin": "HECA",
        "destination": "LKPR",
        "point_count": 15,
        "source_file": "HECA-LKPR.gpx",
        "point_id": "HECA-LKPR:010",
        "sequence": 10,
        "waypoint": "DIMIS",
        "point_role": "enroute",
        "overfly": false,
        "longitude": 20.594722,
        "latitude": 40.0725
      },
      "geometry": {
        "type": "Point",
        "coordinates": [
          20.594722,
          40.0725
        ]
      }
    },
    {
      "type": "Feature",
      "id": "HECA-LKPR:011",
      "properties": {
        "route_id": "HECA-LKPR",
        "route_name": "HECA-LKPR",
        "origin": "HECA",
        "destination": "LKPR",
        "point_count": 15,
        "source_file": "HECA-LKPR.gpx",
        "point_id": "HECA-LKPR:011",
        "sequence": 11,
        "waypoint": "RETRA",
        "point_role": "enroute",
        "overfly": false,
        "longitude": 19.335,
        "latitude": 42.228333
      },
      "geometry": {
        "type": "Point",
        "coordinates": [
          19.335,
          42.228333
        ]
      }
    },
    {
      "type": "Feature",
      "id": "HECA-LKPR:012",
      "properties": {
        "route_id": "HECA-LKPR",
        "route_name": "HECA-LKPR",
        "origin": "HECA",
        "destination": "LKPR",
        "point_count": 15,
        "source_file": "HECA-LKPR.gpx",
        "point_id": "HECA-LKPR:012",
        "sequence": 12,
        "waypoint": "PETOV",
        "point_role": "enroute",
        "overfly": false,
        "longitude": 15.976167,
        "latitude": 46.309675
      },
      "geometry": {
        "type": "Point",
        "coordinates": [
          15.976167,
          46.309675
        ]
      }
    },
    {
      "type": "Feature",
      "id": "HECA-LKPR:013",
      "properties": {
        "route_id": "HECA-LKPR",
        "route_name": "HECA-LKPR",
        "origin": "HECA",
        "destination": "LKPR",
        "point_count": 15,
        "source_file": "HECA-LKPR.gpx",
        "point_id": "HECA-LKPR:013",
        "sequence": 13,
        "waypoint": "BUDEX",
        "point_role": "enroute",
        "overfly": false,
        "longitude": 14.336028,
        "latitude": 48.948328
      },
      "geometry": {
        "type": "Point",
        "coordinates": [
          14.336028,
          48.948328
        ]
      }
    },
    {
      "type": "Feature",
      "id": "HECA-LKPR:014",
      "properties": {
        "route_id": "HECA-LKPR",
        "route_name": "HECA-LKPR",
        "origin": "HECA",
        "destination": "LKPR",
        "point_count": 15,
        "source_file": "HECA-LKPR.gpx",
        "point_id": "HECA-LKPR:014",
        "sequence": 14,
        "waypoint": "APRAQ",
        "point_role": "enroute",
        "overfly": false,
        "longitude": 14.1225,
        "latitude": 49.648333
      },
      "geometry": {
        "type": "Point",
        "coordinates": [
          14.1225,
          49.648333
        ]
      }
    },
    {
      "type": "Feature",
      "id": "HECA-LKPR:015",
      "properties": {
        "route_id": "HECA-LKPR",
        "route_name": "HECA-LKPR",
        "origin": "HECA",
        "destination": "LKPR",
        "point_count": 15,
        "source_file": "HECA-LKPR.gpx",
        "point_id": "HECA-LKPR:015",
        "sequence": 15,
        "waypoint": "LKPR",
        "point_role": "destination",
        "overfly": false,
        "longitude": 14.26,
        "latitude": 50.100833
      },
      "geometry": {
        "type": "Point",
        "coordinates": [
          14.26,
          50.100833
        ]
      }
    }
  ]
}
