{
  "type": "FeatureCollection",
  "name": "VATSIM Cross the Land westbound 2026",
  "features": [
    {
      "type": "Feature",
      "id": "HECA-LOWW",
      "properties": {
        "route_id": "HECA-LOWW",
        "route_name": "HECA-LOWW",
        "origin": "HECA",
        "destination": "LOWW",
        "point_count": 20,
        "source_file": "HECA-LOWW.gpx"
      },
      "geometry": {
        "type": "LineString",
        "coordinates": [
          [
            31.413889,
            30.111389
          ],
          [
            31.388417,
            30.092306
          ],
          [
            31.32,
            30.465556
          ],
          [
            31.512222,
            30.751944
          ],
          [
            31.420833,
            31.250833
          ],
          [
            31.364444,
            31.554722
          ],
          [
            31.332222,
            31.865556
          ],
          [
            31.311944,
            32.057222
          ],
          [
            31.299722,
            32.171667
          ],
          [
            31.255833,
            32.578333
          ],
          [
            30.95,
            33.1
          ],
          [
            30.0,
            34.163611
          ],
          [
            25.362778,
            37.275833
          ],
          [
            24.560278,
            38.168333
          ],
          [
            23.348333,
            39.733333
          ],
          [
            21.916667,
            41.076667
          ],
          [
            21.397222,
            42.159444
          ],
          [
            20.311389,
            42.833889
          ],
          [
            16.27405,
            46.378303
          ],
          [
            16.569722,
            48.110278
          ]
        ]
      }
    }
  ]
}
