{
  "type": "FeatureCollection",
  "name": "VATSIM Cross the Land westbound 2026",
  "features": [
    {
      "type": "Feature",
      "id": "HECA-LHBP",
      "properties": {
        "route_id": "HECA-LHBP",
        "route_name": "HECA-LHBP",
        "origin": "HECA",
        "destination": "LHBP",
        "point_count": 31,
        "source_file": "HECA-LHBP.gpx"
      },
      "geometry": {
        "type": "LineString",
        "coordinates": [
          [
            31.413889,
            30.111389
          ],
          [
            31.388417,
            30.092306
          ],
          [
            31.512222,
            30.751944
          ],
          [
            31.420833,
            31.250833
          ],
          [
            31.364444,
            31.554722
          ],
          [
            31.332222,
            31.865556
          ],
          [
            31.311944,
            32.057222
          ],
          [
            31.299722,
            32.171667
          ],
          [
            31.255833,
            32.578333
          ],
          [
            30.95,
            33.1
          ],
          [
            30.917778,
            33.952778
          ],
          [
            30.901667,
            34.243056
          ],
          [
            30.883333,
            34.616667
          ],
          [
            30.864722,
            35.178056
          ],
          [
            30.824444,
            36.040556
          ],
          [
            30.811944,
            36.415556
          ],
          [
            30.794472,
            36.920806
          ],
          [
            30.810178,
            38.129297
          ],
          [
            30.690278,
            38.851944
          ],
          [
            30.266111,
            39.498889
          ],
          [
            30.018056,
            39.961944
          ],
          [
            29.636389,
            40.661389
          ],
          [
            29.142889,
            41.126972
          ],
          [
            28.404444,
            41.493611
          ],
          [
            28.110556,
            41.983333
          ],
          [
            26.768056,
            42.747778
          ],
          [
            26.151944,
            43.1725
          ],
          [
            25.0025,
            43.973333
          ],
          [
            21.267222,
            46.493611
          ],
          [
            20.231389,
            47.153611
          ],
          [
            19.261944,
            47.439444
          ]
        ]
      }
    }
  ]
}
