{
  "type": "FeatureCollection",
  "name": "VATSIM Cross the Land westbound 2026",
  "features": [
    {
      "type": "Feature",
      "id": "HECA-LIRF",
      "properties": {
        "route_id": "HECA-LIRF",
        "route_name": "HECA-LIRF",
        "origin": "HECA",
        "destination": "LIRF",
        "point_count": 19,
        "source_file": "HECA-LIRF.gpx"
      },
      "geometry": {
        "type": "LineString",
        "coordinates": [
          [
            31.413889,
            30.111389
          ],
          [
            31.388417,
            30.092306
          ],
          [
            30.301667,
            31.091944
          ],
          [
            29.950833,
            31.1875
          ],
          [
            29.309722,
            31.585556
          ],
          [
            29.071944,
            31.731111
          ],
          [
            27.432222,
            32.711111
          ],
          [
            26.976111,
            32.975556
          ],
          [
            25.15,
            34.0
          ],
          [
            21.608611,
            36.031667
          ],
          [
            19.0,
            37.4
          ],
          [
            17.083056,
            38.996111
          ],
          [
            16.326111,
            39.162222
          ],
          [
            14.833333,
            40.146667
          ],
          [
            14.335028,
            40.582444
          ],
          [
            13.970667,
            41.296778
          ],
          [
            13.680528,
            41.446019
          ],
          [
            12.918056,
            41.541111
          ],
          [
            12.238889,
            41.800278
          ]
        ]
      }
    }
  ]
}
