{
  "type": "FeatureCollection",
  "name": "VATSIM Cross the Land westbound 2026",
  "features": [
    {
      "type": "Feature",
      "id": "OERK-LKPR",
      "properties": {
        "route_id": "OERK-LKPR",
        "route_name": "OERK-LKPR",
        "origin": "OERK",
        "destination": "LKPR",
        "point_count": 39,
        "source_file": "OERK-LKPR.gpx"
      },
      "geometry": {
        "type": "LineString",
        "coordinates": [
          [
            46.708056,
            24.962778
          ],
          [
            45.438889,
            26.170556
          ],
          [
            45.298611,
            26.304167
          ],
          [
            44.995833,
            26.592222
          ],
          [
            44.809167,
            26.768889
          ],
          [
            44.569444,
            26.994167
          ],
          [
            44.381389,
            27.169722
          ],
          [
            43.651111,
            27.845278
          ],
          [
            42.679722,
            28.643889
          ],
          [
            42.185278,
            29.043056
          ],
          [
            41.309167,
            29.738333
          ],
          [
            40.639167,
            30.386667
          ],
          [
            39.553611,
            31.432778
          ],
          [
            39.164167,
            31.800278
          ],
          [
            39.031344,
            32.025278
          ],
          [
            38.693928,
            32.594411
          ],
          [
            38.468797,
            32.96995
          ],
          [
            38.368611,
            33.135833
          ],
          [
            37.92,
            33.871944
          ],
          [
            35.716667,
            35.193333
          ],
          [
            34.016111,
            35.915556
          ],
          [
            33.754444,
            36.261111
          ],
          [
            33.291833,
            36.863028
          ],
          [
            32.203611,
            37.651667
          ],
          [
            31.582778,
            38.090833
          ],
          [
            31.018611,
            38.481944
          ],
          [
            30.690278,
            38.851944
          ],
          [
            30.266111,
            39.498889
          ],
          [
            30.018056,
            39.961944
          ],
          [
            29.636389,
            40.661389
          ],
          [
            29.142889,
            41.126972
          ],
          [
            28.404444,
            41.493611
          ],
          [
            28.110556,
            41.983333
          ],
          [
            26.768056,
            42.747778
          ],
          [
            21.496667,
            46.6875
          ],
          [
            17.709514,
            48.865172
          ],
          [
            15.947267,
            49.407894
          ],
          [
            15.066742,
            49.704272
          ],
          [
            14.26,
            50.100833
          ]
        ]
      }
    }
  ]
}
