{
  "type": "FeatureCollection",
  "name": "VATSIM Cross the Land westbound 2026",
  "features": [
    {
      "type": "Feature",
      "id": "OERK-LOWW",
      "properties": {
        "route_id": "OERK-LOWW",
        "route_name": "OERK-LOWW",
        "origin": "OERK",
        "destination": "LOWW",
        "point_count": 37,
        "source_file": "OERK-LOWW.gpx"
      },
      "geometry": {
        "type": "LineString",
        "coordinates": [
          [
            46.708056,
            24.962778
          ],
          [
            45.438889,
            26.170556
          ],
          [
            45.298611,
            26.304167
          ],
          [
            44.995833,
            26.592222
          ],
          [
            44.809167,
            26.768889
          ],
          [
            44.569444,
            26.994167
          ],
          [
            44.381389,
            27.169722
          ],
          [
            43.651111,
            27.845278
          ],
          [
            42.679722,
            28.643889
          ],
          [
            42.185278,
            29.043056
          ],
          [
            41.309167,
            29.738333
          ],
          [
            40.639167,
            30.386667
          ],
          [
            39.553611,
            31.432778
          ],
          [
            39.164167,
            31.800278
          ],
          [
            39.031344,
            32.025278
          ],
          [
            38.693928,
            32.594411
          ],
          [
            38.468797,
            32.96995
          ],
          [
            38.368611,
            33.135833
          ],
          [
            37.92,
            33.871944
          ],
          [
            35.716667,
            35.193333
          ],
          [
            34.016111,
            35.915556
          ],
          [
            33.754444,
            36.261111
          ],
          [
            33.291833,
            36.863028
          ],
          [
            32.203611,
            37.651667
          ],
          [
            31.582778,
            38.090833
          ],
          [
            31.018611,
            38.481944
          ],
          [
            30.500833,
            39.546944
          ],
          [
            29.516111,
            41.198889
          ],
          [
            29.142778,
            42.170556
          ],
          [
            24.331667,
            44.920556
          ],
          [
            22.646667,
            45.8375
          ],
          [
            22.408075,
            45.953222
          ],
          [
            21.267222,
            46.493611
          ],
          [
            19.129444,
            47.340833
          ],
          [
            18.49,
            47.539722
          ],
          [
            17.5,
            47.746944
          ],
          [
            16.569722,
            48.110278
          ]
        ]
      }
    }
  ]
}
