{
  "type": "FeatureCollection",
  "name": "VATSIM Cross the Land westbound 2026",
  "features": [
    {
      "type": "Feature",
      "id": "OERK-ESSA:001",
      "properties": {
        "route_id": "OERK-ESSA",
        "route_name": "OERK-ESSA",
        "origin": "OERK",
        "destination": "ESSA",
        "point_count": 64,
        "source_file": "OERK-ESSA.gpx",
        "point_id": "OERK-ESSA:001",
        "sequence": 1,
        "waypoint": "OERK",
        "point_role": "origin",
        "overfly": false,
        "longitude": 46.708056,
        "latitude": 24.962778
      },
      "geometry": {
        "type": "Point",
        "coordinates": [
          46.708056,
          24.962778
        ]
      }
    },
    {
      "type": "Feature",
      "id": "OERK-ESSA:002",
      "properties": {
        "route_id": "OERK-ESSA",
        "route_name": "OERK-ESSA",
        "origin": "OERK",
        "destination": "ESSA",
        "point_count": 64,
        "source_file": "OERK-ESSA.gpx",
        "point_id": "OERK-ESSA:002",
        "sequence": 2,
        "waypoint": "LONIB",
        "point_role": "enroute",
        "overfly": false,
        "longitude": 45.438889,
        "latitude": 26.170556
      },
      "geometry": {
        "type": "Point",
        "coordinates": [
          45.438889,
          26.170556
        ]
      }
    },
    {
      "type": "Feature",
      "id": "OERK-ESSA:003",
      "properties": {
        "route_id": "OERK-ESSA",
        "route_name": "OERK-ESSA",
        "origin": "OERK",
        "destination": "ESSA",
        "point_count": 64,
        "source_file": "OERK-ESSA.gpx",
        "point_id": "OERK-ESSA:003",
        "sequence": 3,
        "waypoint": "LABIS",
        "point_role": "enroute",
        "overfly": false,
        "longitude": 45.298611,
        "latitude": 26.304167
      },
      "geometry": {
        "type": "Point",
        "coordinates": [
          45.298611,
          26.304167
        ]
      }
    },
    {
      "type": "Feature",
      "id": "OERK-ESSA:004",
      "properties": {
        "route_id": "OERK-ESSA",
        "route_name": "OERK-ESSA",
        "origin": "OERK",
        "destination": "ESSA",
        "point_count": 64,
        "source_file": "OERK-ESSA.gpx",
        "point_id": "OERK-ESSA:004",
        "sequence": 4,
        "waypoint": "ASVUL",
        "point_role": "enroute",
        "overfly": false,
        "longitude": 44.995833,
        "latitude": 26.592222
      },
      "geometry": {
        "type": "Point",
        "coordinates": [
          44.995833,
          26.592222
        ]
      }
    },
    {
      "type": "Feature",
      "id": "OERK-ESSA:005",
      "properties": {
        "route_id": "OERK-ESSA",
        "route_name": "OERK-ESSA",
        "origin": "OERK",
        "destination": "ESSA",
        "point_count": 64,
        "source_file": "OERK-ESSA.gpx",
        "point_id": "OERK-ESSA:005",
        "sequence": 5,
        "waypoint": "SERPU",
        "point_role": "enroute",
        "overfly": false,
        "longitude": 44.809167,
        "latitude": 26.768889
      },
      "geometry": {
        "type": "Point",
        "coordinates": [
          44.809167,
          26.768889
        ]
      }
    },
    {
      "type": "Feature",
      "id": "OERK-ESSA:006",
      "properties": {
        "route_id": "OERK-ESSA",
        "route_name": "OERK-ESSA",
        "origin": "OERK",
        "destination": "ESSA",
        "point_count": 64,
        "source_file": "OERK-ESSA.gpx",
        "point_id": "OERK-ESSA:006",
        "sequence": 6,
        "waypoint": "RARLO",
        "point_role": "enroute",
        "overfly": false,
        "longitude": 44.569444,
        "latitude": 26.994167
      },
      "geometry": {
        "type": "Point",
        "coordinates": [
          44.569444,
          26.994167
        ]
      }
    },
    {
      "type": "Feature",
      "id": "OERK-ESSA:007",
      "properties": {
        "route_id": "OERK-ESSA",
        "route_name": "OERK-ESSA",
        "origin": "OERK",
        "destination": "ESSA",
        "point_count": 64,
        "source_file": "OERK-ESSA.gpx",
        "point_id": "OERK-ESSA:007",
        "sequence": 7,
        "waypoint": "PASIT",
        "point_role": "enroute",
        "overfly": false,
        "longitude": 44.381389,
        "latitude": 27.169722
      },
      "geometry": {
        "type": "Point",
        "coordinates": [
          44.381389,
          27.169722
        ]
      }
    },
    {
      "type": "Feature",
      "id": "OERK-ESSA:008",
      "properties": {
        "route_id": "OERK-ESSA",
        "route_name": "OERK-ESSA",
        "origin": "OERK",
        "destination": "ESSA",
        "point_count": 64,
        "source_file": "OERK-ESSA.gpx",
        "point_id": "OERK-ESSA:008",
        "sequence": 8,
        "waypoint": "TOTAD",
        "point_role": "enroute",
        "overfly": false,
        "longitude": 43.651111,
        "latitude": 27.845278
      },
      "geometry": {
        "type": "Point",
        "coordinates": [
          43.651111,
          27.845278
        ]
      }
    },
    {
      "type": "Feature",
      "id": "OERK-ESSA:009",
      "properties": {
        "route_id": "OERK-ESSA",
        "route_name": "OERK-ESSA",
        "origin": "OERK",
        "destination": "ESSA",
        "point_count": 64,
        "source_file": "OERK-ESSA.gpx",
        "point_id": "OERK-ESSA:009",
        "sequence": 9,
        "waypoint": "TAMRO",
        "point_role": "enroute",
        "overfly": false,
        "longitude": 42.679722,
        "latitude": 28.643889
      },
      "geometry": {
        "type": "Point",
        "coordinates": [
          42.679722,
          28.643889
        ]
      }
    },
    {
      "type": "Feature",
      "id": "OERK-ESSA:010",
      "properties": {
        "route_id": "OERK-ESSA",
        "route_name": "OERK-ESSA",
        "origin": "OERK",
        "destination": "ESSA",
        "point_count": 64,
        "source_file": "OERK-ESSA.gpx",
        "point_id": "OERK-ESSA:010",
        "sequence": 10,
        "waypoint": "ORSAL",
        "point_role": "enroute",
        "overfly": false,
        "longitude": 42.185278,
        "latitude": 29.043056
      },
      "geometry": {
        "type": "Point",
        "coordinates": [
          42.185278,
          29.043056
        ]
      }
    },
    {
      "type": "Feature",
      "id": "OERK-ESSA:011",
      "properties": {
        "route_id": "OERK-ESSA",
        "route_name": "OERK-ESSA",
        "origin": "OERK",
        "destination": "ESSA",
        "point_count": 64,
        "source_file": "OERK-ESSA.gpx",
        "point_id": "OERK-ESSA:011",
        "sequence": 11,
        "waypoint": "PAXAN",
        "point_role": "enroute",
        "overfly": false,
        "longitude": 41.309167,
        "latitude": 29.738333
      },
      "geometry": {
        "type": "Point",
        "coordinates": [
          41.309167,
          29.738333
        ]
      }
    },
    {
      "type": "Feature",
      "id": "OERK-ESSA:012",
      "properties": {
        "route_id": "OERK-ESSA",
        "route_name": "OERK-ESSA",
        "origin": "OERK",
        "destination": "ESSA",
        "point_count": 64,
        "source_file": "OERK-ESSA.gpx",
        "point_id": "OERK-ESSA:012",
        "sequence": 12,
        "waypoint": "GADLI",
        "point_role": "enroute",
        "overfly": false,
        "longitude": 40.639167,
        "latitude": 30.386667
      },
      "geometry": {
        "type": "Point",
        "coordinates": [
          40.639167,
          30.386667
        ]
      }
    },
    {
      "type": "Feature",
      "id": "OERK-ESSA:013",
      "properties": {
        "route_id": "OERK-ESSA",
        "route_name": "OERK-ESSA",
        "origin": "OERK",
        "destination": "ESSA",
        "point_count": 64,
        "source_file": "OERK-ESSA.gpx",
        "point_id": "OERK-ESSA:013",
        "sequence": 13,
        "waypoint": "BONIS",
        "point_role": "enroute",
        "overfly": false,
        "longitude": 39.553611,
        "latitude": 31.432778
      },
      "geometry": {
        "type": "Point",
        "coordinates": [
          39.553611,
          31.432778
        ]
      }
    },
    {
      "type": "Feature",
      "id": "OERK-ESSA:014",
      "properties": {
        "route_id": "OERK-ESSA",
        "route_name": "OERK-ESSA",
        "origin": "OERK",
        "destination": "ESSA",
        "point_count": 64,
        "source_file": "OERK-ESSA.gpx",
        "point_id": "OERK-ESSA:014",
        "sequence": 14,
        "waypoint": "OVANO",
        "point_role": "enroute",
        "overfly": false,
        "longitude": 39.164167,
        "latitude": 31.800278
      },
      "geometry": {
        "type": "Point",
        "coordinates": [
          39.164167,
          31.800278
        ]
      }
    },
    {
      "type": "Feature",
      "id": "OERK-ESSA:015",
      "properties": {
        "route_id": "OERK-ESSA",
        "route_name": "OERK-ESSA",
        "origin": "OERK",
        "destination": "ESSA",
        "point_count": 64,
        "source_file": "OERK-ESSA.gpx",
        "point_id": "OERK-ESSA:015",
        "sequence": 15,
        "waypoint": "OTILA",
        "point_role": "enroute",
        "overfly": false,
        "longitude": 39.031344,
        "latitude": 32.025278
      },
      "geometry": {
        "type": "Point",
        "coordinates": [
          39.031344,
          32.025278
        ]
      }
    },
    {
      "type": "Feature",
      "id": "OERK-ESSA:016",
      "properties": {
        "route_id": "OERK-ESSA",
        "route_name": "OERK-ESSA",
        "origin": "OERK",
        "destination": "ESSA",
        "point_count": 64,
        "source_file": "OERK-ESSA.gpx",
        "point_id": "OERK-ESSA:016",
        "sequence": 16,
        "waypoint": "MODAD",
        "point_role": "enroute",
        "overfly": false,
        "longitude": 38.693928,
        "latitude": 32.594411
      },
      "geometry": {
        "type": "Point",
        "coordinates": [
          38.693928,
          32.594411
        ]
      }
    },
    {
      "type": "Feature",
      "id": "OERK-ESSA:017",
      "properties": {
        "route_id": "OERK-ESSA",
        "route_name": "OERK-ESSA",
        "origin": "OERK",
        "destination": "ESSA",
        "point_count": 64,
        "source_file": "OERK-ESSA.gpx",
        "point_id": "OERK-ESSA:017",
        "sequence": 17,
        "waypoint": "DAPUK",
        "point_role": "enroute",
        "overfly": false,
        "longitude": 38.673969,
        "latitude": 33.027622
      },
      "geometry": {
        "type": "Point",
        "coordinates": [
          38.673969,
          33.027622
        ]
      }
    },
    {
      "type": "Feature",
      "id": "OERK-ESSA:018",
      "properties": {
        "route_id": "OERK-ESSA",
        "route_name": "OERK-ESSA",
        "origin": "OERK",
        "destination": "ESSA",
        "point_count": 64,
        "source_file": "OERK-ESSA.gpx",
        "point_id": "OERK-ESSA:018",
        "sequence": 18,
        "waypoint": "NAMBO",
        "point_role": "enroute",
        "overfly": false,
        "longitude": 38.660719,
        "latitude": 33.307133
      },
      "geometry": {
        "type": "Point",
        "coordinates": [
          38.660719,
          33.307133
        ]
      }
    },
    {
      "type": "Feature",
      "id": "OERK-ESSA:019",
      "properties": {
        "route_id": "OERK-ESSA",
        "route_name": "OERK-ESSA",
        "origin": "OERK",
        "destination": "ESSA",
        "point_count": 64,
        "source_file": "OERK-ESSA.gpx",
        "point_id": "OERK-ESSA:019",
        "sequence": 19,
        "waypoint": "TAN",
        "point_role": "enroute",
        "overfly": false,
        "longitude": 38.654064,
        "latitude": 33.482383
      },
      "geometry": {
        "type": "Point",
        "coordinates": [
          38.654064,
          33.482383
        ]
      }
    },
    {
      "type": "Feature",
      "id": "OERK-ESSA:020",
      "properties": {
        "route_id": "OERK-ESSA",
        "route_name": "OERK-ESSA",
        "origin": "OERK",
        "destination": "ESSA",
        "point_count": 64,
        "source_file": "OERK-ESSA.gpx",
        "point_id": "OERK-ESSA:020",
        "sequence": 20,
        "waypoint": "TUDMU",
        "point_role": "enroute",
        "overfly": false,
        "longitude": 38.125,
        "latitude": 34.516667
      },
      "geometry": {
        "type": "Point",
        "coordinates": [
          38.125,
          34.516667
        ]
      }
    },
    {
      "type": "Feature",
      "id": "OERK-ESSA:021",
      "properties": {
        "route_id": "OERK-ESSA",
        "route_name": "OERK-ESSA",
        "origin": "OERK",
        "destination": "ESSA",
        "point_count": 64,
        "source_file": "OERK-ESSA.gpx",
        "point_id": "OERK-ESSA:021",
        "sequence": 21,
        "waypoint": "TANGO",
        "point_role": "enroute",
        "overfly": false,
        "longitude": 37.335,
        "latitude": 35.95
      },
      "geometry": {
        "type": "Point",
        "coordinates": [
          37.335,
          35.95
        ]
      }
    },
    {
      "type": "Feature",
      "id": "OERK-ESSA:022",
      "properties": {
        "route_id": "OERK-ESSA",
        "route_name": "OERK-ESSA",
        "origin": "OERK",
        "destination": "ESSA",
        "point_count": 64,
        "source_file": "OERK-ESSA.gpx",
        "point_id": "OERK-ESSA:022",
        "sequence": 22,
        "waypoint": "ALE",
        "point_role": "enroute",
        "overfly": false,
        "longitude": 37.209378,
        "latitude": 36.179683
      },
      "geometry": {
        "type": "Point",
        "coordinates": [
          37.209378,
          36.179683
        ]
      }
    },
    {
      "type": "Feature",
      "id": "OERK-ESSA:023",
      "properties": {
        "route_id": "OERK-ESSA",
        "route_name": "OERK-ESSA",
        "origin": "OERK",
        "destination": "ESSA",
        "point_count": 64,
        "source_file": "OERK-ESSA.gpx",
        "point_id": "OERK-ESSA:023",
        "sequence": 23,
        "waypoint": "NOVMR",
        "point_role": "enroute",
        "overfly": false,
        "longitude": 37.021667,
        "latitude": 36.381667
      },
      "geometry": {
        "type": "Point",
        "coordinates": [
          37.021667,
          36.381667
        ]
      }
    },
    {
      "type": "Feature",
      "id": "OERK-ESSA:024",
      "properties": {
        "route_id": "OERK-ESSA",
        "route_name": "OERK-ESSA",
        "origin": "OERK",
        "destination": "ESSA",
        "point_count": 64,
        "source_file": "OERK-ESSA.gpx",
        "point_id": "OERK-ESSA:024",
        "sequence": 24,
        "waypoint": "NISAP",
        "point_role": "enroute",
        "overfly": false,
        "longitude": 36.641389,
        "latitude": 36.784444
      },
      "geometry": {
        "type": "Point",
        "coordinates": [
          36.641389,
          36.784444
        ]
      }
    },
    {
      "type": "Feature",
      "id": "OERK-ESSA:025",
      "properties": {
        "route_id": "OERK-ESSA",
        "route_name": "OERK-ESSA",
        "origin": "OERK",
        "destination": "ESSA",
        "point_count": 64,
        "source_file": "OERK-ESSA.gpx",
        "point_id": "OERK-ESSA:025",
        "sequence": 25,
        "waypoint": "MILBA",
        "point_role": "enroute",
        "overfly": false,
        "longitude": 36.479444,
        "latitude": 36.951389
      },
      "geometry": {
        "type": "Point",
        "coordinates": [
          36.479444,
          36.951389
        ]
      }
    },
    {
      "type": "Feature",
      "id": "OERK-ESSA:026",
      "properties": {
        "route_id": "OERK-ESSA",
        "route_name": "OERK-ESSA",
        "origin": "OERK",
        "destination": "ESSA",
        "point_count": 64,
        "source_file": "OERK-ESSA.gpx",
        "point_id": "OERK-ESSA:026",
        "sequence": 26,
        "waypoint": "TEVDA",
        "point_role": "enroute",
        "overfly": false,
        "longitude": 35.066667,
        "latitude": 38.372778
      },
      "geometry": {
        "type": "Point",
        "coordinates": [
          35.066667,
          38.372778
        ]
      }
    },
    {
      "type": "Feature",
      "id": "OERK-ESSA:027",
      "properties": {
        "route_id": "OERK-ESSA",
        "route_name": "OERK-ESSA",
        "origin": "OERK",
        "destination": "ESSA",
        "point_count": 64,
        "source_file": "OERK-ESSA.gpx",
        "point_id": "OERK-ESSA:027",
        "sequence": 27,
        "waypoint": "BELSU",
        "point_role": "enroute",
        "overfly": false,
        "longitude": 34.286389,
        "latitude": 39.130833
      },
      "geometry": {
        "type": "Point",
        "coordinates": [
          34.286389,
          39.130833
        ]
      }
    },
    {
      "type": "Feature",
      "id": "OERK-ESSA:028",
      "properties": {
        "route_id": "OERK-ESSA",
        "route_name": "OERK-ESSA",
        "origin": "OERK",
        "destination": "ESSA",
        "point_count": 64,
        "source_file": "OERK-ESSA.gpx",
        "point_id": "OERK-ESSA:028",
        "sequence": 28,
        "waypoint": "BUK",
        "point_role": "enroute",
        "overfly": false,
        "longitude": 33.104917,
        "latitude": 40.241861
      },
      "geometry": {
        "type": "Point",
        "coordinates": [
          33.104917,
          40.241861
        ]
      }
    },
    {
      "type": "Feature",
      "id": "OERK-ESSA:029",
      "properties": {
        "route_id": "OERK-ESSA",
        "route_name": "OERK-ESSA",
        "origin": "OERK",
        "destination": "ESSA",
        "point_count": 64,
        "source_file": "OERK-ESSA.gpx",
        "point_id": "OERK-ESSA:029",
        "sequence": 29,
        "waypoint": "LETBU",
        "point_role": "enroute",
        "overfly": false,
        "longitude": 32.069167,
        "latitude": 41.1325
      },
      "geometry": {
        "type": "Point",
        "coordinates": [
          32.069167,
          41.1325
        ]
      }
    },
    {
      "type": "Feature",
      "id": "OERK-ESSA:030",
      "properties": {
        "route_id": "OERK-ESSA",
        "route_name": "OERK-ESSA",
        "origin": "OERK",
        "destination": "ESSA",
        "point_count": 64,
        "source_file": "OERK-ESSA.gpx",
        "point_id": "OERK-ESSA:030",
        "sequence": 30,
        "waypoint": "EVLAP",
        "point_role": "enroute",
        "overfly": false,
        "longitude": 31.585833,
        "latitude": 41.5375
      },
      "geometry": {
        "type": "Point",
        "coordinates": [
          31.585833,
          41.5375
        ]
      }
    },
    {
      "type": "Feature",
      "id": "OERK-ESSA:031",
      "properties": {
        "route_id": "OERK-ESSA",
        "route_name": "OERK-ESSA",
        "origin": "OERK",
        "destination": "ESSA",
        "point_count": 64,
        "source_file": "OERK-ESSA.gpx",
        "point_id": "OERK-ESSA:031",
        "sequence": 31,
        "waypoint": "ULVEX",
        "point_role": "enroute",
        "overfly": false,
        "longitude": 31.531111,
        "latitude": 41.583056
      },
      "geometry": {
        "type": "Point",
        "coordinates": [
          31.531111,
          41.583056
        ]
      }
    },
    {
      "type": "Feature",
      "id": "OERK-ESSA:032",
      "properties": {
        "route_id": "OERK-ESSA",
        "route_name": "OERK-ESSA",
        "origin": "OERK",
        "destination": "ESSA",
        "point_count": 64,
        "source_file": "OERK-ESSA.gpx",
        "point_id": "OERK-ESSA:032",
        "sequence": 32,
        "waypoint": "UNSUL",
        "point_role": "enroute",
        "overfly": false,
        "longitude": 31.308611,
        "latitude": 41.766667
      },
      "geometry": {
        "type": "Point",
        "coordinates": [
          31.308611,
          41.766667
        ]
      }
    },
    {
      "type": "Feature",
      "id": "OERK-ESSA:033",
      "properties": {
        "route_id": "OERK-ESSA",
        "route_name": "OERK-ESSA",
        "origin": "OERK",
        "destination": "ESSA",
        "point_count": 64,
        "source_file": "OERK-ESSA.gpx",
        "point_id": "OERK-ESSA:033",
        "sequence": 33,
        "waypoint": "ERMUP",
        "point_role": "enroute",
        "overfly": false,
        "longitude": 31.022778,
        "latitude": 42.000556
      },
      "geometry": {
        "type": "Point",
        "coordinates": [
          31.022778,
          42.000556
        ]
      }
    },
    {
      "type": "Feature",
      "id": "OERK-ESSA:034",
      "properties": {
        "route_id": "OERK-ESSA",
        "route_name": "OERK-ESSA",
        "origin": "OERK",
        "destination": "ESSA",
        "point_count": 64,
        "source_file": "OERK-ESSA.gpx",
        "point_id": "OERK-ESSA:034",
        "sequence": 34,
        "waypoint": "RIXUB",
        "point_role": "enroute",
        "overfly": false,
        "longitude": 30.668889,
        "latitude": 42.287222
      },
      "geometry": {
        "type": "Point",
        "coordinates": [
          30.668889,
          42.287222
        ]
      }
    },
    {
      "type": "Feature",
      "id": "OERK-ESSA:035",
      "properties": {
        "route_id": "OERK-ESSA",
        "route_name": "OERK-ESSA",
        "origin": "OERK",
        "destination": "ESSA",
        "point_count": 64,
        "source_file": "OERK-ESSA.gpx",
        "point_id": "OERK-ESSA:035",
        "sequence": 35,
        "waypoint": "ODERO",
        "point_role": "enroute",
        "overfly": false,
        "longitude": 30.264444,
        "latitude": 42.610556
      },
      "geometry": {
        "type": "Point",
        "coordinates": [
          30.264444,
          42.610556
        ]
      }
    },
    {
      "type": "Feature",
      "id": "OERK-ESSA:036",
      "properties": {
        "route_id": "OERK-ESSA",
        "route_name": "OERK-ESSA",
        "origin": "OERK",
        "destination": "ESSA",
        "point_count": 64,
        "source_file": "OERK-ESSA.gpx",
        "point_id": "OERK-ESSA:036",
        "sequence": 36,
        "waypoint": "REVDA",
        "point_role": "enroute",
        "overfly": false,
        "longitude": 29.143333,
        "latitude": 43.733333
      },
      "geometry": {
        "type": "Point",
        "coordinates": [
          29.143333,
          43.733333
        ]
      }
    },
    {
      "type": "Feature",
      "id": "OERK-ESSA:037",
      "properties": {
        "route_id": "OERK-ESSA",
        "route_name": "OERK-ESSA",
        "origin": "OERK",
        "destination": "ESSA",
        "point_count": 64,
        "source_file": "OERK-ESSA.gpx",
        "point_id": "OERK-ESSA:037",
        "sequence": 37,
        "waypoint": "KARIL",
        "point_role": "enroute",
        "overfly": false,
        "longitude": 22.442222,
        "latitude": 47.793889
      },
      "geometry": {
        "type": "Point",
        "coordinates": [
          22.442222,
          47.793889
        ]
      }
    },
    {
      "type": "Feature",
      "id": "OERK-ESSA:038",
      "properties": {
        "route_id": "OERK-ESSA",
        "route_name": "OERK-ESSA",
        "origin": "OERK",
        "destination": "ESSA",
        "point_count": 64,
        "source_file": "OERK-ESSA.gpx",
        "point_id": "OERK-ESSA:038",
        "sequence": 38,
        "waypoint": "KENIN",
        "point_role": "enroute",
        "overfly": false,
        "longitude": 21.927222,
        "latitude": 48.361667
      },
      "geometry": {
        "type": "Point",
        "coordinates": [
          21.927222,
          48.361667
        ]
      }
    },
    {
      "type": "Feature",
      "id": "OERK-ESSA:039",
      "properties": {
        "route_id": "OERK-ESSA",
        "route_name": "OERK-ESSA",
        "origin": "OERK",
        "destination": "ESSA",
        "point_count": 64,
        "source_file": "OERK-ESSA.gpx",
        "point_id": "OERK-ESSA:039",
        "sequence": 39,
        "waypoint": "LENOV",
        "point_role": "enroute",
        "overfly": false,
        "longitude": 21.010278,
        "latitude": 49.336389
      },
      "geometry": {
        "type": "Point",
        "coordinates": [
          21.010278,
          49.336389
        ]
      }
    },
    {
      "type": "Feature",
      "id": "OERK-ESSA:040",
      "properties": {
        "route_id": "OERK-ESSA",
        "route_name": "OERK-ESSA",
        "origin": "OERK",
        "destination": "ESSA",
        "point_count": 64,
        "source_file": "OERK-ESSA.gpx",
        "point_id": "OERK-ESSA:040",
        "sequence": 40,
        "waypoint": "GOSAK",
        "point_role": "enroute",
        "overfly": false,
        "longitude": 20.304444,
        "latitude": 50.557778
      },
      "geometry": {
        "type": "Point",
        "coordinates": [
          20.304444,
          50.557778
        ]
      }
    },
    {
      "type": "Feature",
      "id": "OERK-ESSA:041",
      "properties": {
        "route_id": "OERK-ESSA",
        "route_name": "OERK-ESSA",
        "origin": "OERK",
        "destination": "ESSA",
        "point_count": 64,
        "source_file": "OERK-ESSA.gpx",
        "point_id": "OERK-ESSA:041",
        "sequence": 41,
        "waypoint": "KOTEK",
        "point_role": "enroute",
        "overfly": false,
        "longitude": 20.251111,
        "latitude": 50.647222
      },
      "geometry": {
        "type": "Point",
        "coordinates": [
          20.251111,
          50.647222
        ]
      }
    },
    {
      "type": "Feature",
      "id": "OERK-ESSA:042",
      "properties": {
        "route_id": "OERK-ESSA",
        "route_name": "OERK-ESSA",
        "origin": "OERK",
        "destination": "ESSA",
        "point_count": 64,
        "source_file": "OERK-ESSA.gpx",
        "point_id": "OERK-ESSA:042",
        "sequence": 42,
        "waypoint": "NEGUV",
        "point_role": "enroute",
        "overfly": false,
        "longitude": 20.115833,
        "latitude": 50.914722
      },
      "geometry": {
        "type": "Point",
        "coordinates": [
          20.115833,
          50.914722
        ]
      }
    },
    {
      "type": "Feature",
      "id": "OERK-ESSA:043",
      "properties": {
        "route_id": "OERK-ESSA",
        "route_name": "OERK-ESSA",
        "origin": "OERK",
        "destination": "ESSA",
        "point_count": 64,
        "source_file": "OERK-ESSA.gpx",
        "point_id": "OERK-ESSA:043",
        "sequence": 43,
        "waypoint": "OVBOR",
        "point_role": "enroute",
        "overfly": false,
        "longitude": 20.019167,
        "latitude": 51.104167
      },
      "geometry": {
        "type": "Point",
        "coordinates": [
          20.019167,
          51.104167
        ]
      }
    },
    {
      "type": "Feature",
      "id": "OERK-ESSA:044",
      "properties": {
        "route_id": "OERK-ESSA",
        "route_name": "OERK-ESSA",
        "origin": "OERK",
        "destination": "ESSA",
        "point_count": 64,
        "source_file": "OERK-ESSA.gpx",
        "point_id": "OERK-ESSA:044",
        "sequence": 44,
        "waypoint": "LUBEN",
        "point_role": "enroute",
        "overfly": false,
        "longitude": 19.9575,
        "latitude": 51.224167
      },
      "geometry": {
        "type": "Point",
        "coordinates": [
          19.9575,
          51.224167
        ]
      }
    },
    {
      "type": "Feature",
      "id": "OERK-ESSA:045",
      "properties": {
        "route_id": "OERK-ESSA",
        "route_name": "OERK-ESSA",
        "origin": "OERK",
        "destination": "ESSA",
        "point_count": 64,
        "source_file": "OERK-ESSA.gpx",
        "point_id": "OERK-ESSA:045",
        "sequence": 45,
        "waypoint": "NUBLI",
        "point_role": "enroute",
        "overfly": false,
        "longitude": 19.887778,
        "latitude": 51.358611
      },
      "geometry": {
        "type": "Point",
        "coordinates": [
          19.887778,
          51.358611
        ]
      }
    },
    {
      "type": "Feature",
      "id": "OERK-ESSA:046",
      "properties": {
        "route_id": "OERK-ESSA",
        "route_name": "OERK-ESSA",
        "origin": "OERK",
        "destination": "ESSA",
        "point_count": 64,
        "source_file": "OERK-ESSA.gpx",
        "point_id": "OERK-ESSA:046",
        "sequence": 46,
        "waypoint": "IRBOS",
        "point_role": "enroute",
        "overfly": false,
        "longitude": 19.844167,
        "latitude": 51.4425
      },
      "geometry": {
        "type": "Point",
        "coordinates": [
          19.844167,
          51.4425
        ]
      }
    },
    {
      "type": "Feature",
      "id": "OERK-ESSA:047",
      "properties": {
        "route_id": "OERK-ESSA",
        "route_name": "OERK-ESSA",
        "origin": "OERK",
        "destination": "ESSA",
        "point_count": 64,
        "source_file": "OERK-ESSA.gpx",
        "point_id": "OERK-ESSA:047",
        "sequence": 47,
        "waypoint": "VIDEV",
        "point_role": "enroute",
        "overfly": false,
        "longitude": 19.8025,
        "latitude": 51.521944
      },
      "geometry": {
        "type": "Point",
        "coordinates": [
          19.8025,
          51.521944
        ]
      }
    },
    {
      "type": "Feature",
      "id": "OERK-ESSA:048",
      "properties": {
        "route_id": "OERK-ESSA",
        "route_name": "OERK-ESSA",
        "origin": "OERK",
        "destination": "ESSA",
        "point_count": 64,
        "source_file": "OERK-ESSA.gpx",
        "point_id": "OERK-ESSA:048",
        "sequence": 48,
        "waypoint": "GIPOS",
        "point_role": "enroute",
        "overfly": false,
        "longitude": 19.71,
        "latitude": 51.698333
      },
      "geometry": {
        "type": "Point",
        "coordinates": [
          19.71,
          51.698333
        ]
      }
    },
    {
      "type": "Feature",
      "id": "OERK-ESSA:049",
      "properties": {
        "route_id": "OERK-ESSA",
        "route_name": "OERK-ESSA",
        "origin": "OERK",
        "destination": "ESSA",
        "point_count": 64,
        "source_file": "OERK-ESSA.gpx",
        "point_id": "OERK-ESSA:049",
        "sequence": 49,
        "waypoint": "POLON",
        "point_role": "enroute",
        "overfly": false,
        "longitude": 19.656111,
        "latitude": 51.8
      },
      "geometry": {
        "type": "Point",
        "coordinates": [
          19.656111,
          51.8
        ]
      }
    },
    {
      "type": "Feature",
      "id": "OERK-ESSA:050",
      "properties": {
        "route_id": "OERK-ESSA",
        "route_name": "OERK-ESSA",
        "origin": "OERK",
        "destination": "ESSA",
        "point_count": 64,
        "source_file": "OERK-ESSA.gpx",
        "point_id": "OERK-ESSA:050",
        "sequence": 50,
        "waypoint": "EVEPU",
        "point_role": "enroute",
        "overfly": false,
        "longitude": 19.606389,
        "latitude": 51.901667
      },
      "geometry": {
        "type": "Point",
        "coordinates": [
          19.606389,
          51.901667
        ]
      }
    },
    {
      "type": "Feature",
      "id": "OERK-ESSA:051",
      "properties": {
        "route_id": "OERK-ESSA",
        "route_name": "OERK-ESSA",
        "origin": "OERK",
        "destination": "ESSA",
        "point_count": 64,
        "source_file": "OERK-ESSA.gpx",
        "point_id": "OERK-ESSA:051",
        "sequence": 51,
        "waypoint": "ADOXO",
        "point_role": "enroute",
        "overfly": false,
        "longitude": 19.507222,
        "latitude": 52.103056
      },
      "geometry": {
        "type": "Point",
        "coordinates": [
          19.507222,
          52.103056
        ]
      }
    },
    {
      "type": "Feature",
      "id": "OERK-ESSA:052",
      "properties": {
        "route_id": "OERK-ESSA",
        "route_name": "OERK-ESSA",
        "origin": "OERK",
        "destination": "ESSA",
        "point_count": 64,
        "source_file": "OERK-ESSA.gpx",
        "point_id": "OERK-ESSA:052",
        "sequence": 52,
        "waypoint": "PENEX",
        "point_role": "enroute",
        "overfly": false,
        "longitude": 19.277222,
        "latitude": 52.563056
      },
      "geometry": {
        "type": "Point",
        "coordinates": [
          19.277222,
          52.563056
        ]
      }
    },
    {
      "type": "Feature",
      "id": "OERK-ESSA:053",
      "properties": {
        "route_id": "OERK-ESSA",
        "route_name": "OERK-ESSA",
        "origin": "OERK",
        "destination": "ESSA",
        "point_count": 64,
        "source_file": "OERK-ESSA.gpx",
        "point_id": "OERK-ESSA:053",
        "sequence": 53,
        "waypoint": "NASOK",
        "point_role": "enroute",
        "overfly": false,
        "longitude": 19.006389,
        "latitude": 53.091944
      },
      "geometry": {
        "type": "Point",
        "coordinates": [
          19.006389,
          53.091944
        ]
      }
    },
    {
      "type": "Feature",
      "id": "OERK-ESSA:054",
      "properties": {
        "route_id": "OERK-ESSA",
        "route_name": "OERK-ESSA",
        "origin": "OERK",
        "destination": "ESSA",
        "point_count": 64,
        "source_file": "OERK-ESSA.gpx",
        "point_id": "OERK-ESSA:054",
        "sequence": 54,
        "waypoint": "BIBKA",
        "point_role": "enroute",
        "overfly": false,
        "longitude": 18.955,
        "latitude": 53.190833
      },
      "geometry": {
        "type": "Point",
        "coordinates": [
          18.955,
          53.190833
        ]
      }
    },
    {
      "type": "Feature",
      "id": "OERK-ESSA:055",
      "properties": {
        "route_id": "OERK-ESSA",
        "route_name": "OERK-ESSA",
        "origin": "OERK",
        "destination": "ESSA",
        "point_count": 64,
        "source_file": "OERK-ESSA.gpx",
        "point_id": "OERK-ESSA:055",
        "sequence": 55,
        "waypoint": "GRUDA",
        "point_role": "enroute",
        "overfly": false,
        "longitude": 18.781389,
        "latitude": 53.521111
      },
      "geometry": {
        "type": "Point",
        "coordinates": [
          18.781389,
          53.521111
        ]
      }
    },
    {
      "type": "Feature",
      "id": "OERK-ESSA:056",
      "properties": {
        "route_id": "OERK-ESSA",
        "route_name": "OERK-ESSA",
        "origin": "OERK",
        "destination": "ESSA",
        "point_count": 64,
        "source_file": "OERK-ESSA.gpx",
        "point_id": "OERK-ESSA:056",
        "sequence": 56,
        "waypoint": "IRLUN",
        "point_role": "enroute",
        "overfly": false,
        "longitude": 18.614861,
        "latitude": 53.750583
      },
      "geometry": {
        "type": "Point",
        "coordinates": [
          18.614861,
          53.750583
        ]
      }
    },
    {
      "type": "Feature",
      "id": "OERK-ESSA:057",
      "properties": {
        "route_id": "OERK-ESSA",
        "route_name": "OERK-ESSA",
        "origin": "OERK",
        "destination": "ESSA",
        "point_count": 64,
        "source_file": "OERK-ESSA.gpx",
        "point_id": "OERK-ESSA:057",
        "sequence": 57,
        "waypoint": "KARTI",
        "point_role": "enroute",
        "overfly": false,
        "longitude": 18.208056,
        "latitude": 54.299722
      },
      "geometry": {
        "type": "Point",
        "coordinates": [
          18.208056,
          54.299722
        ]
      }
    },
    {
      "type": "Feature",
      "id": "OERK-ESSA:058",
      "properties": {
        "route_id": "OERK-ESSA",
        "route_name": "OERK-ESSA",
        "origin": "OERK",
        "destination": "ESSA",
        "point_count": 64,
        "source_file": "OERK-ESSA.gpx",
        "point_id": "OERK-ESSA:058",
        "sequence": 58,
        "waypoint": "VAPOS",
        "point_role": "enroute",
        "overfly": false,
        "longitude": 17.826667,
        "latitude": 54.795278
      },
      "geometry": {
        "type": "Point",
        "coordinates": [
          17.826667,
          54.795278
        ]
      }
    },
    {
      "type": "Feature",
      "id": "OERK-ESSA:059",
      "properties": {
        "route_id": "OERK-ESSA",
        "route_name": "OERK-ESSA",
        "origin": "OERK",
        "destination": "ESSA",
        "point_count": 64,
        "source_file": "OERK-ESSA.gpx",
        "point_id": "OERK-ESSA:059",
        "sequence": 59,
        "waypoint": "DOMAG",
        "point_role": "enroute",
        "overfly": false,
        "longitude": 17.685556,
        "latitude": 54.974444
      },
      "geometry": {
        "type": "Point",
        "coordinates": [
          17.685556,
          54.974444
        ]
      }
    },
    {
      "type": "Feature",
      "id": "OERK-ESSA:060",
      "properties": {
        "route_id": "OERK-ESSA",
        "route_name": "OERK-ESSA",
        "origin": "OERK",
        "destination": "ESSA",
        "point_count": 64,
        "source_file": "OERK-ESSA.gpx",
        "point_id": "OERK-ESSA:060",
        "sequence": 60,
        "waypoint": "MOTAD",
        "point_role": "enroute",
        "overfly": false,
        "longitude": 17.505556,
        "latitude": 55.209444
      },
      "geometry": {
        "type": "Point",
        "coordinates": [
          17.505556,
          55.209444
        ]
      }
    },
    {
      "type": "Feature",
      "id": "OERK-ESSA:061",
      "properties": {
        "route_id": "OERK-ESSA",
        "route_name": "OERK-ESSA",
        "origin": "OERK",
        "destination": "ESSA",
        "point_count": 64,
        "source_file": "OERK-ESSA.gpx",
        "point_id": "OERK-ESSA:061",
        "sequence": 61,
        "waypoint": "PENOR",
        "point_role": "enroute",
        "overfly": false,
        "longitude": 17.161389,
        "latitude": 55.638611
      },
      "geometry": {
        "type": "Point",
        "coordinates": [
          17.161389,
          55.638611
        ]
      }
    },
    {
      "type": "Feature",
      "id": "OERK-ESSA:062",
      "properties": {
        "route_id": "OERK-ESSA",
        "route_name": "OERK-ESSA",
        "origin": "OERK",
        "destination": "ESSA",
        "point_count": 64,
        "source_file": "OERK-ESSA.gpx",
        "point_id": "OERK-ESSA:062",
        "sequence": 62,
        "waypoint": "ROGMI",
        "point_role": "enroute",
        "overfly": false,
        "longitude": 18.001667,
        "latitude": 58.193889
      },
      "geometry": {
        "type": "Point",
        "coordinates": [
          18.001667,
          58.193889
        ]
      }
    },
    {
      "type": "Feature",
      "id": "OERK-ESSA:063",
      "properties": {
        "route_id": "OERK-ESSA",
        "route_name": "OERK-ESSA",
        "origin": "OERK",
        "destination": "ESSA",
        "point_count": 64,
        "source_file": "OERK-ESSA.gpx",
        "point_id": "OERK-ESSA:063",
        "sequence": 63,
        "waypoint": "NILUG",
        "point_role": "enroute",
        "overfly": false,
        "longitude": 17.884722,
        "latitude": 58.815833
      },
      "geometry": {
        "type": "Point",
        "coordinates": [
          17.884722,
          58.815833
        ]
      }
    },
    {
      "type": "Feature",
      "id": "OERK-ESSA:064",
      "properties": {
        "route_id": "OERK-ESSA",
        "route_name": "OERK-ESSA",
        "origin": "OERK",
        "destination": "ESSA",
        "point_count": 64,
        "source_file": "OERK-ESSA.gpx",
        "point_id": "OERK-ESSA:064",
        "sequence": 64,
        "waypoint": "ESSA",
        "point_role": "destination",
        "overfly": false,
        "longitude": 17.918611,
        "latitude": 59.651944
      },
      "geometry": {
        "type": "Point",
        "coordinates": [
          17.918611,
          59.651944
        ]
      }
    }
  ]
}
