{
  "type": "FeatureCollection",
  "name": "VATSIM Cross the Land westbound 2026",
  "features": [
    {
      "type": "Feature",
      "id": "OERK-LGAV:001",
      "properties": {
        "route_id": "OERK-LGAV",
        "route_name": "OERK-LGAV",
        "origin": "OERK",
        "destination": "LGAV",
        "point_count": 31,
        "source_file": "OERK-LGAV.gpx",
        "point_id": "OERK-LGAV:001",
        "sequence": 1,
        "waypoint": "OERK",
        "point_role": "origin",
        "overfly": false,
        "longitude": 46.708056,
        "latitude": 24.962778
      },
      "geometry": {
        "type": "Point",
        "coordinates": [
          46.708056,
          24.962778
        ]
      }
    },
    {
      "type": "Feature",
      "id": "OERK-LGAV:002",
      "properties": {
        "route_id": "OERK-LGAV",
        "route_name": "OERK-LGAV",
        "origin": "OERK",
        "destination": "LGAV",
        "point_count": 31,
        "source_file": "OERK-LGAV.gpx",
        "point_id": "OERK-LGAV:002",
        "sequence": 2,
        "waypoint": "IVONU",
        "point_role": "enroute",
        "overfly": false,
        "longitude": 45.675,
        "latitude": 25.056389
      },
      "geometry": {
        "type": "Point",
        "coordinates": [
          45.675,
          25.056389
        ]
      }
    },
    {
      "type": "Feature",
      "id": "OERK-LGAV:003",
      "properties": {
        "route_id": "OERK-LGAV",
        "route_name": "OERK-LGAV",
        "origin": "OERK",
        "destination": "LGAV",
        "point_count": 31,
        "source_file": "OERK-LGAV.gpx",
        "point_id": "OERK-LGAV:003",
        "sequence": 3,
        "waypoint": "SOKOP",
        "point_role": "enroute",
        "overfly": false,
        "longitude": 44.574722,
        "latitude": 25.531944
      },
      "geometry": {
        "type": "Point",
        "coordinates": [
          44.574722,
          25.531944
        ]
      }
    },
    {
      "type": "Feature",
      "id": "OERK-LGAV:004",
      "properties": {
        "route_id": "OERK-LGAV",
        "route_name": "OERK-LGAV",
        "origin": "OERK",
        "destination": "LGAV",
        "point_count": 31,
        "source_file": "OERK-LGAV.gpx",
        "point_id": "OERK-LGAV:004",
        "sequence": 4,
        "waypoint": "GAS",
        "point_role": "enroute",
        "overfly": false,
        "longitude": 43.779611,
        "latitude": 26.298083
      },
      "geometry": {
        "type": "Point",
        "coordinates": [
          43.779611,
          26.298083
        ]
      }
    },
    {
      "type": "Feature",
      "id": "OERK-LGAV:005",
      "properties": {
        "route_id": "OERK-LGAV",
        "route_name": "OERK-LGAV",
        "origin": "OERK",
        "destination": "LGAV",
        "point_count": 31,
        "source_file": "OERK-LGAV.gpx",
        "point_id": "OERK-LGAV:005",
        "sequence": 5,
        "waypoint": "MODIV",
        "point_role": "enroute",
        "overfly": false,
        "longitude": 43.144444,
        "latitude": 26.645
      },
      "geometry": {
        "type": "Point",
        "coordinates": [
          43.144444,
          26.645
        ]
      }
    },
    {
      "type": "Feature",
      "id": "OERK-LGAV:006",
      "properties": {
        "route_id": "OERK-LGAV",
        "route_name": "OERK-LGAV",
        "origin": "OERK",
        "destination": "LGAV",
        "point_count": 31,
        "source_file": "OERK-LGAV.gpx",
        "point_id": "OERK-LGAV:006",
        "sequence": 6,
        "waypoint": "DAROP",
        "point_role": "enroute",
        "overfly": false,
        "longitude": 42.326667,
        "latitude": 27.084722
      },
      "geometry": {
        "type": "Point",
        "coordinates": [
          42.326667,
          27.084722
        ]
      }
    },
    {
      "type": "Feature",
      "id": "OERK-LGAV:007",
      "properties": {
        "route_id": "OERK-LGAV",
        "route_name": "OERK-LGAV",
        "origin": "OERK",
        "destination": "LGAV",
        "point_count": 31,
        "source_file": "OERK-LGAV.gpx",
        "point_id": "OERK-LGAV:007",
        "sequence": 7,
        "waypoint": "HIL",
        "point_role": "enroute",
        "overfly": false,
        "longitude": 41.682917,
        "latitude": 27.425056
      },
      "geometry": {
        "type": "Point",
        "coordinates": [
          41.682917,
          27.425056
        ]
      }
    },
    {
      "type": "Feature",
      "id": "OERK-LGAV:008",
      "properties": {
        "route_id": "OERK-LGAV",
        "route_name": "OERK-LGAV",
        "origin": "OERK",
        "destination": "LGAV",
        "point_count": 31,
        "source_file": "OERK-LGAV.gpx",
        "point_id": "OERK-LGAV:008",
        "sequence": 8,
        "waypoint": "EGVOP",
        "point_role": "enroute",
        "overfly": false,
        "longitude": 41.173333,
        "latitude": 27.916111
      },
      "geometry": {
        "type": "Point",
        "coordinates": [
          41.173333,
          27.916111
        ]
      }
    },
    {
      "type": "Feature",
      "id": "OERK-LGAV:009",
      "properties": {
        "route_id": "OERK-LGAV",
        "route_name": "OERK-LGAV",
        "origin": "OERK",
        "destination": "LGAV",
        "point_count": 31,
        "source_file": "OERK-LGAV.gpx",
        "point_id": "OERK-LGAV:009",
        "sequence": 9,
        "waypoint": "NIMAR",
        "point_role": "enroute",
        "overfly": false,
        "longitude": 39.906944,
        "latitude": 29.109722
      },
      "geometry": {
        "type": "Point",
        "coordinates": [
          39.906944,
          29.109722
        ]
      }
    },
    {
      "type": "Feature",
      "id": "OERK-LGAV:010",
      "properties": {
        "route_id": "OERK-LGAV",
        "route_name": "OERK-LGAV",
        "origin": "OERK",
        "destination": "LGAV",
        "point_count": 31,
        "source_file": "OERK-LGAV.gpx",
        "point_id": "OERK-LGAV:010",
        "sequence": 10,
        "waypoint": "ENABI",
        "point_role": "enroute",
        "overfly": false,
        "longitude": 38.930556,
        "latitude": 29.110833
      },
      "geometry": {
        "type": "Point",
        "coordinates": [
          38.930556,
          29.110833
        ]
      }
    },
    {
      "type": "Feature",
      "id": "OERK-LGAV:011",
      "properties": {
        "route_id": "OERK-LGAV",
        "route_name": "OERK-LGAV",
        "origin": "OERK",
        "destination": "LGAV",
        "point_count": 31,
        "source_file": "OERK-LGAV.gpx",
        "point_id": "OERK-LGAV:011",
        "sequence": 11,
        "waypoint": "ASTUM",
        "point_role": "enroute",
        "overfly": false,
        "longitude": 38.376944,
        "latitude": 29.107778
      },
      "geometry": {
        "type": "Point",
        "coordinates": [
          38.376944,
          29.107778
        ]
      }
    },
    {
      "type": "Feature",
      "id": "OERK-LGAV:012",
      "properties": {
        "route_id": "OERK-LGAV",
        "route_name": "OERK-LGAV",
        "origin": "OERK",
        "destination": "LGAV",
        "point_count": 31,
        "source_file": "OERK-LGAV.gpx",
        "point_id": "OERK-LGAV:012",
        "sequence": 12,
        "waypoint": "OBNAK",
        "point_role": "enroute",
        "overfly": false,
        "longitude": 37.508889,
        "latitude": 29.098333
      },
      "geometry": {
        "type": "Point",
        "coordinates": [
          37.508889,
          29.098333
        ]
      }
    },
    {
      "type": "Feature",
      "id": "OERK-LGAV:013",
      "properties": {
        "route_id": "OERK-LGAV",
        "route_name": "OERK-LGAV",
        "origin": "OERK",
        "destination": "LGAV",
        "point_count": 31,
        "source_file": "OERK-LGAV.gpx",
        "point_id": "OERK-LGAV:013",
        "sequence": 13,
        "waypoint": "EGSIS",
        "point_role": "enroute",
        "overfly": false,
        "longitude": 36.480556,
        "latitude": 29.0875
      },
      "geometry": {
        "type": "Point",
        "coordinates": [
          36.480556,
          29.0875
        ]
      }
    },
    {
      "type": "Feature",
      "id": "OERK-LGAV:014",
      "properties": {
        "route_id": "OERK-LGAV",
        "route_name": "OERK-LGAV",
        "origin": "OERK",
        "destination": "LGAV",
        "point_count": 31,
        "source_file": "OERK-LGAV.gpx",
        "point_id": "OERK-LGAV:014",
        "sequence": 14,
        "waypoint": "RUKET",
        "point_role": "enroute",
        "overfly": false,
        "longitude": 34.847222,
        "latitude": 29.034722
      },
      "geometry": {
        "type": "Point",
        "coordinates": [
          34.847222,
          29.034722
        ]
      }
    },
    {
      "type": "Feature",
      "id": "OERK-LGAV:015",
      "properties": {
        "route_id": "OERK-LGAV",
        "route_name": "OERK-LGAV",
        "origin": "OERK",
        "destination": "LGAV",
        "point_count": 31,
        "source_file": "OERK-LGAV.gpx",
        "point_id": "OERK-LGAV:015",
        "sequence": 15,
        "waypoint": "KITIT",
        "point_role": "enroute",
        "overfly": false,
        "longitude": 34.758056,
        "latitude": 29.033333
      },
      "geometry": {
        "type": "Point",
        "coordinates": [
          34.758056,
          29.033333
        ]
      }
    },
    {
      "type": "Feature",
      "id": "OERK-LGAV:016",
      "properties": {
        "route_id": "OERK-LGAV",
        "route_name": "OERK-LGAV",
        "origin": "OERK",
        "destination": "LGAV",
        "point_count": 31,
        "source_file": "OERK-LGAV.gpx",
        "point_id": "OERK-LGAV:016",
        "sequence": 16,
        "waypoint": "NOVPA",
        "point_role": "enroute",
        "overfly": false,
        "longitude": 34.671111,
        "latitude": 29.032222
      },
      "geometry": {
        "type": "Point",
        "coordinates": [
          34.671111,
          29.032222
        ]
      }
    },
    {
      "type": "Feature",
      "id": "OERK-LGAV:017",
      "properties": {
        "route_id": "OERK-LGAV",
        "route_name": "OERK-LGAV",
        "origin": "OERK",
        "destination": "LGAV",
        "point_count": 31,
        "source_file": "OERK-LGAV.gpx",
        "point_id": "OERK-LGAV:017",
        "sequence": 17,
        "waypoint": "SIMSA",
        "point_role": "enroute",
        "overfly": false,
        "longitude": 33.954444,
        "latitude": 29.241111
      },
      "geometry": {
        "type": "Point",
        "coordinates": [
          33.954444,
          29.241111
        ]
      }
    },
    {
      "type": "Feature",
      "id": "OERK-LGAV:018",
      "properties": {
        "route_id": "OERK-LGAV",
        "route_name": "OERK-LGAV",
        "origin": "OERK",
        "destination": "LGAV",
        "point_count": 31,
        "source_file": "OERK-LGAV.gpx",
        "point_id": "OERK-LGAV:018",
        "sequence": 18,
        "waypoint": "SISIK",
        "point_role": "enroute",
        "overfly": false,
        "longitude": 32.685,
        "latitude": 29.6
      },
      "geometry": {
        "type": "Point",
        "coordinates": [
          32.685,
          29.6
        ]
      }
    },
    {
      "type": "Feature",
      "id": "OERK-LGAV:019",
      "properties": {
        "route_id": "OERK-LGAV",
        "route_name": "OERK-LGAV",
        "origin": "OERK",
        "destination": "LGAV",
        "point_count": 31,
        "source_file": "OERK-LGAV.gpx",
        "point_id": "OERK-LGAV:019",
        "sequence": 19,
        "waypoint": "MENLI",
        "point_role": "enroute",
        "overfly": false,
        "longitude": 31.868333,
        "latitude": 29.783333
      },
      "geometry": {
        "type": "Point",
        "coordinates": [
          31.868333,
          29.783333
        ]
      }
    },
    {
      "type": "Feature",
      "id": "OERK-LGAV:020",
      "properties": {
        "route_id": "OERK-LGAV",
        "route_name": "OERK-LGAV",
        "origin": "OERK",
        "destination": "LGAV",
        "point_count": 31,
        "source_file": "OERK-LGAV.gpx",
        "point_id": "OERK-LGAV:020",
        "sequence": 20,
        "waypoint": "GESON",
        "point_role": "enroute",
        "overfly": false,
        "longitude": 31.663056,
        "latitude": 29.915
      },
      "geometry": {
        "type": "Point",
        "coordinates": [
          31.663056,
          29.915
        ]
      }
    },
    {
      "type": "Feature",
      "id": "OERK-LGAV:021",
      "properties": {
        "route_id": "OERK-LGAV",
        "route_name": "OERK-LGAV",
        "origin": "OERK",
        "destination": "LGAV",
        "point_count": 31,
        "source_file": "OERK-LGAV.gpx",
        "point_id": "OERK-LGAV:021",
        "sequence": 21,
        "waypoint": "CVO",
        "point_role": "enroute",
        "overfly": false,
        "longitude": 31.388417,
        "latitude": 30.092306
      },
      "geometry": {
        "type": "Point",
        "coordinates": [
          31.388417,
          30.092306
        ]
      }
    },
    {
      "type": "Feature",
      "id": "OERK-LGAV:022",
      "properties": {
        "route_id": "OERK-LGAV",
        "route_name": "OERK-LGAV",
        "origin": "OERK",
        "destination": "LGAV",
        "point_count": 31,
        "source_file": "OERK-LGAV.gpx",
        "point_id": "OERK-LGAV:022",
        "sequence": 22,
        "waypoint": "MENKU",
        "point_role": "enroute",
        "overfly": false,
        "longitude": 30.301667,
        "latitude": 31.091944
      },
      "geometry": {
        "type": "Point",
        "coordinates": [
          30.301667,
          31.091944
        ]
      }
    },
    {
      "type": "Feature",
      "id": "OERK-LGAV:023",
      "properties": {
        "route_id": "OERK-LGAV",
        "route_name": "OERK-LGAV",
        "origin": "OERK",
        "destination": "LGAV",
        "point_count": 31,
        "source_file": "OERK-LGAV.gpx",
        "point_id": "OERK-LGAV:023",
        "sequence": 23,
        "waypoint": "MUXEB",
        "point_role": "enroute",
        "overfly": false,
        "longitude": 29.565,
        "latitude": 32.096944
      },
      "geometry": {
        "type": "Point",
        "coordinates": [
          29.565,
          32.096944
        ]
      }
    },
    {
      "type": "Feature",
      "id": "OERK-LGAV:024",
      "properties": {
        "route_id": "OERK-LGAV",
        "route_name": "OERK-LGAV",
        "origin": "OERK",
        "destination": "LGAV",
        "point_count": 31,
        "source_file": "OERK-LGAV.gpx",
        "point_id": "OERK-LGAV:024",
        "sequence": 24,
        "waypoint": "ANTAR",
        "point_role": "enroute",
        "overfly": false,
        "longitude": 28.266667,
        "latitude": 33.8
      },
      "geometry": {
        "type": "Point",
        "coordinates": [
          28.266667,
          33.8
        ]
      }
    },
    {
      "type": "Feature",
      "id": "OERK-LGAV:025",
      "properties": {
        "route_id": "OERK-LGAV",
        "route_name": "OERK-LGAV",
        "origin": "OERK",
        "destination": "LGAV",
        "point_count": 31,
        "source_file": "OERK-LGAV.gpx",
        "point_id": "OERK-LGAV:025",
        "sequence": 25,
        "waypoint": "KPC",
        "point_role": "enroute",
        "overfly": false,
        "longitude": 27.146911,
        "latitude": 35.421822
      },
      "geometry": {
        "type": "Point",
        "coordinates": [
          27.146911,
          35.421822
        ]
      }
    },
    {
      "type": "Feature",
      "id": "OERK-LGAV:026",
      "properties": {
        "route_id": "OERK-LGAV",
        "route_name": "OERK-LGAV",
        "origin": "OERK",
        "destination": "LGAV",
        "point_count": 31,
        "source_file": "OERK-LGAV.gpx",
        "point_id": "OERK-LGAV:026",
        "sequence": 26,
        "waypoint": "TIPAS",
        "point_role": "enroute",
        "overfly": false,
        "longitude": 26.763333,
        "latitude": 35.907778
      },
      "geometry": {
        "type": "Point",
        "coordinates": [
          26.763333,
          35.907778
        ]
      }
    },
    {
      "type": "Feature",
      "id": "OERK-LGAV:027",
      "properties": {
        "route_id": "OERK-LGAV",
        "route_name": "OERK-LGAV",
        "origin": "OERK",
        "destination": "LGAV",
        "point_count": 31,
        "source_file": "OERK-LGAV.gpx",
        "point_id": "OERK-LGAV:027",
        "sequence": 27,
        "waypoint": "ASTIS",
        "point_role": "enroute",
        "overfly": false,
        "longitude": 26.232778,
        "latitude": 36.565278
      },
      "geometry": {
        "type": "Point",
        "coordinates": [
          26.232778,
          36.565278
        ]
      }
    },
    {
      "type": "Feature",
      "id": "OERK-LGAV:028",
      "properties": {
        "route_id": "OERK-LGAV",
        "route_name": "OERK-LGAV",
        "origin": "OERK",
        "destination": "LGAV",
        "point_count": 31,
        "source_file": "OERK-LGAV.gpx",
        "point_id": "OERK-LGAV:028",
        "sequence": 28,
        "waypoint": "PEROK",
        "point_role": "enroute",
        "overfly": false,
        "longitude": 25.451667,
        "latitude": 37.204444
      },
      "geometry": {
        "type": "Point",
        "coordinates": [
          25.451667,
          37.204444
        ]
      }
    },
    {
      "type": "Feature",
      "id": "OERK-LGAV:029",
      "properties": {
        "route_id": "OERK-LGAV",
        "route_name": "OERK-LGAV",
        "origin": "OERK",
        "destination": "LGAV",
        "point_count": 31,
        "source_file": "OERK-LGAV.gpx",
        "point_id": "OERK-LGAV:029",
        "sequence": 29,
        "waypoint": "RIPLI",
        "point_role": "enroute",
        "overfly": false,
        "longitude": 25.362778,
        "latitude": 37.275833
      },
      "geometry": {
        "type": "Point",
        "coordinates": [
          25.362778,
          37.275833
        ]
      }
    },
    {
      "type": "Feature",
      "id": "OERK-LGAV:030",
      "properties": {
        "route_id": "OERK-LGAV",
        "route_name": "OERK-LGAV",
        "origin": "OERK",
        "destination": "LGAV",
        "point_count": 31,
        "source_file": "OERK-LGAV.gpx",
        "point_id": "OERK-LGAV:030",
        "sequence": 30,
        "waypoint": "VARIX",
        "point_role": "enroute",
        "overfly": false,
        "longitude": 25.034167,
        "latitude": 37.363889
      },
      "geometry": {
        "type": "Point",
        "coordinates": [
          25.034167,
          37.363889
        ]
      }
    },
    {
      "type": "Feature",
      "id": "OERK-LGAV:031",
      "properties": {
        "route_id": "OERK-LGAV",
        "route_name": "OERK-LGAV",
        "origin": "OERK",
        "destination": "LGAV",
        "point_count": 31,
        "source_file": "OERK-LGAV.gpx",
        "point_id": "OERK-LGAV:031",
        "sequence": 31,
        "waypoint": "LGAV",
        "point_role": "destination",
        "overfly": false,
        "longitude": 23.9445,
        "latitude": 37.9367
      },
      "geometry": {
        "type": "Point",
        "coordinates": [
          23.9445,
          37.9367
        ]
      }
    }
  ]
}
