{
  "type": "FeatureCollection",
  "name": "VATSIM Cross the Land westbound 2026",
  "features": [
    {
      "type": "Feature",
      "id": "OERK-LHBP",
      "properties": {
        "route_id": "OERK-LHBP",
        "route_name": "OERK-LHBP",
        "origin": "OERK",
        "destination": "LHBP",
        "point_count": 36,
        "source_file": "OERK-LHBP.gpx"
      },
      "geometry": {
        "type": "LineString",
        "coordinates": [
          [
            46.708056,
            24.962778
          ],
          [
            45.675,
            25.056389
          ],
          [
            44.574722,
            25.531944
          ],
          [
            43.779611,
            26.298083
          ],
          [
            43.144444,
            26.645
          ],
          [
            42.326667,
            27.084722
          ],
          [
            41.682917,
            27.425056
          ],
          [
            41.173333,
            27.916111
          ],
          [
            39.906944,
            29.109722
          ],
          [
            38.930556,
            29.110833
          ],
          [
            38.376944,
            29.107778
          ],
          [
            37.508889,
            29.098333
          ],
          [
            36.480556,
            29.0875
          ],
          [
            34.847222,
            29.034722
          ],
          [
            34.758056,
            29.033333
          ],
          [
            34.671111,
            29.032222
          ],
          [
            33.954444,
            29.241111
          ],
          [
            32.685,
            29.6
          ],
          [
            31.868333,
            29.783333
          ],
          [
            31.663056,
            29.915
          ],
          [
            31.388417,
            30.092306
          ],
          [
            30.301667,
            31.091944
          ],
          [
            29.565,
            32.096944
          ],
          [
            28.266667,
            33.8
          ],
          [
            27.766111,
            34.535556
          ],
          [
            26.688611,
            36.830278
          ],
          [
            25.874167,
            37.59
          ],
          [
            25.237189,
            39.919539
          ],
          [
            23.774722,
            41.401667
          ],
          [
            23.645556,
            42.301944
          ],
          [
            23.312778,
            43.328333
          ],
          [
            23.289167,
            43.5175
          ],
          [
            23.25,
            43.833333
          ],
          [
            22.610556,
            44.778611
          ],
          [
            20.231389,
            47.153611
          ],
          [
            19.261944,
            47.439444
          ]
        ]
      }
    }
  ]
}
