{
  "type": "FeatureCollection",
  "name": "VATSIM Cross the Land westbound 2026",
  "features": [
    {
      "type": "Feature",
      "id": "OERK-LGAV",
      "properties": {
        "route_id": "OERK-LGAV",
        "route_name": "OERK-LGAV",
        "origin": "OERK",
        "destination": "LGAV",
        "point_count": 31,
        "source_file": "OERK-LGAV.gpx"
      },
      "geometry": {
        "type": "LineString",
        "coordinates": [
          [
            46.708056,
            24.962778
          ],
          [
            45.675,
            25.056389
          ],
          [
            44.574722,
            25.531944
          ],
          [
            43.779611,
            26.298083
          ],
          [
            43.144444,
            26.645
          ],
          [
            42.326667,
            27.084722
          ],
          [
            41.682917,
            27.425056
          ],
          [
            41.173333,
            27.916111
          ],
          [
            39.906944,
            29.109722
          ],
          [
            38.930556,
            29.110833
          ],
          [
            38.376944,
            29.107778
          ],
          [
            37.508889,
            29.098333
          ],
          [
            36.480556,
            29.0875
          ],
          [
            34.847222,
            29.034722
          ],
          [
            34.758056,
            29.033333
          ],
          [
            34.671111,
            29.032222
          ],
          [
            33.954444,
            29.241111
          ],
          [
            32.685,
            29.6
          ],
          [
            31.868333,
            29.783333
          ],
          [
            31.663056,
            29.915
          ],
          [
            31.388417,
            30.092306
          ],
          [
            30.301667,
            31.091944
          ],
          [
            29.565,
            32.096944
          ],
          [
            28.266667,
            33.8
          ],
          [
            27.146911,
            35.421822
          ],
          [
            26.763333,
            35.907778
          ],
          [
            26.232778,
            36.565278
          ],
          [
            25.451667,
            37.204444
          ],
          [
            25.362778,
            37.275833
          ],
          [
            25.034167,
            37.363889
          ],
          [
            23.9445,
            37.9367
          ]
        ]
      }
    }
  ]
}
