{
  "type": "FeatureCollection",
  "name": "VATSIM Cross the Land westbound 2026",
  "features": [
    {
      "type": "Feature",
      "id": "OERK-ESSA",
      "properties": {
        "route_id": "OERK-ESSA",
        "route_name": "OERK-ESSA",
        "origin": "OERK",
        "destination": "ESSA",
        "point_count": 64,
        "source_file": "OERK-ESSA.gpx"
      },
      "geometry": {
        "type": "LineString",
        "coordinates": [
          [
            46.708056,
            24.962778
          ],
          [
            45.438889,
            26.170556
          ],
          [
            45.298611,
            26.304167
          ],
          [
            44.995833,
            26.592222
          ],
          [
            44.809167,
            26.768889
          ],
          [
            44.569444,
            26.994167
          ],
          [
            44.381389,
            27.169722
          ],
          [
            43.651111,
            27.845278
          ],
          [
            42.679722,
            28.643889
          ],
          [
            42.185278,
            29.043056
          ],
          [
            41.309167,
            29.738333
          ],
          [
            40.639167,
            30.386667
          ],
          [
            39.553611,
            31.432778
          ],
          [
            39.164167,
            31.800278
          ],
          [
            39.031344,
            32.025278
          ],
          [
            38.693928,
            32.594411
          ],
          [
            38.673969,
            33.027622
          ],
          [
            38.660719,
            33.307133
          ],
          [
            38.654064,
            33.482383
          ],
          [
            38.125,
            34.516667
          ],
          [
            37.335,
            35.95
          ],
          [
            37.209378,
            36.179683
          ],
          [
            37.021667,
            36.381667
          ],
          [
            36.641389,
            36.784444
          ],
          [
            36.479444,
            36.951389
          ],
          [
            35.066667,
            38.372778
          ],
          [
            34.286389,
            39.130833
          ],
          [
            33.104917,
            40.241861
          ],
          [
            32.069167,
            41.1325
          ],
          [
            31.585833,
            41.5375
          ],
          [
            31.531111,
            41.583056
          ],
          [
            31.308611,
            41.766667
          ],
          [
            31.022778,
            42.000556
          ],
          [
            30.668889,
            42.287222
          ],
          [
            30.264444,
            42.610556
          ],
          [
            29.143333,
            43.733333
          ],
          [
            22.442222,
            47.793889
          ],
          [
            21.927222,
            48.361667
          ],
          [
            21.010278,
            49.336389
          ],
          [
            20.304444,
            50.557778
          ],
          [
            20.251111,
            50.647222
          ],
          [
            20.115833,
            50.914722
          ],
          [
            20.019167,
            51.104167
          ],
          [
            19.9575,
            51.224167
          ],
          [
            19.887778,
            51.358611
          ],
          [
            19.844167,
            51.4425
          ],
          [
            19.8025,
            51.521944
          ],
          [
            19.71,
            51.698333
          ],
          [
            19.656111,
            51.8
          ],
          [
            19.606389,
            51.901667
          ],
          [
            19.507222,
            52.103056
          ],
          [
            19.277222,
            52.563056
          ],
          [
            19.006389,
            53.091944
          ],
          [
            18.955,
            53.190833
          ],
          [
            18.781389,
            53.521111
          ],
          [
            18.614861,
            53.750583
          ],
          [
            18.208056,
            54.299722
          ],
          [
            17.826667,
            54.795278
          ],
          [
            17.685556,
            54.974444
          ],
          [
            17.505556,
            55.209444
          ],
          [
            17.161389,
            55.638611
          ],
          [
            18.001667,
            58.193889
          ],
          [
            17.884722,
            58.815833
          ],
          [
            17.918611,
            59.651944
          ]
        ]
      }
    }
  ]
}
