{
  "type": "FeatureCollection",
  "name": "VATSIM Cross the Land westbound 2026",
  "features": [
    {
      "type": "Feature",
      "id": "OERK-LIRF",
      "properties": {
        "route_id": "OERK-LIRF",
        "route_name": "OERK-LIRF",
        "origin": "OERK",
        "destination": "LIRF",
        "point_count": 33,
        "source_file": "OERK-LIRF.gpx"
      },
      "geometry": {
        "type": "LineString",
        "coordinates": [
          [
            46.708056,
            24.962778
          ],
          [
            45.675,
            25.056389
          ],
          [
            44.574722,
            25.531944
          ],
          [
            43.779611,
            26.298083
          ],
          [
            43.144444,
            26.645
          ],
          [
            42.326667,
            27.084722
          ],
          [
            41.682917,
            27.425056
          ],
          [
            41.173333,
            27.916111
          ],
          [
            39.906944,
            29.109722
          ],
          [
            38.930556,
            29.110833
          ],
          [
            38.376944,
            29.107778
          ],
          [
            37.508889,
            29.098333
          ],
          [
            36.480556,
            29.0875
          ],
          [
            34.847222,
            29.034722
          ],
          [
            34.758056,
            29.033333
          ],
          [
            34.671111,
            29.032222
          ],
          [
            33.954444,
            29.241111
          ],
          [
            32.685,
            29.6
          ],
          [
            31.868333,
            29.783333
          ],
          [
            31.663056,
            29.915
          ],
          [
            31.388417,
            30.092306
          ],
          [
            30.301667,
            31.091944
          ],
          [
            29.950833,
            31.1875
          ],
          [
            29.309722,
            31.585556
          ],
          [
            29.071944,
            31.731111
          ],
          [
            26.816667,
            34.0
          ],
          [
            23.500278,
            36.120278
          ],
          [
            19.0,
            38.518333
          ],
          [
            15.171389,
            41.107778
          ],
          [
            13.970667,
            41.296778
          ],
          [
            13.680528,
            41.446019
          ],
          [
            12.918056,
            41.541111
          ],
          [
            12.238889,
            41.800278
          ]
        ]
      }
    }
  ]
}
