{
  "type": "FeatureCollection",
  "name": "VATSIM Cross the Land westbound 2026",
  "features": [
    {
      "type": "Feature",
      "id": "OKKK-LHBP",
      "properties": {
        "route_id": "OKKK-LHBP",
        "route_name": "OKKK-LHBP",
        "origin": "OKKK",
        "destination": "LHBP",
        "point_count": 31,
        "source_file": "OKKK-LHBP.gpx"
      },
      "geometry": {
        "type": "LineString",
        "coordinates": [
          [
            47.979953,
            29.226767
          ],
          [
            47.918056,
            30.022222
          ],
          [
            47.187778,
            30.566111
          ],
          [
            46.312222,
            31.205278
          ],
          [
            44.28415,
            33.17045
          ],
          [
            44.249167,
            33.260833
          ],
          [
            44.138056,
            34.499722
          ],
          [
            43.718611,
            35.294722
          ],
          [
            43.287778,
            36.096667
          ],
          [
            42.915,
            36.77
          ],
          [
            42.649722,
            37.248889
          ],
          [
            40.606583,
            38.117194
          ],
          [
            38.902222,
            38.756111
          ],
          [
            36.501056,
            39.503547
          ],
          [
            33.832778,
            40.168494
          ],
          [
            32.333333,
            40.572222
          ],
          [
            30.666111,
            40.865556
          ],
          [
            29.979758,
            40.9867
          ],
          [
            29.63,
            41.045833
          ],
          [
            29.142889,
            41.126972
          ],
          [
            28.404444,
            41.493611
          ],
          [
            28.110556,
            41.983333
          ],
          [
            26.768056,
            42.747778
          ],
          [
            26.596111,
            42.814444
          ],
          [
            26.151944,
            43.1725
          ],
          [
            25.0025,
            43.973333
          ],
          [
            23.374722,
            45.103889
          ],
          [
            22.500833,
            45.727778
          ],
          [
            21.267222,
            46.493611
          ],
          [
            20.231389,
            47.153611
          ],
          [
            19.261944,
            47.439444
          ]
        ]
      }
    }
  ]
}
