{
  "type": "FeatureCollection",
  "name": "VATSIM Cross the Land westbound 2026",
  "features": [
    {
      "type": "Feature",
      "id": "OKKK-LKPR",
      "properties": {
        "route_id": "OKKK-LKPR",
        "route_name": "OKKK-LKPR",
        "origin": "OKKK",
        "destination": "LKPR",
        "point_count": 42,
        "source_file": "OKKK-LKPR.gpx"
      },
      "geometry": {
        "type": "LineString",
        "coordinates": [
          [
            47.979953,
            29.226767
          ],
          [
            47.918056,
            30.022222
          ],
          [
            47.187778,
            30.566111
          ],
          [
            46.066667,
            31.75
          ],
          [
            45.264444,
            32.551389
          ],
          [
            44.733333,
            33.216667
          ],
          [
            44.6925,
            34.5075
          ],
          [
            44.316667,
            35.283333
          ],
          [
            44.041389,
            35.816111
          ],
          [
            43.8,
            36.276944
          ],
          [
            43.556111,
            36.745833
          ],
          [
            43.216667,
            37.35
          ],
          [
            42.655278,
            37.588333
          ],
          [
            41.881972,
            37.910667
          ],
          [
            41.08,
            38.463889
          ],
          [
            40.825,
            38.630556
          ],
          [
            39.972222,
            39.188889
          ],
          [
            39.468056,
            39.511667
          ],
          [
            39.123611,
            39.725
          ],
          [
            38.15,
            40.327778
          ],
          [
            37.675833,
            40.47
          ],
          [
            36.668056,
            40.764167
          ],
          [
            36.0625,
            40.935556
          ],
          [
            35.866111,
            40.990278
          ],
          [
            34.862222,
            41.263611
          ],
          [
            34.337222,
            41.4025
          ],
          [
            34.135278,
            41.454722
          ],
          [
            33.578611,
            41.596944
          ],
          [
            33.538056,
            41.607222
          ],
          [
            33.031111,
            41.733611
          ],
          [
            32.759444,
            41.800278
          ],
          [
            32.461111,
            41.8725
          ],
          [
            32.366667,
            41.895
          ],
          [
            32.232778,
            41.927222
          ],
          [
            31.885833,
            42.009167
          ],
          [
            31.403056,
            42.121389
          ],
          [
            29.870278,
            42.461667
          ],
          [
            21.496667,
            46.6875
          ],
          [
            17.709514,
            48.865172
          ],
          [
            15.947267,
            49.407894
          ],
          [
            15.066742,
            49.704272
          ],
          [
            14.26,
            50.100833
          ]
        ]
      }
    }
  ]
}
