{
  "type": "FeatureCollection",
  "name": "VATSIM Cross the Land westbound 2026",
  "features": [
    {
      "type": "Feature",
      "id": "OKKK-ESSA",
      "properties": {
        "route_id": "OKKK-ESSA",
        "route_name": "OKKK-ESSA",
        "origin": "OKKK",
        "destination": "ESSA",
        "point_count": 40,
        "source_file": "OKKK-ESSA.gpx"
      },
      "geometry": {
        "type": "LineString",
        "coordinates": [
          [
            47.979953,
            29.226767
          ],
          [
            47.918056,
            30.022222
          ],
          [
            47.187778,
            30.566111
          ],
          [
            46.312222,
            31.205278
          ],
          [
            44.28415,
            33.17045
          ],
          [
            44.249167,
            33.260833
          ],
          [
            44.138056,
            34.499722
          ],
          [
            43.718611,
            35.294722
          ],
          [
            43.287778,
            36.096667
          ],
          [
            42.915,
            36.77
          ],
          [
            42.649722,
            37.248889
          ],
          [
            40.606583,
            38.117194
          ],
          [
            38.941944,
            38.842222
          ],
          [
            36.243611,
            39.783611
          ],
          [
            33.943294,
            40.503575
          ],
          [
            32.069167,
            41.1325
          ],
          [
            31.308611,
            41.766667
          ],
          [
            31.022778,
            42.000556
          ],
          [
            30.668889,
            42.287222
          ],
          [
            30.264444,
            42.610556
          ],
          [
            29.143333,
            43.096111
          ],
          [
            28.556389,
            43.333611
          ],
          [
            27.838611,
            43.609167
          ],
          [
            26.772883,
            44.277917
          ],
          [
            24.306583,
            46.446917
          ],
          [
            23.3225,
            47.260833
          ],
          [
            21.927222,
            48.361667
          ],
          [
            21.439167,
            49.412778
          ],
          [
            21.014444,
            50.133333
          ],
          [
            20.274944,
            51.224111
          ],
          [
            19.96075,
            51.581417
          ],
          [
            19.277222,
            52.563056
          ],
          [
            18.614861,
            53.750583
          ],
          [
            18.208056,
            54.299722
          ],
          [
            17.505556,
            55.209444
          ],
          [
            17.161389,
            55.638611
          ],
          [
            17.228611,
            56.337778
          ],
          [
            17.733611,
            58.597222
          ],
          [
            17.884722,
            58.815833
          ],
          [
            17.918611,
            59.651944
          ]
        ]
      }
    }
  ]
}
