{
  "type": "FeatureCollection",
  "name": "VATSIM Cross the Land westbound 2026",
  "features": [
    {
      "type": "Feature",
      "id": "OKKK-LIRF",
      "properties": {
        "route_id": "OKKK-LIRF",
        "route_name": "OKKK-LIRF",
        "origin": "OKKK",
        "destination": "LIRF",
        "point_count": 41,
        "source_file": "OKKK-LIRF.gpx"
      },
      "geometry": {
        "type": "LineString",
        "coordinates": [
          [
            47.979953,
            29.226767
          ],
          [
            47.615556,
            28.649167
          ],
          [
            46.874444,
            28.709444
          ],
          [
            46.335,
            28.751667
          ],
          [
            45.691389,
            28.7975
          ],
          [
            44.745278,
            28.86
          ],
          [
            43.521944,
            28.953611
          ],
          [
            42.185278,
            29.043056
          ],
          [
            41.939167,
            29.058056
          ],
          [
            41.429444,
            29.0875
          ],
          [
            40.577778,
            29.132778
          ],
          [
            39.906944,
            29.109722
          ],
          [
            38.930556,
            29.110833
          ],
          [
            38.376944,
            29.107778
          ],
          [
            37.508889,
            29.098333
          ],
          [
            36.480556,
            29.0875
          ],
          [
            34.847222,
            29.034722
          ],
          [
            34.758056,
            29.033333
          ],
          [
            34.671111,
            29.032222
          ],
          [
            33.954444,
            29.241111
          ],
          [
            32.685,
            29.6
          ],
          [
            31.868333,
            29.783333
          ],
          [
            31.663056,
            29.915
          ],
          [
            31.388417,
            30.092306
          ],
          [
            30.301667,
            31.091944
          ],
          [
            29.950833,
            31.1875
          ],
          [
            29.309722,
            31.585556
          ],
          [
            29.071944,
            31.731111
          ],
          [
            26.816667,
            34.0
          ],
          [
            24.938889,
            35.154444
          ],
          [
            23.500278,
            36.120278
          ],
          [
            22.023925,
            37.066447
          ],
          [
            20.504683,
            38.112953
          ],
          [
            20.253611,
            38.313889
          ],
          [
            19.0,
            39.293333
          ],
          [
            15.171389,
            41.107778
          ],
          [
            14.653333,
            41.190833
          ],
          [
            13.970667,
            41.296778
          ],
          [
            13.680528,
            41.446019
          ],
          [
            12.918056,
            41.541111
          ],
          [
            12.238889,
            41.800278
          ]
        ]
      }
    }
  ]
}
