{
  "type": "FeatureCollection",
  "name": "VATSIM Cross the Land westbound 2026",
  "features": [
    {
      "type": "Feature",
      "id": "OKKK-LOWW",
      "properties": {
        "route_id": "OKKK-LOWW",
        "route_name": "OKKK-LOWW",
        "origin": "OKKK",
        "destination": "LOWW",
        "point_count": 30,
        "source_file": "OKKK-LOWW.gpx"
      },
      "geometry": {
        "type": "LineString",
        "coordinates": [
          [
            47.979953,
            29.226767
          ],
          [
            47.615556,
            28.649167
          ],
          [
            46.874444,
            28.709444
          ],
          [
            46.335,
            28.751667
          ],
          [
            45.691389,
            28.7975
          ],
          [
            44.745278,
            28.86
          ],
          [
            43.497972,
            29.620194
          ],
          [
            42.196944,
            30.088333
          ],
          [
            41.142167,
            30.908028
          ],
          [
            39.164167,
            31.800278
          ],
          [
            39.031344,
            32.025278
          ],
          [
            38.693928,
            32.594411
          ],
          [
            38.468797,
            32.96995
          ],
          [
            38.368611,
            33.135833
          ],
          [
            37.92,
            33.871944
          ],
          [
            36.641389,
            36.784444
          ],
          [
            36.479444,
            36.951389
          ],
          [
            35.066667,
            38.372778
          ],
          [
            34.286389,
            39.130833
          ],
          [
            33.104917,
            40.241861
          ],
          [
            32.193333,
            40.713889
          ],
          [
            30.724722,
            41.428889
          ],
          [
            29.142778,
            42.170556
          ],
          [
            22.392222,
            43.912222
          ],
          [
            21.169556,
            44.748861
          ],
          [
            20.094167,
            46.163889
          ],
          [
            19.129444,
            47.340833
          ],
          [
            18.49,
            47.539722
          ],
          [
            17.5,
            47.746944
          ],
          [
            16.569722,
            48.110278
          ]
        ]
      }
    }
  ]
}
