{
  "type": "FeatureCollection",
  "name": "VATSIM Cross the Land westbound 2026",
  "features": [
    {
      "type": "Feature",
      "id": "OMDB-LGAV",
      "properties": {
        "route_id": "OMDB-LGAV",
        "route_name": "OMDB-LGAV",
        "origin": "OMDB",
        "destination": "LGAV",
        "point_count": 53,
        "source_file": "OMDB-LGAV.gpx"
      },
      "geometry": {
        "type": "LineString",
        "coordinates": [
          [
            55.364444,
            25.252778
          ],
          [
            54.938333,
            24.86425
          ],
          [
            54.833333,
            24.688333
          ],
          [
            54.736111,
            24.536389
          ],
          [
            54.671389,
            24.435556
          ],
          [
            54.606944,
            24.334722
          ],
          [
            54.575556,
            24.285556
          ],
          [
            54.543333,
            24.241389
          ],
          [
            54.067778,
            23.996389
          ],
          [
            53.519722,
            23.705556
          ],
          [
            52.958056,
            23.406667
          ],
          [
            52.519167,
            23.180833
          ],
          [
            52.407778,
            23.145556
          ],
          [
            51.463611,
            22.843056
          ],
          [
            47.176667,
            22.762222
          ],
          [
            46.395,
            22.822778
          ],
          [
            45.085833,
            22.915
          ],
          [
            44.670556,
            22.941944
          ],
          [
            43.571944,
            23.2775
          ],
          [
            43.140833,
            23.406667
          ],
          [
            42.753889,
            23.521111
          ],
          [
            42.287778,
            23.657778
          ],
          [
            41.989167,
            23.744167
          ],
          [
            41.771667,
            23.806944
          ],
          [
            41.563333,
            23.866667
          ],
          [
            41.355833,
            23.925556
          ],
          [
            40.955556,
            24.038611
          ],
          [
            40.514806,
            24.161694
          ],
          [
            39.705278,
            24.547472
          ],
          [
            39.164028,
            25.222194
          ],
          [
            37.810856,
            26.004833
          ],
          [
            37.5025,
            26.046667
          ],
          [
            36.488111,
            26.179333
          ],
          [
            35.784167,
            26.786944
          ],
          [
            34.649444,
            27.431111
          ],
          [
            34.163686,
            27.667997
          ],
          [
            31.818514,
            28.7735
          ],
          [
            31.258019,
            29.028317
          ],
          [
            30.572944,
            29.524292
          ],
          [
            29.318722,
            30.623542
          ],
          [
            29.198169,
            30.727169
          ],
          [
            29.084433,
            30.824611
          ],
          [
            28.228947,
            31.547356
          ],
          [
            27.810833,
            31.894167
          ],
          [
            27.619444,
            32.309444
          ],
          [
            27.432222,
            32.711111
          ],
          [
            26.816667,
            34.0
          ],
          [
            26.189064,
            35.068422
          ],
          [
            25.576944,
            35.694722
          ],
          [
            25.348889,
            35.925
          ],
          [
            24.519456,
            36.747508
          ],
          [
            24.073889,
            37.000556
          ],
          [
            23.9445,
            37.9367
          ]
        ]
      }
    }
  ]
}
