{
  "type": "FeatureCollection",
  "name": "VATSIM Cross the Land westbound 2026",
  "features": [
    {
      "type": "Feature",
      "id": "OMDB-LKPR:001",
      "properties": {
        "route_id": "OMDB-LKPR",
        "route_name": "OMDB-LKPR",
        "origin": "OMDB",
        "destination": "LKPR",
        "point_count": 69,
        "source_file": "OMDB-LKPR.gpx",
        "point_id": "OMDB-LKPR:001",
        "sequence": 1,
        "waypoint": "OMDB",
        "point_role": "origin",
        "overfly": false,
        "longitude": 55.364444,
        "latitude": 25.252778
      },
      "geometry": {
        "type": "Point",
        "coordinates": [
          55.364444,
          25.252778
        ]
      }
    },
    {
      "type": "Feature",
      "id": "OMDB-LKPR:002",
      "properties": {
        "route_id": "OMDB-LKPR",
        "route_name": "OMDB-LKPR",
        "origin": "OMDB",
        "destination": "LKPR",
        "point_count": 69,
        "source_file": "OMDB-LKPR.gpx",
        "point_id": "OMDB-LKPR:002",
        "sequence": 2,
        "waypoint": "RIDAP",
        "point_role": "enroute",
        "overfly": false,
        "longitude": 54.617,
        "latitude": 25.431583
      },
      "geometry": {
        "type": "Point",
        "coordinates": [
          54.617,
          25.431583
        ]
      }
    },
    {
      "type": "Feature",
      "id": "OMDB-LKPR:003",
      "properties": {
        "route_id": "OMDB-LKPR",
        "route_name": "OMDB-LKPR",
        "origin": "OMDB",
        "destination": "LKPR",
        "point_count": 69,
        "source_file": "OMDB-LKPR.gpx",
        "point_id": "OMDB-LKPR:003",
        "sequence": 3,
        "waypoint": "OTIKI",
        "point_role": "enroute",
        "overfly": false,
        "longitude": 54.244722,
        "latitude": 25.541389
      },
      "geometry": {
        "type": "Point",
        "coordinates": [
          54.244722,
          25.541389
        ]
      }
    },
    {
      "type": "Feature",
      "id": "OMDB-LKPR:004",
      "properties": {
        "route_id": "OMDB-LKPR",
        "route_name": "OMDB-LKPR",
        "origin": "OMDB",
        "destination": "LKPR",
        "point_count": 69,
        "source_file": "OMDB-LKPR.gpx",
        "point_id": "OMDB-LKPR:004",
        "sequence": 4,
        "waypoint": "TOTKU",
        "point_role": "enroute",
        "overfly": false,
        "longitude": 54.069444,
        "latitude": 25.592778
      },
      "geometry": {
        "type": "Point",
        "coordinates": [
          54.069444,
          25.592778
        ]
      }
    },
    {
      "type": "Feature",
      "id": "OMDB-LKPR:005",
      "properties": {
        "route_id": "OMDB-LKPR",
        "route_name": "OMDB-LKPR",
        "origin": "OMDB",
        "destination": "LKPR",
        "point_count": 69,
        "source_file": "OMDB-LKPR.gpx",
        "point_id": "OMDB-LKPR:005",
        "sequence": 5,
        "waypoint": "GODKI",
        "point_role": "enroute",
        "overfly": false,
        "longitude": 53.729722,
        "latitude": 25.689444
      },
      "geometry": {
        "type": "Point",
        "coordinates": [
          53.729722,
          25.689444
        ]
      }
    },
    {
      "type": "Feature",
      "id": "OMDB-LKPR:006",
      "properties": {
        "route_id": "OMDB-LKPR",
        "route_name": "OMDB-LKPR",
        "origin": "OMDB",
        "destination": "LKPR",
        "point_count": 69,
        "source_file": "OMDB-LKPR.gpx",
        "point_id": "OMDB-LKPR:006",
        "sequence": 6,
        "waypoint": "RALMI",
        "point_role": "enroute",
        "overfly": false,
        "longitude": 53.509167,
        "latitude": 25.751389
      },
      "geometry": {
        "type": "Point",
        "coordinates": [
          53.509167,
          25.751389
        ]
      }
    },
    {
      "type": "Feature",
      "id": "OMDB-LKPR:007",
      "properties": {
        "route_id": "OMDB-LKPR",
        "route_name": "OMDB-LKPR",
        "origin": "OMDB",
        "destination": "LKPR",
        "point_count": 69,
        "source_file": "OMDB-LKPR.gpx",
        "point_id": "OMDB-LKPR:007",
        "sequence": 7,
        "waypoint": "TUMAK",
        "point_role": "enroute",
        "overfly": false,
        "longitude": 53.185556,
        "latitude": 25.841944
      },
      "geometry": {
        "type": "Point",
        "coordinates": [
          53.185556,
          25.841944
        ]
      }
    },
    {
      "type": "Feature",
      "id": "OMDB-LKPR:008",
      "properties": {
        "route_id": "OMDB-LKPR",
        "route_name": "OMDB-LKPR",
        "origin": "OMDB",
        "destination": "LKPR",
        "point_count": 69,
        "source_file": "OMDB-LKPR.gpx",
        "point_id": "OMDB-LKPR:008",
        "sequence": 8,
        "waypoint": "VEDOM",
        "point_role": "enroute",
        "overfly": false,
        "longitude": 52.748889,
        "latitude": 26.019167
      },
      "geometry": {
        "type": "Point",
        "coordinates": [
          52.748889,
          26.019167
        ]
      }
    },
    {
      "type": "Feature",
      "id": "OMDB-LKPR:009",
      "properties": {
        "route_id": "OMDB-LKPR",
        "route_name": "OMDB-LKPR",
        "origin": "OMDB",
        "destination": "LKPR",
        "point_count": 69,
        "source_file": "OMDB-LKPR.gpx",
        "point_id": "OMDB-LKPR:009",
        "sequence": 9,
        "waypoint": "ORLUP",
        "point_role": "enroute",
        "overfly": false,
        "longitude": 52.537778,
        "latitude": 26.114167
      },
      "geometry": {
        "type": "Point",
        "coordinates": [
          52.537778,
          26.114167
        ]
      }
    },
    {
      "type": "Feature",
      "id": "OMDB-LKPR:010",
      "properties": {
        "route_id": "OMDB-LKPR",
        "route_name": "OMDB-LKPR",
        "origin": "OMDB",
        "destination": "LKPR",
        "point_count": 69,
        "source_file": "OMDB-LKPR.gpx",
        "point_id": "OMDB-LKPR:010",
        "sequence": 10,
        "waypoint": "VELAK",
        "point_role": "enroute",
        "overfly": false,
        "longitude": 52.305833,
        "latitude": 26.218611
      },
      "geometry": {
        "type": "Point",
        "coordinates": [
          52.305833,
          26.218611
        ]
      }
    },
    {
      "type": "Feature",
      "id": "OMDB-LKPR:011",
      "properties": {
        "route_id": "OMDB-LKPR",
        "route_name": "OMDB-LKPR",
        "origin": "OMDB",
        "destination": "LKPR",
        "point_count": 69,
        "source_file": "OMDB-LKPR.gpx",
        "point_id": "OMDB-LKPR:011",
        "sequence": 11,
        "waypoint": "LABOP",
        "point_role": "enroute",
        "overfly": false,
        "longitude": 52.074722,
        "latitude": 26.318611
      },
      "geometry": {
        "type": "Point",
        "coordinates": [
          52.074722,
          26.318611
        ]
      }
    },
    {
      "type": "Feature",
      "id": "OMDB-LKPR:012",
      "properties": {
        "route_id": "OMDB-LKPR",
        "route_name": "OMDB-LKPR",
        "origin": "OMDB",
        "destination": "LKPR",
        "point_count": 69,
        "source_file": "OMDB-LKPR.gpx",
        "point_id": "OMDB-LKPR:012",
        "sequence": 12,
        "waypoint": "ALTOM",
        "point_role": "enroute",
        "overfly": false,
        "longitude": 51.944167,
        "latitude": 26.375
      },
      "geometry": {
        "type": "Point",
        "coordinates": [
          51.944167,
          26.375
        ]
      }
    },
    {
      "type": "Feature",
      "id": "OMDB-LKPR:013",
      "properties": {
        "route_id": "OMDB-LKPR",
        "route_name": "OMDB-LKPR",
        "origin": "OMDB",
        "destination": "LKPR",
        "point_count": 69,
        "source_file": "OMDB-LKPR.gpx",
        "point_id": "OMDB-LKPR:013",
        "sequence": 13,
        "waypoint": "BOPOV",
        "point_role": "enroute",
        "overfly": false,
        "longitude": 51.845325,
        "latitude": 26.408247
      },
      "geometry": {
        "type": "Point",
        "coordinates": [
          51.845325,
          26.408247
        ]
      }
    },
    {
      "type": "Feature",
      "id": "OMDB-LKPR:014",
      "properties": {
        "route_id": "OMDB-LKPR",
        "route_name": "OMDB-LKPR",
        "origin": "OMDB",
        "destination": "LKPR",
        "point_count": 69,
        "source_file": "OMDB-LKPR.gpx",
        "point_id": "OMDB-LKPR:014",
        "sequence": 14,
        "waypoint": "EGNIM",
        "point_role": "enroute",
        "overfly": false,
        "longitude": 51.68545,
        "latitude": 26.461844
      },
      "geometry": {
        "type": "Point",
        "coordinates": [
          51.68545,
          26.461844
        ]
      }
    },
    {
      "type": "Feature",
      "id": "OMDB-LKPR:015",
      "properties": {
        "route_id": "OMDB-LKPR",
        "route_name": "OMDB-LKPR",
        "origin": "OMDB",
        "destination": "LKPR",
        "point_count": 69,
        "source_file": "OMDB-LKPR.gpx",
        "point_id": "OMDB-LKPR:015",
        "sequence": 15,
        "waypoint": "ALMOK",
        "point_role": "enroute",
        "overfly": false,
        "longitude": 51.644444,
        "latitude": 26.475556
      },
      "geometry": {
        "type": "Point",
        "coordinates": [
          51.644444,
          26.475556
        ]
      }
    },
    {
      "type": "Feature",
      "id": "OMDB-LKPR:016",
      "properties": {
        "route_id": "OMDB-LKPR",
        "route_name": "OMDB-LKPR",
        "origin": "OMDB",
        "destination": "LKPR",
        "point_count": 69,
        "source_file": "OMDB-LKPR.gpx",
        "point_id": "OMDB-LKPR:016",
        "sequence": 16,
        "waypoint": "GITBO",
        "point_role": "enroute",
        "overfly": false,
        "longitude": 51.297222,
        "latitude": 26.590833
      },
      "geometry": {
        "type": "Point",
        "coordinates": [
          51.297222,
          26.590833
        ]
      }
    },
    {
      "type": "Feature",
      "id": "OMDB-LKPR:017",
      "properties": {
        "route_id": "OMDB-LKPR",
        "route_name": "OMDB-LKPR",
        "origin": "OMDB",
        "destination": "LKPR",
        "point_count": 69,
        "source_file": "OMDB-LKPR.gpx",
        "point_id": "OMDB-LKPR:017",
        "sequence": 17,
        "waypoint": "VEDOS",
        "point_role": "enroute",
        "overfly": false,
        "longitude": 51.012414,
        "latitude": 26.684958
      },
      "geometry": {
        "type": "Point",
        "coordinates": [
          51.012414,
          26.684958
        ]
      }
    },
    {
      "type": "Feature",
      "id": "OMDB-LKPR:018",
      "properties": {
        "route_id": "OMDB-LKPR",
        "route_name": "OMDB-LKPR",
        "origin": "OMDB",
        "destination": "LKPR",
        "point_count": 69,
        "source_file": "OMDB-LKPR.gpx",
        "point_id": "OMDB-LKPR:018",
        "sequence": 18,
        "waypoint": "MOGAS",
        "point_role": "enroute",
        "overfly": false,
        "longitude": 50.652517,
        "latitude": 26.799892
      },
      "geometry": {
        "type": "Point",
        "coordinates": [
          50.652517,
          26.799892
        ]
      }
    },
    {
      "type": "Feature",
      "id": "OMDB-LKPR:019",
      "properties": {
        "route_id": "OMDB-LKPR",
        "route_name": "OMDB-LKPR",
        "origin": "OMDB",
        "destination": "LKPR",
        "point_count": 69,
        "source_file": "OMDB-LKPR.gpx",
        "point_id": "OMDB-LKPR:019",
        "sequence": 19,
        "waypoint": "TOLMO",
        "point_role": "enroute",
        "overfly": false,
        "longitude": 50.490833,
        "latitude": 26.917778
      },
      "geometry": {
        "type": "Point",
        "coordinates": [
          50.490833,
          26.917778
        ]
      }
    },
    {
      "type": "Feature",
      "id": "OMDB-LKPR:020",
      "properties": {
        "route_id": "OMDB-LKPR",
        "route_name": "OMDB-LKPR",
        "origin": "OMDB",
        "destination": "LKPR",
        "point_count": 69,
        "source_file": "OMDB-LKPR.gpx",
        "point_id": "OMDB-LKPR:020",
        "sequence": 20,
        "waypoint": "EGLIT",
        "point_role": "enroute",
        "overfly": false,
        "longitude": 50.334944,
        "latitude": 27.048875
      },
      "geometry": {
        "type": "Point",
        "coordinates": [
          50.334944,
          27.048875
        ]
      }
    },
    {
      "type": "Feature",
      "id": "OMDB-LKPR:021",
      "properties": {
        "route_id": "OMDB-LKPR",
        "route_name": "OMDB-LKPR",
        "origin": "OMDB",
        "destination": "LKPR",
        "point_count": 69,
        "source_file": "OMDB-LKPR.gpx",
        "point_id": "OMDB-LKPR:021",
        "sequence": 21,
        "waypoint": "TOKMA",
        "point_role": "enroute",
        "overfly": false,
        "longitude": 50.199728,
        "latitude": 27.160828
      },
      "geometry": {
        "type": "Point",
        "coordinates": [
          50.199728,
          27.160828
        ]
      }
    },
    {
      "type": "Feature",
      "id": "OMDB-LKPR:022",
      "properties": {
        "route_id": "OMDB-LKPR",
        "route_name": "OMDB-LKPR",
        "origin": "OMDB",
        "destination": "LKPR",
        "point_count": 69,
        "source_file": "OMDB-LKPR.gpx",
        "point_id": "OMDB-LKPR:022",
        "sequence": 22,
        "waypoint": "ORSOL",
        "point_role": "enroute",
        "overfly": false,
        "longitude": 50.035492,
        "latitude": 27.359731
      },
      "geometry": {
        "type": "Point",
        "coordinates": [
          50.035492,
          27.359731
        ]
      }
    },
    {
      "type": "Feature",
      "id": "OMDB-LKPR:023",
      "properties": {
        "route_id": "OMDB-LKPR",
        "route_name": "OMDB-LKPR",
        "origin": "OMDB",
        "destination": "LKPR",
        "point_count": 69,
        "source_file": "OMDB-LKPR.gpx",
        "point_id": "OMDB-LKPR:023",
        "sequence": 23,
        "waypoint": "ITNAS",
        "point_role": "enroute",
        "overfly": false,
        "longitude": 49.665839,
        "latitude": 27.778806
      },
      "geometry": {
        "type": "Point",
        "coordinates": [
          49.665839,
          27.778806
        ]
      }
    },
    {
      "type": "Feature",
      "id": "OMDB-LKPR:024",
      "properties": {
        "route_id": "OMDB-LKPR",
        "route_name": "OMDB-LKPR",
        "origin": "OMDB",
        "destination": "LKPR",
        "point_count": 69,
        "source_file": "OMDB-LKPR.gpx",
        "point_id": "OMDB-LKPR:024",
        "sequence": 24,
        "waypoint": "DAMUR",
        "point_role": "enroute",
        "overfly": false,
        "longitude": 49.443875,
        "latitude": 28.027072
      },
      "geometry": {
        "type": "Point",
        "coordinates": [
          49.443875,
          28.027072
        ]
      }
    },
    {
      "type": "Feature",
      "id": "OMDB-LKPR:025",
      "properties": {
        "route_id": "OMDB-LKPR",
        "route_name": "OMDB-LKPR",
        "origin": "OMDB",
        "destination": "LKPR",
        "point_count": 69,
        "source_file": "OMDB-LKPR.gpx",
        "point_id": "OMDB-LKPR:025",
        "sequence": 25,
        "waypoint": "ITEVO",
        "point_role": "enroute",
        "overfly": false,
        "longitude": 49.225633,
        "latitude": 28.265997
      },
      "geometry": {
        "type": "Point",
        "coordinates": [
          49.225633,
          28.265997
        ]
      }
    },
    {
      "type": "Feature",
      "id": "OMDB-LKPR:026",
      "properties": {
        "route_id": "OMDB-LKPR",
        "route_name": "OMDB-LKPR",
        "origin": "OMDB",
        "destination": "LKPR",
        "point_count": 69,
        "source_file": "OMDB-LKPR.gpx",
        "point_id": "OMDB-LKPR:026",
        "sequence": 26,
        "waypoint": "DAVUS",
        "point_role": "enroute",
        "overfly": false,
        "longitude": 49.106189,
        "latitude": 28.396189
      },
      "geometry": {
        "type": "Point",
        "coordinates": [
          49.106189,
          28.396189
        ]
      }
    },
    {
      "type": "Feature",
      "id": "OMDB-LKPR:027",
      "properties": {
        "route_id": "OMDB-LKPR",
        "route_name": "OMDB-LKPR",
        "origin": "OMDB",
        "destination": "LKPR",
        "point_count": 69,
        "source_file": "OMDB-LKPR.gpx",
        "point_id": "OMDB-LKPR:027",
        "sequence": 27,
        "waypoint": "BOXIK",
        "point_role": "enroute",
        "overfly": false,
        "longitude": 48.792778,
        "latitude": 28.803889
      },
      "geometry": {
        "type": "Point",
        "coordinates": [
          48.792778,
          28.803889
        ]
      }
    },
    {
      "type": "Feature",
      "id": "OMDB-LKPR:028",
      "properties": {
        "route_id": "OMDB-LKPR",
        "route_name": "OMDB-LKPR",
        "origin": "OMDB",
        "destination": "LKPR",
        "point_count": 69,
        "source_file": "OMDB-LKPR.gpx",
        "point_id": "OMDB-LKPR:028",
        "sequence": 28,
        "waypoint": "RALKA",
        "point_role": "enroute",
        "overfly": false,
        "longitude": 48.305278,
        "latitude": 29.436389
      },
      "geometry": {
        "type": "Point",
        "coordinates": [
          48.305278,
          29.436389
        ]
      }
    },
    {
      "type": "Feature",
      "id": "OMDB-LKPR:029",
      "properties": {
        "route_id": "OMDB-LKPR",
        "route_name": "OMDB-LKPR",
        "origin": "OMDB",
        "destination": "LKPR",
        "point_count": 69,
        "source_file": "OMDB-LKPR.gpx",
        "point_id": "OMDB-LKPR:029",
        "sequence": 29,
        "waypoint": "TASMI",
        "point_role": "enroute",
        "overfly": false,
        "longitude": 47.918056,
        "latitude": 30.022222
      },
      "geometry": {
        "type": "Point",
        "coordinates": [
          47.918056,
          30.022222
        ]
      }
    },
    {
      "type": "Feature",
      "id": "OMDB-LKPR:030",
      "properties": {
        "route_id": "OMDB-LKPR",
        "route_name": "OMDB-LKPR",
        "origin": "OMDB",
        "destination": "LKPR",
        "point_count": 69,
        "source_file": "OMDB-LKPR.gpx",
        "point_id": "OMDB-LKPR:030",
        "sequence": 30,
        "waypoint": "GADSI",
        "point_role": "enroute",
        "overfly": false,
        "longitude": 47.187778,
        "latitude": 30.566111
      },
      "geometry": {
        "type": "Point",
        "coordinates": [
          47.187778,
          30.566111
        ]
      }
    },
    {
      "type": "Feature",
      "id": "OMDB-LKPR:031",
      "properties": {
        "route_id": "OMDB-LKPR",
        "route_name": "OMDB-LKPR",
        "origin": "OMDB",
        "destination": "LKPR",
        "point_count": 69,
        "source_file": "OMDB-LKPR.gpx",
        "point_id": "OMDB-LKPR:031",
        "sequence": 31,
        "waypoint": "KODAV",
        "point_role": "enroute",
        "overfly": false,
        "longitude": 46.066667,
        "latitude": 31.75
      },
      "geometry": {
        "type": "Point",
        "coordinates": [
          46.066667,
          31.75
        ]
      }
    },
    {
      "type": "Feature",
      "id": "OMDB-LKPR:032",
      "properties": {
        "route_id": "OMDB-LKPR",
        "route_name": "OMDB-LKPR",
        "origin": "OMDB",
        "destination": "LKPR",
        "point_count": 69,
        "source_file": "OMDB-LKPR.gpx",
        "point_id": "OMDB-LKPR:032",
        "sequence": 32,
        "waypoint": "RESAK",
        "point_role": "enroute",
        "overfly": false,
        "longitude": 45.264444,
        "latitude": 32.551389
      },
      "geometry": {
        "type": "Point",
        "coordinates": [
          45.264444,
          32.551389
        ]
      }
    },
    {
      "type": "Feature",
      "id": "OMDB-LKPR:033",
      "properties": {
        "route_id": "OMDB-LKPR",
        "route_name": "OMDB-LKPR",
        "origin": "OMDB",
        "destination": "LKPR",
        "point_count": 69,
        "source_file": "OMDB-LKPR.gpx",
        "point_id": "OMDB-LKPR:033",
        "sequence": 33,
        "waypoint": "SEPTU",
        "point_role": "enroute",
        "overfly": false,
        "longitude": 44.733333,
        "latitude": 33.216667
      },
      "geometry": {
        "type": "Point",
        "coordinates": [
          44.733333,
          33.216667
        ]
      }
    },
    {
      "type": "Feature",
      "id": "OMDB-LKPR:034",
      "properties": {
        "route_id": "OMDB-LKPR",
        "route_name": "OMDB-LKPR",
        "origin": "OMDB",
        "destination": "LKPR",
        "point_count": 69,
        "source_file": "OMDB-LKPR.gpx",
        "point_id": "OMDB-LKPR:034",
        "sequence": 34,
        "waypoint": "NAMDI",
        "point_role": "enroute",
        "overfly": false,
        "longitude": 44.6925,
        "latitude": 34.5075
      },
      "geometry": {
        "type": "Point",
        "coordinates": [
          44.6925,
          34.5075
        ]
      }
    },
    {
      "type": "Feature",
      "id": "OMDB-LKPR:035",
      "properties": {
        "route_id": "OMDB-LKPR",
        "route_name": "OMDB-LKPR",
        "origin": "OMDB",
        "destination": "LKPR",
        "point_count": 69,
        "source_file": "OMDB-LKPR.gpx",
        "point_id": "OMDB-LKPR:035",
        "sequence": 35,
        "waypoint": "OTALO",
        "point_role": "enroute",
        "overfly": false,
        "longitude": 44.316667,
        "latitude": 35.283333
      },
      "geometry": {
        "type": "Point",
        "coordinates": [
          44.316667,
          35.283333
        ]
      }
    },
    {
      "type": "Feature",
      "id": "OMDB-LKPR:036",
      "properties": {
        "route_id": "OMDB-LKPR",
        "route_name": "OMDB-LKPR",
        "origin": "OMDB",
        "destination": "LKPR",
        "point_count": 69,
        "source_file": "OMDB-LKPR.gpx",
        "point_id": "OMDB-LKPR:036",
        "sequence": 36,
        "waypoint": "TOMSI",
        "point_role": "enroute",
        "overfly": false,
        "longitude": 44.041389,
        "latitude": 35.816111
      },
      "geometry": {
        "type": "Point",
        "coordinates": [
          44.041389,
          35.816111
        ]
      }
    },
    {
      "type": "Feature",
      "id": "OMDB-LKPR:037",
      "properties": {
        "route_id": "OMDB-LKPR",
        "route_name": "OMDB-LKPR",
        "origin": "OMDB",
        "destination": "LKPR",
        "point_count": 69,
        "source_file": "OMDB-LKPR.gpx",
        "point_id": "OMDB-LKPR:037",
        "sequence": 37,
        "waypoint": "VUSEB",
        "point_role": "enroute",
        "overfly": false,
        "longitude": 43.8,
        "latitude": 36.276944
      },
      "geometry": {
        "type": "Point",
        "coordinates": [
          43.8,
          36.276944
        ]
      }
    },
    {
      "type": "Feature",
      "id": "OMDB-LKPR:038",
      "properties": {
        "route_id": "OMDB-LKPR",
        "route_name": "OMDB-LKPR",
        "origin": "OMDB",
        "destination": "LKPR",
        "point_count": 69,
        "source_file": "OMDB-LKPR.gpx",
        "point_id": "OMDB-LKPR:038",
        "sequence": 38,
        "waypoint": "ROXOP",
        "point_role": "enroute",
        "overfly": false,
        "longitude": 43.556111,
        "latitude": 36.745833
      },
      "geometry": {
        "type": "Point",
        "coordinates": [
          43.556111,
          36.745833
        ]
      }
    },
    {
      "type": "Feature",
      "id": "OMDB-LKPR:039",
      "properties": {
        "route_id": "OMDB-LKPR",
        "route_name": "OMDB-LKPR",
        "origin": "OMDB",
        "destination": "LKPR",
        "point_count": 69,
        "source_file": "OMDB-LKPR.gpx",
        "point_id": "OMDB-LKPR:039",
        "sequence": 39,
        "waypoint": "NINVA",
        "point_role": "enroute",
        "overfly": false,
        "longitude": 43.216667,
        "latitude": 37.35
      },
      "geometry": {
        "type": "Point",
        "coordinates": [
          43.216667,
          37.35
        ]
      }
    },
    {
      "type": "Feature",
      "id": "OMDB-LKPR:040",
      "properties": {
        "route_id": "OMDB-LKPR",
        "route_name": "OMDB-LKPR",
        "origin": "OMDB",
        "destination": "LKPR",
        "point_count": 69,
        "source_file": "OMDB-LKPR.gpx",
        "point_id": "OMDB-LKPR:040",
        "sequence": 40,
        "waypoint": "EFFEZ",
        "point_role": "enroute",
        "overfly": false,
        "longitude": 42.655278,
        "latitude": 37.588333
      },
      "geometry": {
        "type": "Point",
        "coordinates": [
          42.655278,
          37.588333
        ]
      }
    },
    {
      "type": "Feature",
      "id": "OMDB-LKPR:041",
      "properties": {
        "route_id": "OMDB-LKPR",
        "route_name": "OMDB-LKPR",
        "origin": "OMDB",
        "destination": "LKPR",
        "point_count": 69,
        "source_file": "OMDB-LKPR.gpx",
        "point_id": "OMDB-LKPR:041",
        "sequence": 41,
        "waypoint": "SRT",
        "point_role": "enroute",
        "overfly": false,
        "longitude": 41.881972,
        "latitude": 37.910667
      },
      "geometry": {
        "type": "Point",
        "coordinates": [
          41.881972,
          37.910667
        ]
      }
    },
    {
      "type": "Feature",
      "id": "OMDB-LKPR:042",
      "properties": {
        "route_id": "OMDB-LKPR",
        "route_name": "OMDB-LKPR",
        "origin": "OMDB",
        "destination": "LKPR",
        "point_count": 69,
        "source_file": "OMDB-LKPR.gpx",
        "point_id": "OMDB-LKPR:042",
        "sequence": 42,
        "waypoint": "RENGI",
        "point_role": "enroute",
        "overfly": false,
        "longitude": 41.08,
        "latitude": 38.463889
      },
      "geometry": {
        "type": "Point",
        "coordinates": [
          41.08,
          38.463889
        ]
      }
    },
    {
      "type": "Feature",
      "id": "OMDB-LKPR:043",
      "properties": {
        "route_id": "OMDB-LKPR",
        "route_name": "OMDB-LKPR",
        "origin": "OMDB",
        "destination": "LKPR",
        "point_count": 69,
        "source_file": "OMDB-LKPR.gpx",
        "point_id": "OMDB-LKPR:043",
        "sequence": 43,
        "waypoint": "NAREN",
        "point_role": "enroute",
        "overfly": false,
        "longitude": 40.825,
        "latitude": 38.630556
      },
      "geometry": {
        "type": "Point",
        "coordinates": [
          40.825,
          38.630556
        ]
      }
    },
    {
      "type": "Feature",
      "id": "OMDB-LKPR:044",
      "properties": {
        "route_id": "OMDB-LKPR",
        "route_name": "OMDB-LKPR",
        "origin": "OMDB",
        "destination": "LKPR",
        "point_count": 69,
        "source_file": "OMDB-LKPR.gpx",
        "point_id": "OMDB-LKPR:044",
        "sequence": 44,
        "waypoint": "TALIL",
        "point_role": "enroute",
        "overfly": false,
        "longitude": 39.972222,
        "latitude": 39.188889
      },
      "geometry": {
        "type": "Point",
        "coordinates": [
          39.972222,
          39.188889
        ]
      }
    },
    {
      "type": "Feature",
      "id": "OMDB-LKPR:045",
      "properties": {
        "route_id": "OMDB-LKPR",
        "route_name": "OMDB-LKPR",
        "origin": "OMDB",
        "destination": "LKPR",
        "point_count": 69,
        "source_file": "OMDB-LKPR.gpx",
        "point_id": "OMDB-LKPR:045",
        "sequence": 45,
        "waypoint": "KONUK",
        "point_role": "enroute",
        "overfly": false,
        "longitude": 39.468056,
        "latitude": 39.511667
      },
      "geometry": {
        "type": "Point",
        "coordinates": [
          39.468056,
          39.511667
        ]
      }
    },
    {
      "type": "Feature",
      "id": "OMDB-LKPR:046",
      "properties": {
        "route_id": "OMDB-LKPR",
        "route_name": "OMDB-LKPR",
        "origin": "OMDB",
        "destination": "LKPR",
        "point_count": 69,
        "source_file": "OMDB-LKPR.gpx",
        "point_id": "OMDB-LKPR:046",
        "sequence": 46,
        "waypoint": "EBEDI",
        "point_role": "enroute",
        "overfly": false,
        "longitude": 39.123611,
        "latitude": 39.725
      },
      "geometry": {
        "type": "Point",
        "coordinates": [
          39.123611,
          39.725
        ]
      }
    },
    {
      "type": "Feature",
      "id": "OMDB-LKPR:047",
      "properties": {
        "route_id": "OMDB-LKPR",
        "route_name": "OMDB-LKPR",
        "origin": "OMDB",
        "destination": "LKPR",
        "point_count": 69,
        "source_file": "OMDB-LKPR.gpx",
        "point_id": "OMDB-LKPR:047",
        "sequence": 47,
        "waypoint": "ODALI",
        "point_role": "enroute",
        "overfly": false,
        "longitude": 38.15,
        "latitude": 40.327778
      },
      "geometry": {
        "type": "Point",
        "coordinates": [
          38.15,
          40.327778
        ]
      }
    },
    {
      "type": "Feature",
      "id": "OMDB-LKPR:048",
      "properties": {
        "route_id": "OMDB-LKPR",
        "route_name": "OMDB-LKPR",
        "origin": "OMDB",
        "destination": "LKPR",
        "point_count": 69,
        "source_file": "OMDB-LKPR.gpx",
        "point_id": "OMDB-LKPR:048",
        "sequence": 48,
        "waypoint": "NELPO",
        "point_role": "enroute",
        "overfly": false,
        "longitude": 37.675833,
        "latitude": 40.47
      },
      "geometry": {
        "type": "Point",
        "coordinates": [
          37.675833,
          40.47
        ]
      }
    },
    {
      "type": "Feature",
      "id": "OMDB-LKPR:049",
      "properties": {
        "route_id": "OMDB-LKPR",
        "route_name": "OMDB-LKPR",
        "origin": "OMDB",
        "destination": "LKPR",
        "point_count": 69,
        "source_file": "OMDB-LKPR.gpx",
        "point_id": "OMDB-LKPR:049",
        "sequence": 49,
        "waypoint": "APVAS",
        "point_role": "enroute",
        "overfly": false,
        "longitude": 36.668056,
        "latitude": 40.764167
      },
      "geometry": {
        "type": "Point",
        "coordinates": [
          36.668056,
          40.764167
        ]
      }
    },
    {
      "type": "Feature",
      "id": "OMDB-LKPR:050",
      "properties": {
        "route_id": "OMDB-LKPR",
        "route_name": "OMDB-LKPR",
        "origin": "OMDB",
        "destination": "LKPR",
        "point_count": 69,
        "source_file": "OMDB-LKPR.gpx",
        "point_id": "OMDB-LKPR:050",
        "sequence": 50,
        "waypoint": "USANU",
        "point_role": "enroute",
        "overfly": false,
        "longitude": 36.0625,
        "latitude": 40.935556
      },
      "geometry": {
        "type": "Point",
        "coordinates": [
          36.0625,
          40.935556
        ]
      }
    },
    {
      "type": "Feature",
      "id": "OMDB-LKPR:051",
      "properties": {
        "route_id": "OMDB-LKPR",
        "route_name": "OMDB-LKPR",
        "origin": "OMDB",
        "destination": "LKPR",
        "point_count": 69,
        "source_file": "OMDB-LKPR.gpx",
        "point_id": "OMDB-LKPR:051",
        "sequence": 51,
        "waypoint": "ODPOT",
        "point_role": "enroute",
        "overfly": false,
        "longitude": 35.866111,
        "latitude": 40.990278
      },
      "geometry": {
        "type": "Point",
        "coordinates": [
          35.866111,
          40.990278
        ]
      }
    },
    {
      "type": "Feature",
      "id": "OMDB-LKPR:052",
      "properties": {
        "route_id": "OMDB-LKPR",
        "route_name": "OMDB-LKPR",
        "origin": "OMDB",
        "destination": "LKPR",
        "point_count": 69,
        "source_file": "OMDB-LKPR.gpx",
        "point_id": "OMDB-LKPR:052",
        "sequence": 52,
        "waypoint": "RUXEV",
        "point_role": "enroute",
        "overfly": false,
        "longitude": 34.862222,
        "latitude": 41.263611
      },
      "geometry": {
        "type": "Point",
        "coordinates": [
          34.862222,
          41.263611
        ]
      }
    },
    {
      "type": "Feature",
      "id": "OMDB-LKPR:053",
      "properties": {
        "route_id": "OMDB-LKPR",
        "route_name": "OMDB-LKPR",
        "origin": "OMDB",
        "destination": "LKPR",
        "point_count": 69,
        "source_file": "OMDB-LKPR.gpx",
        "point_id": "OMDB-LKPR:053",
        "sequence": 53,
        "waypoint": "EKSUK",
        "point_role": "enroute",
        "overfly": false,
        "longitude": 34.337222,
        "latitude": 41.4025
      },
      "geometry": {
        "type": "Point",
        "coordinates": [
          34.337222,
          41.4025
        ]
      }
    },
    {
      "type": "Feature",
      "id": "OMDB-LKPR:054",
      "properties": {
        "route_id": "OMDB-LKPR",
        "route_name": "OMDB-LKPR",
        "origin": "OMDB",
        "destination": "LKPR",
        "point_count": 69,
        "source_file": "OMDB-LKPR.gpx",
        "point_id": "OMDB-LKPR:054",
        "sequence": 54,
        "waypoint": "UPKAG",
        "point_role": "enroute",
        "overfly": false,
        "longitude": 34.135278,
        "latitude": 41.454722
      },
      "geometry": {
        "type": "Point",
        "coordinates": [
          34.135278,
          41.454722
        ]
      }
    },
    {
      "type": "Feature",
      "id": "OMDB-LKPR:055",
      "properties": {
        "route_id": "OMDB-LKPR",
        "route_name": "OMDB-LKPR",
        "origin": "OMDB",
        "destination": "LKPR",
        "point_count": 69,
        "source_file": "OMDB-LKPR.gpx",
        "point_id": "OMDB-LKPR:055",
        "sequence": 55,
        "waypoint": "VAXEB",
        "point_role": "enroute",
        "overfly": false,
        "longitude": 33.578611,
        "latitude": 41.596944
      },
      "geometry": {
        "type": "Point",
        "coordinates": [
          33.578611,
          41.596944
        ]
      }
    },
    {
      "type": "Feature",
      "id": "OMDB-LKPR:056",
      "properties": {
        "route_id": "OMDB-LKPR",
        "route_name": "OMDB-LKPR",
        "origin": "OMDB",
        "destination": "LKPR",
        "point_count": 69,
        "source_file": "OMDB-LKPR.gpx",
        "point_id": "OMDB-LKPR:056",
        "sequence": 56,
        "waypoint": "ESOSU",
        "point_role": "enroute",
        "overfly": false,
        "longitude": 33.538056,
        "latitude": 41.607222
      },
      "geometry": {
        "type": "Point",
        "coordinates": [
          33.538056,
          41.607222
        ]
      }
    },
    {
      "type": "Feature",
      "id": "OMDB-LKPR:057",
      "properties": {
        "route_id": "OMDB-LKPR",
        "route_name": "OMDB-LKPR",
        "origin": "OMDB",
        "destination": "LKPR",
        "point_count": 69,
        "source_file": "OMDB-LKPR.gpx",
        "point_id": "OMDB-LKPR:057",
        "sequence": 57,
        "waypoint": "TIVUG",
        "point_role": "enroute",
        "overfly": false,
        "longitude": 33.031111,
        "latitude": 41.733611
      },
      "geometry": {
        "type": "Point",
        "coordinates": [
          33.031111,
          41.733611
        ]
      }
    },
    {
      "type": "Feature",
      "id": "OMDB-LKPR:058",
      "properties": {
        "route_id": "OMDB-LKPR",
        "route_name": "OMDB-LKPR",
        "origin": "OMDB",
        "destination": "LKPR",
        "point_count": 69,
        "source_file": "OMDB-LKPR.gpx",
        "point_id": "OMDB-LKPR:058",
        "sequence": 58,
        "waypoint": "EVPUV",
        "point_role": "enroute",
        "overfly": false,
        "longitude": 32.759444,
        "latitude": 41.800278
      },
      "geometry": {
        "type": "Point",
        "coordinates": [
          32.759444,
          41.800278
        ]
      }
    },
    {
      "type": "Feature",
      "id": "OMDB-LKPR:059",
      "properties": {
        "route_id": "OMDB-LKPR",
        "route_name": "OMDB-LKPR",
        "origin": "OMDB",
        "destination": "LKPR",
        "point_count": 69,
        "source_file": "OMDB-LKPR.gpx",
        "point_id": "OMDB-LKPR:059",
        "sequence": 59,
        "waypoint": "DEVMU",
        "point_role": "enroute",
        "overfly": false,
        "longitude": 32.461111,
        "latitude": 41.8725
      },
      "geometry": {
        "type": "Point",
        "coordinates": [
          32.461111,
          41.8725
        ]
      }
    },
    {
      "type": "Feature",
      "id": "OMDB-LKPR:060",
      "properties": {
        "route_id": "OMDB-LKPR",
        "route_name": "OMDB-LKPR",
        "origin": "OMDB",
        "destination": "LKPR",
        "point_count": 69,
        "source_file": "OMDB-LKPR.gpx",
        "point_id": "OMDB-LKPR:060",
        "sequence": 60,
        "waypoint": "EVPIM",
        "point_role": "enroute",
        "overfly": false,
        "longitude": 32.366667,
        "latitude": 41.895
      },
      "geometry": {
        "type": "Point",
        "coordinates": [
          32.366667,
          41.895
        ]
      }
    },
    {
      "type": "Feature",
      "id": "OMDB-LKPR:061",
      "properties": {
        "route_id": "OMDB-LKPR",
        "route_name": "OMDB-LKPR",
        "origin": "OMDB",
        "destination": "LKPR",
        "point_count": 69,
        "source_file": "OMDB-LKPR.gpx",
        "point_id": "OMDB-LKPR:061",
        "sequence": 61,
        "waypoint": "BEDOP",
        "point_role": "enroute",
        "overfly": false,
        "longitude": 32.232778,
        "latitude": 41.927222
      },
      "geometry": {
        "type": "Point",
        "coordinates": [
          32.232778,
          41.927222
        ]
      }
    },
    {
      "type": "Feature",
      "id": "OMDB-LKPR:062",
      "properties": {
        "route_id": "OMDB-LKPR",
        "route_name": "OMDB-LKPR",
        "origin": "OMDB",
        "destination": "LKPR",
        "point_count": 69,
        "source_file": "OMDB-LKPR.gpx",
        "point_id": "OMDB-LKPR:062",
        "sequence": 62,
        "waypoint": "MODAU",
        "point_role": "enroute",
        "overfly": false,
        "longitude": 31.885833,
        "latitude": 42.009167
      },
      "geometry": {
        "type": "Point",
        "coordinates": [
          31.885833,
          42.009167
        ]
      }
    },
    {
      "type": "Feature",
      "id": "OMDB-LKPR:063",
      "properties": {
        "route_id": "OMDB-LKPR",
        "route_name": "OMDB-LKPR",
        "origin": "OMDB",
        "destination": "LKPR",
        "point_count": 69,
        "source_file": "OMDB-LKPR.gpx",
        "point_id": "OMDB-LKPR:063",
        "sequence": 63,
        "waypoint": "ODMAX",
        "point_role": "enroute",
        "overfly": false,
        "longitude": 31.403056,
        "latitude": 42.121389
      },
      "geometry": {
        "type": "Point",
        "coordinates": [
          31.403056,
          42.121389
        ]
      }
    },
    {
      "type": "Feature",
      "id": "OMDB-LKPR:064",
      "properties": {
        "route_id": "OMDB-LKPR",
        "route_name": "OMDB-LKPR",
        "origin": "OMDB",
        "destination": "LKPR",
        "point_count": 69,
        "source_file": "OMDB-LKPR.gpx",
        "point_id": "OMDB-LKPR:064",
        "sequence": 64,
        "waypoint": "NEGEM",
        "point_role": "enroute",
        "overfly": false,
        "longitude": 29.870278,
        "latitude": 42.461667
      },
      "geometry": {
        "type": "Point",
        "coordinates": [
          29.870278,
          42.461667
        ]
      }
    },
    {
      "type": "Feature",
      "id": "OMDB-LKPR:065",
      "properties": {
        "route_id": "OMDB-LKPR",
        "route_name": "OMDB-LKPR",
        "origin": "OMDB",
        "destination": "LKPR",
        "point_count": 69,
        "source_file": "OMDB-LKPR.gpx",
        "point_id": "OMDB-LKPR:065",
        "sequence": 65,
        "waypoint": "BUDOP",
        "point_role": "enroute",
        "overfly": false,
        "longitude": 21.496667,
        "latitude": 46.6875
      },
      "geometry": {
        "type": "Point",
        "coordinates": [
          21.496667,
          46.6875
        ]
      }
    },
    {
      "type": "Feature",
      "id": "OMDB-LKPR:066",
      "properties": {
        "route_id": "OMDB-LKPR",
        "route_name": "OMDB-LKPR",
        "origin": "OMDB",
        "destination": "LKPR",
        "point_count": 69,
        "source_file": "OMDB-LKPR.gpx",
        "point_id": "OMDB-LKPR:066",
        "sequence": 66,
        "waypoint": "LALES",
        "point_role": "enroute",
        "overfly": false,
        "longitude": 17.709514,
        "latitude": 48.865172
      },
      "geometry": {
        "type": "Point",
        "coordinates": [
          17.709514,
          48.865172
        ]
      }
    },
    {
      "type": "Feature",
      "id": "OMDB-LKPR:067",
      "properties": {
        "route_id": "OMDB-LKPR",
        "route_name": "OMDB-LKPR",
        "origin": "OMDB",
        "destination": "LKPR",
        "point_count": 69,
        "source_file": "OMDB-LKPR.gpx",
        "point_id": "OMDB-LKPR:067",
        "sequence": 67,
        "waypoint": "TUMKA",
        "point_role": "enroute",
        "overfly": false,
        "longitude": 15.947267,
        "latitude": 49.407894
      },
      "geometry": {
        "type": "Point",
        "coordinates": [
          15.947267,
          49.407894
        ]
      }
    },
    {
      "type": "Feature",
      "id": "OMDB-LKPR:068",
      "properties": {
        "route_id": "OMDB-LKPR",
        "route_name": "OMDB-LKPR",
        "origin": "OMDB",
        "destination": "LKPR",
        "point_count": 69,
        "source_file": "OMDB-LKPR.gpx",
        "point_id": "OMDB-LKPR:068",
        "sequence": 68,
        "waypoint": "VLM",
        "point_role": "enroute",
        "overfly": false,
        "longitude": 15.066742,
        "latitude": 49.704272
      },
      "geometry": {
        "type": "Point",
        "coordinates": [
          15.066742,
          49.704272
        ]
      }
    },
    {
      "type": "Feature",
      "id": "OMDB-LKPR:069",
      "properties": {
        "route_id": "OMDB-LKPR",
        "route_name": "OMDB-LKPR",
        "origin": "OMDB",
        "destination": "LKPR",
        "point_count": 69,
        "source_file": "OMDB-LKPR.gpx",
        "point_id": "OMDB-LKPR:069",
        "sequence": 69,
        "waypoint": "LKPR",
        "point_role": "destination",
        "overfly": false,
        "longitude": 14.26,
        "latitude": 50.100833
      },
      "geometry": {
        "type": "Point",
        "coordinates": [
          14.26,
          50.100833
        ]
      }
    }
  ]
}
