{
  "type": "FeatureCollection",
  "name": "VATSIM Cross the Land westbound 2026",
  "features": [
    {
      "type": "Feature",
      "id": "OMDB-LHBP",
      "properties": {
        "route_id": "OMDB-LHBP",
        "route_name": "OMDB-LHBP",
        "origin": "OMDB",
        "destination": "LHBP",
        "point_count": 57,
        "source_file": "OMDB-LHBP.gpx"
      },
      "geometry": {
        "type": "LineString",
        "coordinates": [
          [
            55.364444,
            25.252778
          ],
          [
            54.53625,
            25.333222
          ],
          [
            54.280556,
            25.402222
          ],
          [
            54.103056,
            25.446389
          ],
          [
            53.7525,
            25.530556
          ],
          [
            53.41,
            25.612222
          ],
          [
            53.015278,
            25.705
          ],
          [
            52.605833,
            25.898056
          ],
          [
            52.400556,
            25.988611
          ],
          [
            51.993056,
            26.17
          ],
          [
            51.940294,
            26.193889
          ],
          [
            51.809356,
            26.251592
          ],
          [
            51.661244,
            26.3176
          ],
          [
            51.525556,
            26.378056
          ],
          [
            51.369167,
            26.428056
          ],
          [
            51.2675,
            26.460556
          ],
          [
            50.915006,
            26.572594
          ],
          [
            50.690278,
            26.642222
          ],
          [
            50.485203,
            26.703003
          ],
          [
            50.273333,
            26.7575
          ],
          [
            49.9525,
            26.760556
          ],
          [
            49.59,
            26.763056
          ],
          [
            49.383611,
            26.764167
          ],
          [
            48.703333,
            26.765556
          ],
          [
            48.35,
            26.756111
          ],
          [
            47.8825,
            26.7425
          ],
          [
            47.376389,
            26.7675
          ],
          [
            46.392778,
            26.916389
          ],
          [
            45.566389,
            27.036667
          ],
          [
            45.445278,
            27.053889
          ],
          [
            44.728611,
            27.132778
          ],
          [
            44.381389,
            27.169722
          ],
          [
            43.651111,
            27.845278
          ],
          [
            42.679722,
            28.643889
          ],
          [
            42.185278,
            29.043056
          ],
          [
            41.309167,
            29.738333
          ],
          [
            40.639167,
            30.386667
          ],
          [
            39.553611,
            31.432778
          ],
          [
            39.164167,
            31.800278
          ],
          [
            39.031344,
            32.025278
          ],
          [
            38.693928,
            32.594411
          ],
          [
            38.468797,
            32.96995
          ],
          [
            38.368611,
            33.135833
          ],
          [
            37.92,
            33.871944
          ],
          [
            36.641389,
            36.784444
          ],
          [
            36.479444,
            36.951389
          ],
          [
            35.066667,
            38.372778
          ],
          [
            34.286389,
            39.130833
          ],
          [
            33.104917,
            40.241861
          ],
          [
            32.193333,
            40.713889
          ],
          [
            30.724722,
            41.428889
          ],
          [
            29.142778,
            42.170556
          ],
          [
            23.278756,
            45.918039
          ],
          [
            22.195278,
            46.463889
          ],
          [
            21.496667,
            46.6875
          ],
          [
            20.231389,
            47.153611
          ],
          [
            19.261944,
            47.439444
          ]
        ]
      }
    }
  ]
}
