{
  "type": "FeatureCollection",
  "name": "VATSIM Cross the Land westbound 2026",
  "features": [
    {
      "type": "Feature",
      "id": "OMDB-ESSA",
      "properties": {
        "route_id": "OMDB-ESSA",
        "route_name": "OMDB-ESSA",
        "origin": "OMDB",
        "destination": "ESSA",
        "point_count": 74,
        "source_file": "OMDB-ESSA.gpx"
      },
      "geometry": {
        "type": "LineString",
        "coordinates": [
          [
            55.364444,
            25.252778
          ],
          [
            54.53625,
            25.333222
          ],
          [
            54.280556,
            25.402222
          ],
          [
            54.103056,
            25.446389
          ],
          [
            53.7525,
            25.530556
          ],
          [
            53.41,
            25.612222
          ],
          [
            53.015278,
            25.705
          ],
          [
            52.605833,
            25.898056
          ],
          [
            52.400556,
            25.988611
          ],
          [
            51.993056,
            26.17
          ],
          [
            51.940294,
            26.193889
          ],
          [
            51.809356,
            26.251592
          ],
          [
            51.661244,
            26.3176
          ],
          [
            51.525556,
            26.378056
          ],
          [
            51.369167,
            26.428056
          ],
          [
            51.2675,
            26.460556
          ],
          [
            50.915006,
            26.572594
          ],
          [
            50.690278,
            26.642222
          ],
          [
            50.485203,
            26.703003
          ],
          [
            50.273333,
            26.7575
          ],
          [
            49.9525,
            26.760556
          ],
          [
            49.59,
            26.763056
          ],
          [
            49.383611,
            26.764167
          ],
          [
            48.703333,
            26.765556
          ],
          [
            48.35,
            26.756111
          ],
          [
            47.8825,
            26.7425
          ],
          [
            47.376389,
            26.7675
          ],
          [
            46.392778,
            26.916389
          ],
          [
            45.566389,
            27.036667
          ],
          [
            45.445278,
            27.053889
          ],
          [
            44.728611,
            27.132778
          ],
          [
            44.381389,
            27.169722
          ],
          [
            43.701667,
            27.238889
          ],
          [
            42.429167,
            27.359722
          ],
          [
            41.682917,
            27.425056
          ],
          [
            41.173333,
            27.916111
          ],
          [
            39.906944,
            29.109722
          ],
          [
            38.930556,
            29.110833
          ],
          [
            38.376944,
            29.107778
          ],
          [
            37.508889,
            29.098333
          ],
          [
            36.480556,
            29.0875
          ],
          [
            34.847222,
            29.034722
          ],
          [
            34.758056,
            29.033333
          ],
          [
            34.671111,
            29.032222
          ],
          [
            34.233333,
            29.606667
          ],
          [
            33.142778,
            31.366667
          ],
          [
            33.120556,
            31.808611
          ],
          [
            33.1,
            32.216667
          ],
          [
            31.786389,
            33.463889
          ],
          [
            31.666111,
            33.795556
          ],
          [
            30.824444,
            36.040556
          ],
          [
            30.811944,
            36.415556
          ],
          [
            30.794472,
            36.920806
          ],
          [
            31.018611,
            38.481944
          ],
          [
            30.500833,
            39.546944
          ],
          [
            29.516111,
            41.198889
          ],
          [
            29.142778,
            42.170556
          ],
          [
            24.306583,
            46.446917
          ],
          [
            23.3225,
            47.260833
          ],
          [
            21.927222,
            48.361667
          ],
          [
            21.010278,
            49.336389
          ],
          [
            20.569722,
            50.102222
          ],
          [
            19.887778,
            51.358611
          ],
          [
            19.277222,
            52.563056
          ],
          [
            18.614861,
            53.750583
          ],
          [
            18.208056,
            54.299722
          ],
          [
            17.826667,
            54.795278
          ],
          [
            17.685556,
            54.974444
          ],
          [
            17.505556,
            55.209444
          ],
          [
            17.161389,
            55.638611
          ],
          [
            17.718611,
            57.468889
          ],
          [
            18.001667,
            58.193889
          ],
          [
            17.884722,
            58.815833
          ],
          [
            17.918611,
            59.651944
          ]
        ]
      }
    }
  ]
}
