{
  "type": "FeatureCollection",
  "name": "VATSIM Cross the Land westbound 2026",
  "features": [
    {
      "type": "Feature",
      "id": "DTTA-LIRF",
      "properties": {
        "route_id": "DTTA-LIRF",
        "route_name": "DTTA-LIRF",
        "origin": "DTTA",
        "destination": "LIRF",
        "point_count": 9,
        "source_file": "DTTA-LIRF.gpx"
      },
      "geometry": {
        "type": "LineString",
        "coordinates": [
          [
            10.226944,
            36.851111
          ],
          [
            10.640556,
            37.236111
          ],
          [
            10.863333,
            37.442778
          ],
          [
            10.959167,
            37.742778
          ],
          [
            11.356944,
            39.249722
          ],
          [
            11.631667,
            40.385833
          ],
          [
            11.832778,
            40.861111
          ],
          [
            11.794722,
            41.384719
          ],
          [
            12.238889,
            41.800278
          ]
        ]
      }
    },
    {
      "type": "Feature",
      "id": "DTTA-ESSA",
      "properties": {
        "route_id": "DTTA-ESSA",
        "route_name": "DTTA-ESSA",
        "origin": "DTTA",
        "destination": "ESSA",
        "point_count": 14,
        "source_file": "DTTC-ESSA.gpx"
      },
      "geometry": {
        "type": "LineString",
        "coordinates": [
          [
            10.226944,
            36.851111
          ],
          [
            10.640556,
            37.236111
          ],
          [
            10.863333,
            37.442778
          ],
          [
            10.959167,
            37.742778
          ],
          [
            11.631667,
            40.385833
          ],
          [
            12.281444,
            45.071083
          ],
          [
            12.5975,
            46.706111
          ],
          [
            13.670278,
            48.207222
          ],
          [
            14.265608,
            50.095867
          ],
          [
            15.094667,
            51.013753
          ],
          [
            17.161389,
            55.638611
          ],
          [
            18.001667,
            58.193889
          ],
          [
            17.884722,
            58.815833
          ],
          [
            17.918611,
            59.651944
          ]
        ]
      }
    },
    {
      "type": "Feature",
      "id": "DTTA-LGAV",
      "properties": {
        "route_id": "DTTA-LGAV",
        "route_name": "DTTA-LGAV",
        "origin": "DTTA",
        "destination": "LGAV",
        "point_count": 12,
        "source_file": "DTTC-LGAV.gpx"
      },
      "geometry": {
        "type": "LineString",
        "coordinates": [
          [
            10.226944,
            36.851111
          ],
          [
            11.088917,
            36.895194
          ],
          [
            11.5,
            37.189167
          ],
          [
            11.996111,
            37.538056
          ],
          [
            13.999444,
            37.773333
          ],
          [
            14.690147,
            37.935036
          ],
          [
            15.645278,
            38.076583
          ],
          [
            17.089444,
            38.280556
          ],
          [
            19.0,
            38.518333
          ],
          [
            21.429411,
            38.158983
          ],
          [
            22.580833,
            37.706389
          ],
          [
            23.9445,
            37.9367
          ]
        ]
      }
    },
    {
      "type": "Feature",
      "id": "DTTA-LHBP",
      "properties": {
        "route_id": "DTTA-LHBP",
        "route_name": "DTTA-LHBP",
        "origin": "DTTA",
        "destination": "LHBP",
        "point_count": 12,
        "source_file": "DTTC-LHBP.gpx"
      },
      "geometry": {
        "type": "LineString",
        "coordinates": [
          [
            10.226944,
            36.851111
          ],
          [
            10.640556,
            37.236111
          ],
          [
            10.863333,
            37.442778
          ],
          [
            11.113889,
            37.673611
          ],
          [
            11.394444,
            37.929722
          ],
          [
            12.4475,
            38.869167
          ],
          [
            13.06,
            39.598889
          ],
          [
            15.205556,
            43.055833
          ],
          [
            16.675889,
            45.201528
          ],
          [
            16.962778,
            46.240278
          ],
          [
            18.566944,
            46.994167
          ],
          [
            19.261944,
            47.439444
          ]
        ]
      }
    },
    {
      "type": "Feature",
      "id": "DTTA-LKPR",
      "properties": {
        "route_id": "DTTA-LKPR",
        "route_name": "DTTA-LKPR",
        "origin": "DTTA",
        "destination": "LKPR",
        "point_count": 9,
        "source_file": "DTTC-LKPR.gpx"
      },
      "geometry": {
        "type": "LineString",
        "coordinates": [
          [
            10.226944,
            36.851111
          ],
          [
            10.640556,
            37.236111
          ],
          [
            10.863333,
            37.442778
          ],
          [
            10.959167,
            37.742778
          ],
          [
            11.631667,
            40.385833
          ],
          [
            12.281444,
            45.071083
          ],
          [
            14.336028,
            48.948328
          ],
          [
            14.1225,
            49.648333
          ],
          [
            14.26,
            50.100833
          ]
        ]
      }
    },
    {
      "type": "Feature",
      "id": "DTTA-LOWW",
      "properties": {
        "route_id": "DTTA-LOWW",
        "route_name": "DTTA-LOWW",
        "origin": "DTTA",
        "destination": "LOWW",
        "point_count": 15,
        "source_file": "DTTC-LOWW.gpx"
      },
      "geometry": {
        "type": "LineString",
        "coordinates": [
          [
            10.226944,
            36.851111
          ],
          [
            10.640556,
            37.236111
          ],
          [
            10.863333,
            37.442778
          ],
          [
            10.959167,
            37.742778
          ],
          [
            11.356944,
            39.249722
          ],
          [
            11.631667,
            40.385833
          ],
          [
            11.832778,
            40.861111
          ],
          [
            12.016667,
            41.292778
          ],
          [
            12.237528,
            41.803778
          ],
          [
            12.620556,
            42.471389
          ],
          [
            13.167303,
            43.383725
          ],
          [
            13.686111,
            44.221944
          ],
          [
            14.985525,
            46.059919
          ],
          [
            15.520431,
            46.535497
          ],
          [
            16.569722,
            48.110278
          ]
        ]
      }
    },
    {
      "type": "Feature",
      "id": "HECA-ESSA",
      "properties": {
        "route_id": "HECA-ESSA",
        "route_name": "HECA-ESSA",
        "origin": "HECA",
        "destination": "ESSA",
        "point_count": 27,
        "source_file": "HECA-ESSA.gpx"
      },
      "geometry": {
        "type": "LineString",
        "coordinates": [
          [
            31.413889,
            30.111389
          ],
          [
            31.388417,
            30.092306
          ],
          [
            30.301667,
            31.091944
          ],
          [
            29.950833,
            31.1875
          ],
          [
            29.4375,
            32.002778
          ],
          [
            29.303056,
            32.213611
          ],
          [
            28.266667,
            33.8
          ],
          [
            25.874167,
            37.59
          ],
          [
            23.774722,
            41.401667
          ],
          [
            23.645556,
            42.301944
          ],
          [
            21.86,
            47.248333
          ],
          [
            21.010278,
            49.336389
          ],
          [
            20.304444,
            50.557778
          ],
          [
            20.115833,
            50.914722
          ],
          [
            20.019167,
            51.104167
          ],
          [
            19.9575,
            51.224167
          ],
          [
            19.887778,
            51.358611
          ],
          [
            19.844167,
            51.4425
          ],
          [
            19.277222,
            52.563056
          ],
          [
            19.006389,
            53.091944
          ],
          [
            18.614861,
            53.750583
          ],
          [
            18.208056,
            54.299722
          ],
          [
            17.161389,
            55.638611
          ],
          [
            17.228611,
            56.337778
          ],
          [
            17.346111,
            57.500833
          ],
          [
            17.884722,
            58.815833
          ],
          [
            17.918611,
            59.651944
          ]
        ]
      }
    },
    {
      "type": "Feature",
      "id": "HECA-LGAV",
      "properties": {
        "route_id": "HECA-LGAV",
        "route_name": "HECA-LGAV",
        "origin": "HECA",
        "destination": "LGAV",
        "point_count": 14,
        "source_file": "HECA-LGAV.gpx"
      },
      "geometry": {
        "type": "LineString",
        "coordinates": [
          [
            31.413889,
            30.111389
          ],
          [
            31.388417,
            30.092306
          ],
          [
            30.301667,
            31.091944
          ],
          [
            29.950833,
            31.1875
          ],
          [
            29.4375,
            32.002778
          ],
          [
            29.303056,
            32.213611
          ],
          [
            28.266667,
            33.8
          ],
          [
            27.146911,
            35.421822
          ],
          [
            26.763333,
            35.907778
          ],
          [
            26.232778,
            36.565278
          ],
          [
            25.451667,
            37.204444
          ],
          [
            25.362778,
            37.275833
          ],
          [
            25.034167,
            37.363889
          ],
          [
            23.9445,
            37.9367
          ]
        ]
      }
    },
    {
      "type": "Feature",
      "id": "HECA-LHBP",
      "properties": {
        "route_id": "HECA-LHBP",
        "route_name": "HECA-LHBP",
        "origin": "HECA",
        "destination": "LHBP",
        "point_count": 31,
        "source_file": "HECA-LHBP.gpx"
      },
      "geometry": {
        "type": "LineString",
        "coordinates": [
          [
            31.413889,
            30.111389
          ],
          [
            31.388417,
            30.092306
          ],
          [
            31.512222,
            30.751944
          ],
          [
            31.420833,
            31.250833
          ],
          [
            31.364444,
            31.554722
          ],
          [
            31.332222,
            31.865556
          ],
          [
            31.311944,
            32.057222
          ],
          [
            31.299722,
            32.171667
          ],
          [
            31.255833,
            32.578333
          ],
          [
            30.95,
            33.1
          ],
          [
            30.917778,
            33.952778
          ],
          [
            30.901667,
            34.243056
          ],
          [
            30.883333,
            34.616667
          ],
          [
            30.864722,
            35.178056
          ],
          [
            30.824444,
            36.040556
          ],
          [
            30.811944,
            36.415556
          ],
          [
            30.794472,
            36.920806
          ],
          [
            30.810178,
            38.129297
          ],
          [
            30.690278,
            38.851944
          ],
          [
            30.266111,
            39.498889
          ],
          [
            30.018056,
            39.961944
          ],
          [
            29.636389,
            40.661389
          ],
          [
            29.142889,
            41.126972
          ],
          [
            28.404444,
            41.493611
          ],
          [
            28.110556,
            41.983333
          ],
          [
            26.768056,
            42.747778
          ],
          [
            26.151944,
            43.1725
          ],
          [
            25.0025,
            43.973333
          ],
          [
            21.267222,
            46.493611
          ],
          [
            20.231389,
            47.153611
          ],
          [
            19.261944,
            47.439444
          ]
        ]
      }
    },
    {
      "type": "Feature",
      "id": "HECA-LIRF",
      "properties": {
        "route_id": "HECA-LIRF",
        "route_name": "HECA-LIRF",
        "origin": "HECA",
        "destination": "LIRF",
        "point_count": 19,
        "source_file": "HECA-LIRF.gpx"
      },
      "geometry": {
        "type": "LineString",
        "coordinates": [
          [
            31.413889,
            30.111389
          ],
          [
            31.388417,
            30.092306
          ],
          [
            30.301667,
            31.091944
          ],
          [
            29.950833,
            31.1875
          ],
          [
            29.309722,
            31.585556
          ],
          [
            29.071944,
            31.731111
          ],
          [
            27.432222,
            32.711111
          ],
          [
            26.976111,
            32.975556
          ],
          [
            25.15,
            34.0
          ],
          [
            21.608611,
            36.031667
          ],
          [
            19.0,
            37.4
          ],
          [
            17.083056,
            38.996111
          ],
          [
            16.326111,
            39.162222
          ],
          [
            14.833333,
            40.146667
          ],
          [
            14.335028,
            40.582444
          ],
          [
            13.970667,
            41.296778
          ],
          [
            13.680528,
            41.446019
          ],
          [
            12.918056,
            41.541111
          ],
          [
            12.238889,
            41.800278
          ]
        ]
      }
    },
    {
      "type": "Feature",
      "id": "HECA-LKPR",
      "properties": {
        "route_id": "HECA-LKPR",
        "route_name": "HECA-LKPR",
        "origin": "HECA",
        "destination": "LKPR",
        "point_count": 15,
        "source_file": "HECA-LKPR.gpx"
      },
      "geometry": {
        "type": "LineString",
        "coordinates": [
          [
            31.413889,
            30.111389
          ],
          [
            31.388417,
            30.092306
          ],
          [
            30.301667,
            31.091944
          ],
          [
            29.950833,
            31.1875
          ],
          [
            29.309722,
            31.585556
          ],
          [
            29.071944,
            31.731111
          ],
          [
            27.432222,
            32.711111
          ],
          [
            26.976111,
            32.975556
          ],
          [
            25.15,
            34.0
          ],
          [
            20.594722,
            40.0725
          ],
          [
            19.335,
            42.228333
          ],
          [
            15.976167,
            46.309675
          ],
          [
            14.336028,
            48.948328
          ],
          [
            14.1225,
            49.648333
          ],
          [
            14.26,
            50.100833
          ]
        ]
      }
    },
    {
      "type": "Feature",
      "id": "HECA-LOWW",
      "properties": {
        "route_id": "HECA-LOWW",
        "route_name": "HECA-LOWW",
        "origin": "HECA",
        "destination": "LOWW",
        "point_count": 20,
        "source_file": "HECA-LOWW.gpx"
      },
      "geometry": {
        "type": "LineString",
        "coordinates": [
          [
            31.413889,
            30.111389
          ],
          [
            31.388417,
            30.092306
          ],
          [
            31.32,
            30.465556
          ],
          [
            31.512222,
            30.751944
          ],
          [
            31.420833,
            31.250833
          ],
          [
            31.364444,
            31.554722
          ],
          [
            31.332222,
            31.865556
          ],
          [
            31.311944,
            32.057222
          ],
          [
            31.299722,
            32.171667
          ],
          [
            31.255833,
            32.578333
          ],
          [
            30.95,
            33.1
          ],
          [
            30.0,
            34.163611
          ],
          [
            25.362778,
            37.275833
          ],
          [
            24.560278,
            38.168333
          ],
          [
            23.348333,
            39.733333
          ],
          [
            21.916667,
            41.076667
          ],
          [
            21.397222,
            42.159444
          ],
          [
            20.311389,
            42.833889
          ],
          [
            16.27405,
            46.378303
          ],
          [
            16.569722,
            48.110278
          ]
        ]
      }
    },
    {
      "type": "Feature",
      "id": "OERK-ESSA",
      "properties": {
        "route_id": "OERK-ESSA",
        "route_name": "OERK-ESSA",
        "origin": "OERK",
        "destination": "ESSA",
        "point_count": 64,
        "source_file": "OERK-ESSA.gpx"
      },
      "geometry": {
        "type": "LineString",
        "coordinates": [
          [
            46.708056,
            24.962778
          ],
          [
            45.438889,
            26.170556
          ],
          [
            45.298611,
            26.304167
          ],
          [
            44.995833,
            26.592222
          ],
          [
            44.809167,
            26.768889
          ],
          [
            44.569444,
            26.994167
          ],
          [
            44.381389,
            27.169722
          ],
          [
            43.651111,
            27.845278
          ],
          [
            42.679722,
            28.643889
          ],
          [
            42.185278,
            29.043056
          ],
          [
            41.309167,
            29.738333
          ],
          [
            40.639167,
            30.386667
          ],
          [
            39.553611,
            31.432778
          ],
          [
            39.164167,
            31.800278
          ],
          [
            39.031344,
            32.025278
          ],
          [
            38.693928,
            32.594411
          ],
          [
            38.673969,
            33.027622
          ],
          [
            38.660719,
            33.307133
          ],
          [
            38.654064,
            33.482383
          ],
          [
            38.125,
            34.516667
          ],
          [
            37.335,
            35.95
          ],
          [
            37.209378,
            36.179683
          ],
          [
            37.021667,
            36.381667
          ],
          [
            36.641389,
            36.784444
          ],
          [
            36.479444,
            36.951389
          ],
          [
            35.066667,
            38.372778
          ],
          [
            34.286389,
            39.130833
          ],
          [
            33.104917,
            40.241861
          ],
          [
            32.069167,
            41.1325
          ],
          [
            31.585833,
            41.5375
          ],
          [
            31.531111,
            41.583056
          ],
          [
            31.308611,
            41.766667
          ],
          [
            31.022778,
            42.000556
          ],
          [
            30.668889,
            42.287222
          ],
          [
            30.264444,
            42.610556
          ],
          [
            29.143333,
            43.733333
          ],
          [
            22.442222,
            47.793889
          ],
          [
            21.927222,
            48.361667
          ],
          [
            21.010278,
            49.336389
          ],
          [
            20.304444,
            50.557778
          ],
          [
            20.251111,
            50.647222
          ],
          [
            20.115833,
            50.914722
          ],
          [
            20.019167,
            51.104167
          ],
          [
            19.9575,
            51.224167
          ],
          [
            19.887778,
            51.358611
          ],
          [
            19.844167,
            51.4425
          ],
          [
            19.8025,
            51.521944
          ],
          [
            19.71,
            51.698333
          ],
          [
            19.656111,
            51.8
          ],
          [
            19.606389,
            51.901667
          ],
          [
            19.507222,
            52.103056
          ],
          [
            19.277222,
            52.563056
          ],
          [
            19.006389,
            53.091944
          ],
          [
            18.955,
            53.190833
          ],
          [
            18.781389,
            53.521111
          ],
          [
            18.614861,
            53.750583
          ],
          [
            18.208056,
            54.299722
          ],
          [
            17.826667,
            54.795278
          ],
          [
            17.685556,
            54.974444
          ],
          [
            17.505556,
            55.209444
          ],
          [
            17.161389,
            55.638611
          ],
          [
            18.001667,
            58.193889
          ],
          [
            17.884722,
            58.815833
          ],
          [
            17.918611,
            59.651944
          ]
        ]
      }
    },
    {
      "type": "Feature",
      "id": "OERK-LGAV",
      "properties": {
        "route_id": "OERK-LGAV",
        "route_name": "OERK-LGAV",
        "origin": "OERK",
        "destination": "LGAV",
        "point_count": 31,
        "source_file": "OERK-LGAV.gpx"
      },
      "geometry": {
        "type": "LineString",
        "coordinates": [
          [
            46.708056,
            24.962778
          ],
          [
            45.675,
            25.056389
          ],
          [
            44.574722,
            25.531944
          ],
          [
            43.779611,
            26.298083
          ],
          [
            43.144444,
            26.645
          ],
          [
            42.326667,
            27.084722
          ],
          [
            41.682917,
            27.425056
          ],
          [
            41.173333,
            27.916111
          ],
          [
            39.906944,
            29.109722
          ],
          [
            38.930556,
            29.110833
          ],
          [
            38.376944,
            29.107778
          ],
          [
            37.508889,
            29.098333
          ],
          [
            36.480556,
            29.0875
          ],
          [
            34.847222,
            29.034722
          ],
          [
            34.758056,
            29.033333
          ],
          [
            34.671111,
            29.032222
          ],
          [
            33.954444,
            29.241111
          ],
          [
            32.685,
            29.6
          ],
          [
            31.868333,
            29.783333
          ],
          [
            31.663056,
            29.915
          ],
          [
            31.388417,
            30.092306
          ],
          [
            30.301667,
            31.091944
          ],
          [
            29.565,
            32.096944
          ],
          [
            28.266667,
            33.8
          ],
          [
            27.146911,
            35.421822
          ],
          [
            26.763333,
            35.907778
          ],
          [
            26.232778,
            36.565278
          ],
          [
            25.451667,
            37.204444
          ],
          [
            25.362778,
            37.275833
          ],
          [
            25.034167,
            37.363889
          ],
          [
            23.9445,
            37.9367
          ]
        ]
      }
    },
    {
      "type": "Feature",
      "id": "OERK-LHBP",
      "properties": {
        "route_id": "OERK-LHBP",
        "route_name": "OERK-LHBP",
        "origin": "OERK",
        "destination": "LHBP",
        "point_count": 36,
        "source_file": "OERK-LHBP.gpx"
      },
      "geometry": {
        "type": "LineString",
        "coordinates": [
          [
            46.708056,
            24.962778
          ],
          [
            45.675,
            25.056389
          ],
          [
            44.574722,
            25.531944
          ],
          [
            43.779611,
            26.298083
          ],
          [
            43.144444,
            26.645
          ],
          [
            42.326667,
            27.084722
          ],
          [
            41.682917,
            27.425056
          ],
          [
            41.173333,
            27.916111
          ],
          [
            39.906944,
            29.109722
          ],
          [
            38.930556,
            29.110833
          ],
          [
            38.376944,
            29.107778
          ],
          [
            37.508889,
            29.098333
          ],
          [
            36.480556,
            29.0875
          ],
          [
            34.847222,
            29.034722
          ],
          [
            34.758056,
            29.033333
          ],
          [
            34.671111,
            29.032222
          ],
          [
            33.954444,
            29.241111
          ],
          [
            32.685,
            29.6
          ],
          [
            31.868333,
            29.783333
          ],
          [
            31.663056,
            29.915
          ],
          [
            31.388417,
            30.092306
          ],
          [
            30.301667,
            31.091944
          ],
          [
            29.565,
            32.096944
          ],
          [
            28.266667,
            33.8
          ],
          [
            27.766111,
            34.535556
          ],
          [
            26.688611,
            36.830278
          ],
          [
            25.874167,
            37.59
          ],
          [
            25.237189,
            39.919539
          ],
          [
            23.774722,
            41.401667
          ],
          [
            23.645556,
            42.301944
          ],
          [
            23.312778,
            43.328333
          ],
          [
            23.289167,
            43.5175
          ],
          [
            23.25,
            43.833333
          ],
          [
            22.610556,
            44.778611
          ],
          [
            20.231389,
            47.153611
          ],
          [
            19.261944,
            47.439444
          ]
        ]
      }
    },
    {
      "type": "Feature",
      "id": "OERK-LIRF",
      "properties": {
        "route_id": "OERK-LIRF",
        "route_name": "OERK-LIRF",
        "origin": "OERK",
        "destination": "LIRF",
        "point_count": 33,
        "source_file": "OERK-LIRF.gpx"
      },
      "geometry": {
        "type": "LineString",
        "coordinates": [
          [
            46.708056,
            24.962778
          ],
          [
            45.675,
            25.056389
          ],
          [
            44.574722,
            25.531944
          ],
          [
            43.779611,
            26.298083
          ],
          [
            43.144444,
            26.645
          ],
          [
            42.326667,
            27.084722
          ],
          [
            41.682917,
            27.425056
          ],
          [
            41.173333,
            27.916111
          ],
          [
            39.906944,
            29.109722
          ],
          [
            38.930556,
            29.110833
          ],
          [
            38.376944,
            29.107778
          ],
          [
            37.508889,
            29.098333
          ],
          [
            36.480556,
            29.0875
          ],
          [
            34.847222,
            29.034722
          ],
          [
            34.758056,
            29.033333
          ],
          [
            34.671111,
            29.032222
          ],
          [
            33.954444,
            29.241111
          ],
          [
            32.685,
            29.6
          ],
          [
            31.868333,
            29.783333
          ],
          [
            31.663056,
            29.915
          ],
          [
            31.388417,
            30.092306
          ],
          [
            30.301667,
            31.091944
          ],
          [
            29.950833,
            31.1875
          ],
          [
            29.309722,
            31.585556
          ],
          [
            29.071944,
            31.731111
          ],
          [
            26.816667,
            34.0
          ],
          [
            23.500278,
            36.120278
          ],
          [
            19.0,
            38.518333
          ],
          [
            15.171389,
            41.107778
          ],
          [
            13.970667,
            41.296778
          ],
          [
            13.680528,
            41.446019
          ],
          [
            12.918056,
            41.541111
          ],
          [
            12.238889,
            41.800278
          ]
        ]
      }
    },
    {
      "type": "Feature",
      "id": "OERK-LKPR",
      "properties": {
        "route_id": "OERK-LKPR",
        "route_name": "OERK-LKPR",
        "origin": "OERK",
        "destination": "LKPR",
        "point_count": 39,
        "source_file": "OERK-LKPR.gpx"
      },
      "geometry": {
        "type": "LineString",
        "coordinates": [
          [
            46.708056,
            24.962778
          ],
          [
            45.438889,
            26.170556
          ],
          [
            45.298611,
            26.304167
          ],
          [
            44.995833,
            26.592222
          ],
          [
            44.809167,
            26.768889
          ],
          [
            44.569444,
            26.994167
          ],
          [
            44.381389,
            27.169722
          ],
          [
            43.651111,
            27.845278
          ],
          [
            42.679722,
            28.643889
          ],
          [
            42.185278,
            29.043056
          ],
          [
            41.309167,
            29.738333
          ],
          [
            40.639167,
            30.386667
          ],
          [
            39.553611,
            31.432778
          ],
          [
            39.164167,
            31.800278
          ],
          [
            39.031344,
            32.025278
          ],
          [
            38.693928,
            32.594411
          ],
          [
            38.468797,
            32.96995
          ],
          [
            38.368611,
            33.135833
          ],
          [
            37.92,
            33.871944
          ],
          [
            35.716667,
            35.193333
          ],
          [
            34.016111,
            35.915556
          ],
          [
            33.754444,
            36.261111
          ],
          [
            33.291833,
            36.863028
          ],
          [
            32.203611,
            37.651667
          ],
          [
            31.582778,
            38.090833
          ],
          [
            31.018611,
            38.481944
          ],
          [
            30.690278,
            38.851944
          ],
          [
            30.266111,
            39.498889
          ],
          [
            30.018056,
            39.961944
          ],
          [
            29.636389,
            40.661389
          ],
          [
            29.142889,
            41.126972
          ],
          [
            28.404444,
            41.493611
          ],
          [
            28.110556,
            41.983333
          ],
          [
            26.768056,
            42.747778
          ],
          [
            21.496667,
            46.6875
          ],
          [
            17.709514,
            48.865172
          ],
          [
            15.947267,
            49.407894
          ],
          [
            15.066742,
            49.704272
          ],
          [
            14.26,
            50.100833
          ]
        ]
      }
    },
    {
      "type": "Feature",
      "id": "OERK-LOWW",
      "properties": {
        "route_id": "OERK-LOWW",
        "route_name": "OERK-LOWW",
        "origin": "OERK",
        "destination": "LOWW",
        "point_count": 37,
        "source_file": "OERK-LOWW.gpx"
      },
      "geometry": {
        "type": "LineString",
        "coordinates": [
          [
            46.708056,
            24.962778
          ],
          [
            45.438889,
            26.170556
          ],
          [
            45.298611,
            26.304167
          ],
          [
            44.995833,
            26.592222
          ],
          [
            44.809167,
            26.768889
          ],
          [
            44.569444,
            26.994167
          ],
          [
            44.381389,
            27.169722
          ],
          [
            43.651111,
            27.845278
          ],
          [
            42.679722,
            28.643889
          ],
          [
            42.185278,
            29.043056
          ],
          [
            41.309167,
            29.738333
          ],
          [
            40.639167,
            30.386667
          ],
          [
            39.553611,
            31.432778
          ],
          [
            39.164167,
            31.800278
          ],
          [
            39.031344,
            32.025278
          ],
          [
            38.693928,
            32.594411
          ],
          [
            38.468797,
            32.96995
          ],
          [
            38.368611,
            33.135833
          ],
          [
            37.92,
            33.871944
          ],
          [
            35.716667,
            35.193333
          ],
          [
            34.016111,
            35.915556
          ],
          [
            33.754444,
            36.261111
          ],
          [
            33.291833,
            36.863028
          ],
          [
            32.203611,
            37.651667
          ],
          [
            31.582778,
            38.090833
          ],
          [
            31.018611,
            38.481944
          ],
          [
            30.500833,
            39.546944
          ],
          [
            29.516111,
            41.198889
          ],
          [
            29.142778,
            42.170556
          ],
          [
            24.331667,
            44.920556
          ],
          [
            22.646667,
            45.8375
          ],
          [
            22.408075,
            45.953222
          ],
          [
            21.267222,
            46.493611
          ],
          [
            19.129444,
            47.340833
          ],
          [
            18.49,
            47.539722
          ],
          [
            17.5,
            47.746944
          ],
          [
            16.569722,
            48.110278
          ]
        ]
      }
    },
    {
      "type": "Feature",
      "id": "OKKK-ESSA",
      "properties": {
        "route_id": "OKKK-ESSA",
        "route_name": "OKKK-ESSA",
        "origin": "OKKK",
        "destination": "ESSA",
        "point_count": 40,
        "source_file": "OKKK-ESSA.gpx"
      },
      "geometry": {
        "type": "LineString",
        "coordinates": [
          [
            47.979953,
            29.226767
          ],
          [
            47.918056,
            30.022222
          ],
          [
            47.187778,
            30.566111
          ],
          [
            46.312222,
            31.205278
          ],
          [
            44.28415,
            33.17045
          ],
          [
            44.249167,
            33.260833
          ],
          [
            44.138056,
            34.499722
          ],
          [
            43.718611,
            35.294722
          ],
          [
            43.287778,
            36.096667
          ],
          [
            42.915,
            36.77
          ],
          [
            42.649722,
            37.248889
          ],
          [
            40.606583,
            38.117194
          ],
          [
            38.941944,
            38.842222
          ],
          [
            36.243611,
            39.783611
          ],
          [
            33.943294,
            40.503575
          ],
          [
            32.069167,
            41.1325
          ],
          [
            31.308611,
            41.766667
          ],
          [
            31.022778,
            42.000556
          ],
          [
            30.668889,
            42.287222
          ],
          [
            30.264444,
            42.610556
          ],
          [
            29.143333,
            43.096111
          ],
          [
            28.556389,
            43.333611
          ],
          [
            27.838611,
            43.609167
          ],
          [
            26.772883,
            44.277917
          ],
          [
            24.306583,
            46.446917
          ],
          [
            23.3225,
            47.260833
          ],
          [
            21.927222,
            48.361667
          ],
          [
            21.439167,
            49.412778
          ],
          [
            21.014444,
            50.133333
          ],
          [
            20.274944,
            51.224111
          ],
          [
            19.96075,
            51.581417
          ],
          [
            19.277222,
            52.563056
          ],
          [
            18.614861,
            53.750583
          ],
          [
            18.208056,
            54.299722
          ],
          [
            17.505556,
            55.209444
          ],
          [
            17.161389,
            55.638611
          ],
          [
            17.228611,
            56.337778
          ],
          [
            17.733611,
            58.597222
          ],
          [
            17.884722,
            58.815833
          ],
          [
            17.918611,
            59.651944
          ]
        ]
      }
    },
    {
      "type": "Feature",
      "id": "OKKK-LGAV",
      "properties": {
        "route_id": "OKKK-LGAV",
        "route_name": "OKKK-LGAV",
        "origin": "OKKK",
        "destination": "LGAV",
        "point_count": 33,
        "source_file": "OKKK-LGAV.gpx"
      },
      "geometry": {
        "type": "LineString",
        "coordinates": [
          [
            47.979953,
            29.226767
          ],
          [
            47.615556,
            28.649167
          ],
          [
            46.874444,
            28.709444
          ],
          [
            46.335,
            28.751667
          ],
          [
            45.691389,
            28.7975
          ],
          [
            44.745278,
            28.86
          ],
          [
            43.521944,
            28.953611
          ],
          [
            42.185278,
            29.043056
          ],
          [
            41.939167,
            29.058056
          ],
          [
            41.429444,
            29.0875
          ],
          [
            40.577778,
            29.132778
          ],
          [
            39.906944,
            29.109722
          ],
          [
            38.930556,
            29.110833
          ],
          [
            38.376944,
            29.107778
          ],
          [
            37.508889,
            29.098333
          ],
          [
            36.480556,
            29.0875
          ],
          [
            34.847222,
            29.034722
          ],
          [
            34.758056,
            29.033333
          ],
          [
            34.671111,
            29.032222
          ],
          [
            33.954444,
            29.241111
          ],
          [
            32.685,
            29.6
          ],
          [
            31.868333,
            29.783333
          ],
          [
            31.663056,
            29.915
          ],
          [
            31.388417,
            30.092306
          ],
          [
            30.301667,
            31.091944
          ],
          [
            29.950833,
            31.1875
          ],
          [
            29.309722,
            31.585556
          ],
          [
            29.071944,
            31.731111
          ],
          [
            26.816667,
            34.0
          ],
          [
            25.782778,
            35.097778
          ],
          [
            24.519456,
            36.747508
          ],
          [
            24.073889,
            37.000556
          ],
          [
            23.9445,
            37.9367
          ]
        ]
      }
    },
    {
      "type": "Feature",
      "id": "OKKK-LHBP",
      "properties": {
        "route_id": "OKKK-LHBP",
        "route_name": "OKKK-LHBP",
        "origin": "OKKK",
        "destination": "LHBP",
        "point_count": 31,
        "source_file": "OKKK-LHBP.gpx"
      },
      "geometry": {
        "type": "LineString",
        "coordinates": [
          [
            47.979953,
            29.226767
          ],
          [
            47.918056,
            30.022222
          ],
          [
            47.187778,
            30.566111
          ],
          [
            46.312222,
            31.205278
          ],
          [
            44.28415,
            33.17045
          ],
          [
            44.249167,
            33.260833
          ],
          [
            44.138056,
            34.499722
          ],
          [
            43.718611,
            35.294722
          ],
          [
            43.287778,
            36.096667
          ],
          [
            42.915,
            36.77
          ],
          [
            42.649722,
            37.248889
          ],
          [
            40.606583,
            38.117194
          ],
          [
            38.902222,
            38.756111
          ],
          [
            36.501056,
            39.503547
          ],
          [
            33.832778,
            40.168494
          ],
          [
            32.333333,
            40.572222
          ],
          [
            30.666111,
            40.865556
          ],
          [
            29.979758,
            40.9867
          ],
          [
            29.63,
            41.045833
          ],
          [
            29.142889,
            41.126972
          ],
          [
            28.404444,
            41.493611
          ],
          [
            28.110556,
            41.983333
          ],
          [
            26.768056,
            42.747778
          ],
          [
            26.596111,
            42.814444
          ],
          [
            26.151944,
            43.1725
          ],
          [
            25.0025,
            43.973333
          ],
          [
            23.374722,
            45.103889
          ],
          [
            22.500833,
            45.727778
          ],
          [
            21.267222,
            46.493611
          ],
          [
            20.231389,
            47.153611
          ],
          [
            19.261944,
            47.439444
          ]
        ]
      }
    },
    {
      "type": "Feature",
      "id": "OKKK-LIRF",
      "properties": {
        "route_id": "OKKK-LIRF",
        "route_name": "OKKK-LIRF",
        "origin": "OKKK",
        "destination": "LIRF",
        "point_count": 41,
        "source_file": "OKKK-LIRF.gpx"
      },
      "geometry": {
        "type": "LineString",
        "coordinates": [
          [
            47.979953,
            29.226767
          ],
          [
            47.615556,
            28.649167
          ],
          [
            46.874444,
            28.709444
          ],
          [
            46.335,
            28.751667
          ],
          [
            45.691389,
            28.7975
          ],
          [
            44.745278,
            28.86
          ],
          [
            43.521944,
            28.953611
          ],
          [
            42.185278,
            29.043056
          ],
          [
            41.939167,
            29.058056
          ],
          [
            41.429444,
            29.0875
          ],
          [
            40.577778,
            29.132778
          ],
          [
            39.906944,
            29.109722
          ],
          [
            38.930556,
            29.110833
          ],
          [
            38.376944,
            29.107778
          ],
          [
            37.508889,
            29.098333
          ],
          [
            36.480556,
            29.0875
          ],
          [
            34.847222,
            29.034722
          ],
          [
            34.758056,
            29.033333
          ],
          [
            34.671111,
            29.032222
          ],
          [
            33.954444,
            29.241111
          ],
          [
            32.685,
            29.6
          ],
          [
            31.868333,
            29.783333
          ],
          [
            31.663056,
            29.915
          ],
          [
            31.388417,
            30.092306
          ],
          [
            30.301667,
            31.091944
          ],
          [
            29.950833,
            31.1875
          ],
          [
            29.309722,
            31.585556
          ],
          [
            29.071944,
            31.731111
          ],
          [
            26.816667,
            34.0
          ],
          [
            24.938889,
            35.154444
          ],
          [
            23.500278,
            36.120278
          ],
          [
            22.023925,
            37.066447
          ],
          [
            20.504683,
            38.112953
          ],
          [
            20.253611,
            38.313889
          ],
          [
            19.0,
            39.293333
          ],
          [
            15.171389,
            41.107778
          ],
          [
            14.653333,
            41.190833
          ],
          [
            13.970667,
            41.296778
          ],
          [
            13.680528,
            41.446019
          ],
          [
            12.918056,
            41.541111
          ],
          [
            12.238889,
            41.800278
          ]
        ]
      }
    },
    {
      "type": "Feature",
      "id": "OKKK-LKPR",
      "properties": {
        "route_id": "OKKK-LKPR",
        "route_name": "OKKK-LKPR",
        "origin": "OKKK",
        "destination": "LKPR",
        "point_count": 42,
        "source_file": "OKKK-LKPR.gpx"
      },
      "geometry": {
        "type": "LineString",
        "coordinates": [
          [
            47.979953,
            29.226767
          ],
          [
            47.918056,
            30.022222
          ],
          [
            47.187778,
            30.566111
          ],
          [
            46.066667,
            31.75
          ],
          [
            45.264444,
            32.551389
          ],
          [
            44.733333,
            33.216667
          ],
          [
            44.6925,
            34.5075
          ],
          [
            44.316667,
            35.283333
          ],
          [
            44.041389,
            35.816111
          ],
          [
            43.8,
            36.276944
          ],
          [
            43.556111,
            36.745833
          ],
          [
            43.216667,
            37.35
          ],
          [
            42.655278,
            37.588333
          ],
          [
            41.881972,
            37.910667
          ],
          [
            41.08,
            38.463889
          ],
          [
            40.825,
            38.630556
          ],
          [
            39.972222,
            39.188889
          ],
          [
            39.468056,
            39.511667
          ],
          [
            39.123611,
            39.725
          ],
          [
            38.15,
            40.327778
          ],
          [
            37.675833,
            40.47
          ],
          [
            36.668056,
            40.764167
          ],
          [
            36.0625,
            40.935556
          ],
          [
            35.866111,
            40.990278
          ],
          [
            34.862222,
            41.263611
          ],
          [
            34.337222,
            41.4025
          ],
          [
            34.135278,
            41.454722
          ],
          [
            33.578611,
            41.596944
          ],
          [
            33.538056,
            41.607222
          ],
          [
            33.031111,
            41.733611
          ],
          [
            32.759444,
            41.800278
          ],
          [
            32.461111,
            41.8725
          ],
          [
            32.366667,
            41.895
          ],
          [
            32.232778,
            41.927222
          ],
          [
            31.885833,
            42.009167
          ],
          [
            31.403056,
            42.121389
          ],
          [
            29.870278,
            42.461667
          ],
          [
            21.496667,
            46.6875
          ],
          [
            17.709514,
            48.865172
          ],
          [
            15.947267,
            49.407894
          ],
          [
            15.066742,
            49.704272
          ],
          [
            14.26,
            50.100833
          ]
        ]
      }
    },
    {
      "type": "Feature",
      "id": "OKKK-LOWW",
      "properties": {
        "route_id": "OKKK-LOWW",
        "route_name": "OKKK-LOWW",
        "origin": "OKKK",
        "destination": "LOWW",
        "point_count": 30,
        "source_file": "OKKK-LOWW.gpx"
      },
      "geometry": {
        "type": "LineString",
        "coordinates": [
          [
            47.979953,
            29.226767
          ],
          [
            47.615556,
            28.649167
          ],
          [
            46.874444,
            28.709444
          ],
          [
            46.335,
            28.751667
          ],
          [
            45.691389,
            28.7975
          ],
          [
            44.745278,
            28.86
          ],
          [
            43.497972,
            29.620194
          ],
          [
            42.196944,
            30.088333
          ],
          [
            41.142167,
            30.908028
          ],
          [
            39.164167,
            31.800278
          ],
          [
            39.031344,
            32.025278
          ],
          [
            38.693928,
            32.594411
          ],
          [
            38.468797,
            32.96995
          ],
          [
            38.368611,
            33.135833
          ],
          [
            37.92,
            33.871944
          ],
          [
            36.641389,
            36.784444
          ],
          [
            36.479444,
            36.951389
          ],
          [
            35.066667,
            38.372778
          ],
          [
            34.286389,
            39.130833
          ],
          [
            33.104917,
            40.241861
          ],
          [
            32.193333,
            40.713889
          ],
          [
            30.724722,
            41.428889
          ],
          [
            29.142778,
            42.170556
          ],
          [
            22.392222,
            43.912222
          ],
          [
            21.169556,
            44.748861
          ],
          [
            20.094167,
            46.163889
          ],
          [
            19.129444,
            47.340833
          ],
          [
            18.49,
            47.539722
          ],
          [
            17.5,
            47.746944
          ],
          [
            16.569722,
            48.110278
          ]
        ]
      }
    },
    {
      "type": "Feature",
      "id": "OMDB-ESSA",
      "properties": {
        "route_id": "OMDB-ESSA",
        "route_name": "OMDB-ESSA",
        "origin": "OMDB",
        "destination": "ESSA",
        "point_count": 74,
        "source_file": "OMDB-ESSA.gpx"
      },
      "geometry": {
        "type": "LineString",
        "coordinates": [
          [
            55.364444,
            25.252778
          ],
          [
            54.53625,
            25.333222
          ],
          [
            54.280556,
            25.402222
          ],
          [
            54.103056,
            25.446389
          ],
          [
            53.7525,
            25.530556
          ],
          [
            53.41,
            25.612222
          ],
          [
            53.015278,
            25.705
          ],
          [
            52.605833,
            25.898056
          ],
          [
            52.400556,
            25.988611
          ],
          [
            51.993056,
            26.17
          ],
          [
            51.940294,
            26.193889
          ],
          [
            51.809356,
            26.251592
          ],
          [
            51.661244,
            26.3176
          ],
          [
            51.525556,
            26.378056
          ],
          [
            51.369167,
            26.428056
          ],
          [
            51.2675,
            26.460556
          ],
          [
            50.915006,
            26.572594
          ],
          [
            50.690278,
            26.642222
          ],
          [
            50.485203,
            26.703003
          ],
          [
            50.273333,
            26.7575
          ],
          [
            49.9525,
            26.760556
          ],
          [
            49.59,
            26.763056
          ],
          [
            49.383611,
            26.764167
          ],
          [
            48.703333,
            26.765556
          ],
          [
            48.35,
            26.756111
          ],
          [
            47.8825,
            26.7425
          ],
          [
            47.376389,
            26.7675
          ],
          [
            46.392778,
            26.916389
          ],
          [
            45.566389,
            27.036667
          ],
          [
            45.445278,
            27.053889
          ],
          [
            44.728611,
            27.132778
          ],
          [
            44.381389,
            27.169722
          ],
          [
            43.701667,
            27.238889
          ],
          [
            42.429167,
            27.359722
          ],
          [
            41.682917,
            27.425056
          ],
          [
            41.173333,
            27.916111
          ],
          [
            39.906944,
            29.109722
          ],
          [
            38.930556,
            29.110833
          ],
          [
            38.376944,
            29.107778
          ],
          [
            37.508889,
            29.098333
          ],
          [
            36.480556,
            29.0875
          ],
          [
            34.847222,
            29.034722
          ],
          [
            34.758056,
            29.033333
          ],
          [
            34.671111,
            29.032222
          ],
          [
            34.233333,
            29.606667
          ],
          [
            33.142778,
            31.366667
          ],
          [
            33.120556,
            31.808611
          ],
          [
            33.1,
            32.216667
          ],
          [
            31.786389,
            33.463889
          ],
          [
            31.666111,
            33.795556
          ],
          [
            30.824444,
            36.040556
          ],
          [
            30.811944,
            36.415556
          ],
          [
            30.794472,
            36.920806
          ],
          [
            31.018611,
            38.481944
          ],
          [
            30.500833,
            39.546944
          ],
          [
            29.516111,
            41.198889
          ],
          [
            29.142778,
            42.170556
          ],
          [
            24.306583,
            46.446917
          ],
          [
            23.3225,
            47.260833
          ],
          [
            21.927222,
            48.361667
          ],
          [
            21.010278,
            49.336389
          ],
          [
            20.569722,
            50.102222
          ],
          [
            19.887778,
            51.358611
          ],
          [
            19.277222,
            52.563056
          ],
          [
            18.614861,
            53.750583
          ],
          [
            18.208056,
            54.299722
          ],
          [
            17.826667,
            54.795278
          ],
          [
            17.685556,
            54.974444
          ],
          [
            17.505556,
            55.209444
          ],
          [
            17.161389,
            55.638611
          ],
          [
            17.718611,
            57.468889
          ],
          [
            18.001667,
            58.193889
          ],
          [
            17.884722,
            58.815833
          ],
          [
            17.918611,
            59.651944
          ]
        ]
      }
    },
    {
      "type": "Feature",
      "id": "OMDB-LGAV",
      "properties": {
        "route_id": "OMDB-LGAV",
        "route_name": "OMDB-LGAV",
        "origin": "OMDB",
        "destination": "LGAV",
        "point_count": 53,
        "source_file": "OMDB-LGAV.gpx"
      },
      "geometry": {
        "type": "LineString",
        "coordinates": [
          [
            55.364444,
            25.252778
          ],
          [
            54.938333,
            24.86425
          ],
          [
            54.833333,
            24.688333
          ],
          [
            54.736111,
            24.536389
          ],
          [
            54.671389,
            24.435556
          ],
          [
            54.606944,
            24.334722
          ],
          [
            54.575556,
            24.285556
          ],
          [
            54.543333,
            24.241389
          ],
          [
            54.067778,
            23.996389
          ],
          [
            53.519722,
            23.705556
          ],
          [
            52.958056,
            23.406667
          ],
          [
            52.519167,
            23.180833
          ],
          [
            52.407778,
            23.145556
          ],
          [
            51.463611,
            22.843056
          ],
          [
            47.176667,
            22.762222
          ],
          [
            46.395,
            22.822778
          ],
          [
            45.085833,
            22.915
          ],
          [
            44.670556,
            22.941944
          ],
          [
            43.571944,
            23.2775
          ],
          [
            43.140833,
            23.406667
          ],
          [
            42.753889,
            23.521111
          ],
          [
            42.287778,
            23.657778
          ],
          [
            41.989167,
            23.744167
          ],
          [
            41.771667,
            23.806944
          ],
          [
            41.563333,
            23.866667
          ],
          [
            41.355833,
            23.925556
          ],
          [
            40.955556,
            24.038611
          ],
          [
            40.514806,
            24.161694
          ],
          [
            39.705278,
            24.547472
          ],
          [
            39.164028,
            25.222194
          ],
          [
            37.810856,
            26.004833
          ],
          [
            37.5025,
            26.046667
          ],
          [
            36.488111,
            26.179333
          ],
          [
            35.784167,
            26.786944
          ],
          [
            34.649444,
            27.431111
          ],
          [
            34.163686,
            27.667997
          ],
          [
            31.818514,
            28.7735
          ],
          [
            31.258019,
            29.028317
          ],
          [
            30.572944,
            29.524292
          ],
          [
            29.318722,
            30.623542
          ],
          [
            29.198169,
            30.727169
          ],
          [
            29.084433,
            30.824611
          ],
          [
            28.228947,
            31.547356
          ],
          [
            27.810833,
            31.894167
          ],
          [
            27.619444,
            32.309444
          ],
          [
            27.432222,
            32.711111
          ],
          [
            26.816667,
            34.0
          ],
          [
            26.189064,
            35.068422
          ],
          [
            25.576944,
            35.694722
          ],
          [
            25.348889,
            35.925
          ],
          [
            24.519456,
            36.747508
          ],
          [
            24.073889,
            37.000556
          ],
          [
            23.9445,
            37.9367
          ]
        ]
      }
    },
    {
      "type": "Feature",
      "id": "OMDB-LHBP",
      "properties": {
        "route_id": "OMDB-LHBP",
        "route_name": "OMDB-LHBP",
        "origin": "OMDB",
        "destination": "LHBP",
        "point_count": 57,
        "source_file": "OMDB-LHBP.gpx"
      },
      "geometry": {
        "type": "LineString",
        "coordinates": [
          [
            55.364444,
            25.252778
          ],
          [
            54.53625,
            25.333222
          ],
          [
            54.280556,
            25.402222
          ],
          [
            54.103056,
            25.446389
          ],
          [
            53.7525,
            25.530556
          ],
          [
            53.41,
            25.612222
          ],
          [
            53.015278,
            25.705
          ],
          [
            52.605833,
            25.898056
          ],
          [
            52.400556,
            25.988611
          ],
          [
            51.993056,
            26.17
          ],
          [
            51.940294,
            26.193889
          ],
          [
            51.809356,
            26.251592
          ],
          [
            51.661244,
            26.3176
          ],
          [
            51.525556,
            26.378056
          ],
          [
            51.369167,
            26.428056
          ],
          [
            51.2675,
            26.460556
          ],
          [
            50.915006,
            26.572594
          ],
          [
            50.690278,
            26.642222
          ],
          [
            50.485203,
            26.703003
          ],
          [
            50.273333,
            26.7575
          ],
          [
            49.9525,
            26.760556
          ],
          [
            49.59,
            26.763056
          ],
          [
            49.383611,
            26.764167
          ],
          [
            48.703333,
            26.765556
          ],
          [
            48.35,
            26.756111
          ],
          [
            47.8825,
            26.7425
          ],
          [
            47.376389,
            26.7675
          ],
          [
            46.392778,
            26.916389
          ],
          [
            45.566389,
            27.036667
          ],
          [
            45.445278,
            27.053889
          ],
          [
            44.728611,
            27.132778
          ],
          [
            44.381389,
            27.169722
          ],
          [
            43.651111,
            27.845278
          ],
          [
            42.679722,
            28.643889
          ],
          [
            42.185278,
            29.043056
          ],
          [
            41.309167,
            29.738333
          ],
          [
            40.639167,
            30.386667
          ],
          [
            39.553611,
            31.432778
          ],
          [
            39.164167,
            31.800278
          ],
          [
            39.031344,
            32.025278
          ],
          [
            38.693928,
            32.594411
          ],
          [
            38.468797,
            32.96995
          ],
          [
            38.368611,
            33.135833
          ],
          [
            37.92,
            33.871944
          ],
          [
            36.641389,
            36.784444
          ],
          [
            36.479444,
            36.951389
          ],
          [
            35.066667,
            38.372778
          ],
          [
            34.286389,
            39.130833
          ],
          [
            33.104917,
            40.241861
          ],
          [
            32.193333,
            40.713889
          ],
          [
            30.724722,
            41.428889
          ],
          [
            29.142778,
            42.170556
          ],
          [
            23.278756,
            45.918039
          ],
          [
            22.195278,
            46.463889
          ],
          [
            21.496667,
            46.6875
          ],
          [
            20.231389,
            47.153611
          ],
          [
            19.261944,
            47.439444
          ]
        ]
      }
    },
    {
      "type": "Feature",
      "id": "OMDB-LIRF",
      "properties": {
        "route_id": "OMDB-LIRF",
        "route_name": "OMDB-LIRF",
        "origin": "OMDB",
        "destination": "LIRF",
        "point_count": 52,
        "source_file": "OMDB-LIRF.gpx"
      },
      "geometry": {
        "type": "LineString",
        "coordinates": [
          [
            55.364444,
            25.252778
          ],
          [
            54.938333,
            24.86425
          ],
          [
            54.833333,
            24.688333
          ],
          [
            54.736111,
            24.536389
          ],
          [
            54.671389,
            24.435556
          ],
          [
            54.606944,
            24.334722
          ],
          [
            54.575556,
            24.285556
          ],
          [
            54.543333,
            24.241389
          ],
          [
            54.067778,
            23.996389
          ],
          [
            53.519722,
            23.705556
          ],
          [
            52.958056,
            23.406667
          ],
          [
            52.519167,
            23.180833
          ],
          [
            52.407778,
            23.145556
          ],
          [
            51.463611,
            22.843056
          ],
          [
            47.176667,
            22.762222
          ],
          [
            46.395,
            22.822778
          ],
          [
            45.085833,
            22.915
          ],
          [
            44.670556,
            22.941944
          ],
          [
            43.571944,
            23.2775
          ],
          [
            43.140833,
            23.406667
          ],
          [
            42.753889,
            23.521111
          ],
          [
            42.287778,
            23.657778
          ],
          [
            41.989167,
            23.744167
          ],
          [
            41.771667,
            23.806944
          ],
          [
            41.563333,
            23.866667
          ],
          [
            41.355833,
            23.925556
          ],
          [
            40.955556,
            24.038611
          ],
          [
            40.514806,
            24.161694
          ],
          [
            39.705278,
            24.547472
          ],
          [
            39.164028,
            25.222194
          ],
          [
            37.810856,
            26.004833
          ],
          [
            37.5025,
            26.046667
          ],
          [
            36.488111,
            26.179333
          ],
          [
            35.784167,
            26.786944
          ],
          [
            34.649444,
            27.431111
          ],
          [
            34.163686,
            27.667997
          ],
          [
            31.818514,
            28.7735
          ],
          [
            31.258019,
            29.028317
          ],
          [
            30.572944,
            29.524292
          ],
          [
            29.318722,
            30.623542
          ],
          [
            29.198169,
            30.727169
          ],
          [
            29.084433,
            30.824611
          ],
          [
            28.228947,
            31.547356
          ],
          [
            27.810833,
            31.894167
          ],
          [
            27.045747,
            32.517331
          ],
          [
            25.15,
            34.0
          ],
          [
            19.0,
            38.518333
          ],
          [
            14.335028,
            40.582444
          ],
          [
            13.970667,
            41.296778
          ],
          [
            13.680528,
            41.446019
          ],
          [
            12.918056,
            41.541111
          ],
          [
            12.238889,
            41.800278
          ]
        ]
      }
    },
    {
      "type": "Feature",
      "id": "OMDB-LKPR",
      "properties": {
        "route_id": "OMDB-LKPR",
        "route_name": "OMDB-LKPR",
        "origin": "OMDB",
        "destination": "LKPR",
        "point_count": 69,
        "source_file": "OMDB-LKPR.gpx"
      },
      "geometry": {
        "type": "LineString",
        "coordinates": [
          [
            55.364444,
            25.252778
          ],
          [
            54.617,
            25.431583
          ],
          [
            54.244722,
            25.541389
          ],
          [
            54.069444,
            25.592778
          ],
          [
            53.729722,
            25.689444
          ],
          [
            53.509167,
            25.751389
          ],
          [
            53.185556,
            25.841944
          ],
          [
            52.748889,
            26.019167
          ],
          [
            52.537778,
            26.114167
          ],
          [
            52.305833,
            26.218611
          ],
          [
            52.074722,
            26.318611
          ],
          [
            51.944167,
            26.375
          ],
          [
            51.845325,
            26.408247
          ],
          [
            51.68545,
            26.461844
          ],
          [
            51.644444,
            26.475556
          ],
          [
            51.297222,
            26.590833
          ],
          [
            51.012414,
            26.684958
          ],
          [
            50.652517,
            26.799892
          ],
          [
            50.490833,
            26.917778
          ],
          [
            50.334944,
            27.048875
          ],
          [
            50.199728,
            27.160828
          ],
          [
            50.035492,
            27.359731
          ],
          [
            49.665839,
            27.778806
          ],
          [
            49.443875,
            28.027072
          ],
          [
            49.225633,
            28.265997
          ],
          [
            49.106189,
            28.396189
          ],
          [
            48.792778,
            28.803889
          ],
          [
            48.305278,
            29.436389
          ],
          [
            47.918056,
            30.022222
          ],
          [
            47.187778,
            30.566111
          ],
          [
            46.066667,
            31.75
          ],
          [
            45.264444,
            32.551389
          ],
          [
            44.733333,
            33.216667
          ],
          [
            44.6925,
            34.5075
          ],
          [
            44.316667,
            35.283333
          ],
          [
            44.041389,
            35.816111
          ],
          [
            43.8,
            36.276944
          ],
          [
            43.556111,
            36.745833
          ],
          [
            43.216667,
            37.35
          ],
          [
            42.655278,
            37.588333
          ],
          [
            41.881972,
            37.910667
          ],
          [
            41.08,
            38.463889
          ],
          [
            40.825,
            38.630556
          ],
          [
            39.972222,
            39.188889
          ],
          [
            39.468056,
            39.511667
          ],
          [
            39.123611,
            39.725
          ],
          [
            38.15,
            40.327778
          ],
          [
            37.675833,
            40.47
          ],
          [
            36.668056,
            40.764167
          ],
          [
            36.0625,
            40.935556
          ],
          [
            35.866111,
            40.990278
          ],
          [
            34.862222,
            41.263611
          ],
          [
            34.337222,
            41.4025
          ],
          [
            34.135278,
            41.454722
          ],
          [
            33.578611,
            41.596944
          ],
          [
            33.538056,
            41.607222
          ],
          [
            33.031111,
            41.733611
          ],
          [
            32.759444,
            41.800278
          ],
          [
            32.461111,
            41.8725
          ],
          [
            32.366667,
            41.895
          ],
          [
            32.232778,
            41.927222
          ],
          [
            31.885833,
            42.009167
          ],
          [
            31.403056,
            42.121389
          ],
          [
            29.870278,
            42.461667
          ],
          [
            21.496667,
            46.6875
          ],
          [
            17.709514,
            48.865172
          ],
          [
            15.947267,
            49.407894
          ],
          [
            15.066742,
            49.704272
          ],
          [
            14.26,
            50.100833
          ]
        ]
      }
    },
    {
      "type": "Feature",
      "id": "OMDB-LOWW",
      "properties": {
        "route_id": "OMDB-LOWW",
        "route_name": "OMDB-LOWW",
        "origin": "OMDB",
        "destination": "LOWW",
        "point_count": 63,
        "source_file": "OMDB-LOWW.gpx"
      },
      "geometry": {
        "type": "LineString",
        "coordinates": [
          [
            55.364444,
            25.252778
          ],
          [
            54.53625,
            25.333222
          ],
          [
            54.280556,
            25.402222
          ],
          [
            54.103056,
            25.446389
          ],
          [
            53.7525,
            25.530556
          ],
          [
            53.41,
            25.612222
          ],
          [
            53.015278,
            25.705
          ],
          [
            52.605833,
            25.898056
          ],
          [
            52.400556,
            25.988611
          ],
          [
            51.993056,
            26.17
          ],
          [
            51.940294,
            26.193889
          ],
          [
            51.809356,
            26.251592
          ],
          [
            51.661244,
            26.3176
          ],
          [
            51.525556,
            26.378056
          ],
          [
            51.369167,
            26.428056
          ],
          [
            51.2675,
            26.460556
          ],
          [
            50.915006,
            26.572594
          ],
          [
            50.690278,
            26.642222
          ],
          [
            50.485203,
            26.703003
          ],
          [
            50.273333,
            26.7575
          ],
          [
            49.9525,
            26.760556
          ],
          [
            49.59,
            26.763056
          ],
          [
            49.383611,
            26.764167
          ],
          [
            48.703333,
            26.765556
          ],
          [
            48.35,
            26.756111
          ],
          [
            47.8825,
            26.7425
          ],
          [
            47.376389,
            26.7675
          ],
          [
            46.392778,
            26.916389
          ],
          [
            45.566389,
            27.036667
          ],
          [
            45.445278,
            27.053889
          ],
          [
            44.728611,
            27.132778
          ],
          [
            44.381389,
            27.169722
          ],
          [
            43.651111,
            27.845278
          ],
          [
            42.679722,
            28.643889
          ],
          [
            42.185278,
            29.043056
          ],
          [
            41.309167,
            29.738333
          ],
          [
            40.639167,
            30.386667
          ],
          [
            39.553611,
            31.432778
          ],
          [
            39.164167,
            31.800278
          ],
          [
            39.031344,
            32.025278
          ],
          [
            38.693928,
            32.594411
          ],
          [
            38.468797,
            32.96995
          ],
          [
            38.368611,
            33.135833
          ],
          [
            38.321944,
            33.213056
          ],
          [
            38.174167,
            33.455
          ],
          [
            37.92,
            33.871944
          ],
          [
            36.641389,
            36.784444
          ],
          [
            36.479444,
            36.951389
          ],
          [
            35.066667,
            38.372778
          ],
          [
            34.286389,
            39.130833
          ],
          [
            33.104917,
            40.241861
          ],
          [
            32.193333,
            40.713889
          ],
          [
            30.724722,
            41.428889
          ],
          [
            29.142778,
            42.170556
          ],
          [
            26.768056,
            42.747778
          ],
          [
            22.392222,
            43.912222
          ],
          [
            19.430778,
            45.009472
          ],
          [
            19.077528,
            45.126611
          ],
          [
            18.642056,
            45.270583
          ],
          [
            17.14675,
            45.747806
          ],
          [
            16.675278,
            46.090278
          ],
          [
            16.27405,
            46.378303
          ],
          [
            16.569722,
            48.110278
          ]
        ]
      }
    }
  ]
}
