<?xml version="1.0" encoding="UTF-8"?>
<gpx xmlns="http://www.topografix.com/GPX/1/1" xmlns:xsi="http://www.w3.org/2001/XMLSchema-instance" creator="SkyVector" version="1.1" xsi:schemaLocation="http://www.topografix.com/GPX/1/1 http://www.topografix.com/GPX/1/1/gpx.xsd">
  <rte>
    <name>DTTA-ESSA</name>
    <rtept lat="36.851111" lon="10.226944">
      <name>DTTA</name>
      <overfly>false</overfly>
    </rtept>
    <rtept lat="37.236111" lon="10.640556">
      <name>ICANI</name>
      <overfly>false</overfly>
    </rtept>
    <rtept lat="37.442778" lon="10.863333">
      <name>SIRVI</name>
      <overfly>false</overfly>
    </rtept>
    <rtept lat="37.742778" lon="10.959167">
      <name>NIBEL</name>
      <overfly>false</overfly>
    </rtept>
    <rtept lat="40.385833" lon="11.631667">
      <name>BETOT</name>
      <overfly>false</overfly>
    </rtept>
    <rtept lat="45.071083" lon="12.281444">
      <name>CHI</name>
      <overfly>false</overfly>
    </rtept>
    <rtept lat="46.706111" lon="12.597500">
      <name>MALUG</name>
      <overfly>false</overfly>
    </rtept>
    <rtept lat="48.207222" lon="13.670278">
      <name>MEDEL</name>
      <overfly>false</overfly>
    </rtept>
    <rtept lat="50.095867" lon="14.265608">
      <name>OKL</name>
      <overfly>false</overfly>
    </rtept>
    <rtept lat="51.013753" lon="15.094667">
      <name>RASAN</name>
      <overfly>false</overfly>
    </rtept>
    <rtept lat="55.638611" lon="17.161389">
      <name>PENOR</name>
      <overfly>false</overfly>
    </rtept>
    <rtept lat="58.193889" lon="18.001667">
      <name>ROGMI</name>
      <overfly>false</overfly>
    </rtept>
    <rtept lat="58.815833" lon="17.884722">
      <name>NILUG</name>
      <overfly>false</overfly>
    </rtept>
    <rtept lat="59.651944" lon="17.918611">
      <name>ESSA</name>
      <overfly>false</overfly>
    </rtept>

  </rte>
</gpx>
