<?xml version="1.0" encoding="UTF-8"?>
<gpx xmlns="http://www.topografix.com/GPX/1/1" xmlns:xsi="http://www.w3.org/2001/XMLSchema-instance" creator="SkyVector" version="1.1" xsi:schemaLocation="http://www.topografix.com/GPX/1/1 http://www.topografix.com/GPX/1/1/gpx.xsd">
  <rte>
    <name>HECA-LOWW</name>
    <rtept lat="30.111389" lon="31.413889">
      <name>HECA</name>
      <overfly>false</overfly>
    </rtept>
    <rtept lat="30.092306" lon="31.388417">
      <name>CVO</name>
      <overfly>false</overfly>
    </rtept>
    <rtept lat="30.465556" lon="31.320000">
      <name>MERPI</name>
      <overfly>false</overfly>
    </rtept>
    <rtept lat="30.751944" lon="31.512222">
      <name>LAGVI</name>
      <overfly>false</overfly>
    </rtept>
    <rtept lat="31.250833" lon="31.420833">
      <name>ULOMO</name>
      <overfly>false</overfly>
    </rtept>
    <rtept lat="31.554722" lon="31.364444">
      <name>SENTO</name>
      <overfly>false</overfly>
    </rtept>
    <rtept lat="31.865556" lon="31.332222">
      <name>DARUR</name>
      <overfly>false</overfly>
    </rtept>
    <rtept lat="32.057222" lon="31.311944">
      <name>NIVTI</name>
      <overfly>false</overfly>
    </rtept>
    <rtept lat="32.171667" lon="31.299722">
      <name>IMPIP</name>
      <overfly>false</overfly>
    </rtept>
    <rtept lat="32.578333" lon="31.255833">
      <name>AZMEY</name>
      <overfly>false</overfly>
    </rtept>
    <rtept lat="33.100000" lon="30.950000">
      <name>RASDA</name>
      <overfly>false</overfly>
    </rtept>
    <rtept lat="34.163611" lon="30.000000">
      <name>ANIDE</name>
      <overfly>false</overfly>
    </rtept>
    <rtept lat="37.275833" lon="25.362778">
      <name>RIPLI</name>
      <overfly>false</overfly>
    </rtept>
    <rtept lat="38.168333" lon="24.560278">
      <name>NEVRA</name>
      <overfly>false</overfly>
    </rtept>
    <rtept lat="39.733333" lon="23.348333">
      <name>AGISA</name>
      <overfly>false</overfly>
    </rtept>
    <rtept lat="41.076667" lon="21.916667">
      <name>TALAS</name>
      <overfly>false</overfly>
    </rtept>
    <rtept lat="42.159444" lon="21.397222">
      <name>LONTA</name>
      <overfly>false</overfly>
    </rtept>
    <rtept lat="42.833889" lon="20.311389">
      <name>DOLEV</name>
      <overfly>false</overfly>
    </rtept>
    <rtept lat="46.378303" lon="16.274050">
      <name>OBUTI</name>
      <overfly>false</overfly>
    </rtept>
    <rtept lat="48.110278" lon="16.569722">
      <name>LOWW</name>
      <overfly>false</overfly>
    </rtept>

  </rte>
</gpx>
