<?xml version="1.0" encoding="UTF-8"?>
<gpx xmlns="http://www.topografix.com/GPX/1/1" xmlns:xsi="http://www.w3.org/2001/XMLSchema-instance" creator="SkyVector" version="1.1" xsi:schemaLocation="http://www.topografix.com/GPX/1/1 http://www.topografix.com/GPX/1/1/gpx.xsd">
  <rte>
    <name>OERK-LIRF</name>
    <rtept lat="24.962778" lon="46.708056">
      <name>OERK</name>
      <overfly>false</overfly>
    </rtept>
    <rtept lat="25.056389" lon="45.675000">
      <name>IVONU</name>
      <overfly>false</overfly>
    </rtept>
    <rtept lat="25.531944" lon="44.574722">
      <name>SOKOP</name>
      <overfly>false</overfly>
    </rtept>
    <rtept lat="26.298083" lon="43.779611">
      <name>GAS</name>
      <overfly>false</overfly>
    </rtept>
    <rtept lat="26.645000" lon="43.144444">
      <name>MODIV</name>
      <overfly>false</overfly>
    </rtept>
    <rtept lat="27.084722" lon="42.326667">
      <name>DAROP</name>
      <overfly>false</overfly>
    </rtept>
    <rtept lat="27.425056" lon="41.682917">
      <name>HIL</name>
      <overfly>false</overfly>
    </rtept>
    <rtept lat="27.916111" lon="41.173333">
      <name>EGVOP</name>
      <overfly>false</overfly>
    </rtept>
    <rtept lat="29.109722" lon="39.906944">
      <name>NIMAR</name>
      <overfly>false</overfly>
    </rtept>
    <rtept lat="29.110833" lon="38.930556">
      <name>ENABI</name>
      <overfly>false</overfly>
    </rtept>
    <rtept lat="29.107778" lon="38.376944">
      <name>ASTUM</name>
      <overfly>false</overfly>
    </rtept>
    <rtept lat="29.098333" lon="37.508889">
      <name>OBNAK</name>
      <overfly>false</overfly>
    </rtept>
    <rtept lat="29.087500" lon="36.480556">
      <name>EGSIS</name>
      <overfly>false</overfly>
    </rtept>
    <rtept lat="29.034722" lon="34.847222">
      <name>RUKET</name>
      <overfly>false</overfly>
    </rtept>
    <rtept lat="29.033333" lon="34.758056">
      <name>KITIT</name>
      <overfly>false</overfly>
    </rtept>
    <rtept lat="29.032222" lon="34.671111">
      <name>NOVPA</name>
      <overfly>false</overfly>
    </rtept>
    <rtept lat="29.241111" lon="33.954444">
      <name>SIMSA</name>
      <overfly>false</overfly>
    </rtept>
    <rtept lat="29.600000" lon="32.685000">
      <name>SISIK</name>
      <overfly>false</overfly>
    </rtept>
    <rtept lat="29.783333" lon="31.868333">
      <name>MENLI</name>
      <overfly>false</overfly>
    </rtept>
    <rtept lat="29.915000" lon="31.663056">
      <name>GESON</name>
      <overfly>false</overfly>
    </rtept>
    <rtept lat="30.092306" lon="31.388417">
      <name>CVO</name>
      <overfly>false</overfly>
    </rtept>
    <rtept lat="31.091944" lon="30.301667">
      <name>MENKU</name>
      <overfly>false</overfly>
    </rtept>
    <rtept lat="31.187500" lon="29.950833">
      <name>NOZ</name>
      <overfly>false</overfly>
    </rtept>
    <rtept lat="31.585556" lon="29.309722">
      <name>SOBAX</name>
      <overfly>false</overfly>
    </rtept>
    <rtept lat="31.731111" lon="29.071944">
      <name>NABSI</name>
      <overfly>false</overfly>
    </rtept>
    <rtept lat="34.000000" lon="26.816667">
      <name>TANSA</name>
      <overfly>false</overfly>
    </rtept>
    <rtept lat="36.120278" lon="23.500278">
      <name>MONUV</name>
      <overfly>false</overfly>
    </rtept>
    <rtept lat="38.518333" lon="19.000000">
      <name>RUTOM</name>
      <overfly>false</overfly>
    </rtept>
    <rtept lat="41.107778" lon="15.171389">
      <name>EKTOL</name>
      <overfly>false</overfly>
    </rtept>
    <rtept lat="41.296778" lon="13.970667">
      <name>TEA</name>
      <overfly>false</overfly>
    </rtept>
    <rtept lat="41.446019" lon="13.680528">
      <name>SIPRO</name>
      <overfly>false</overfly>
    </rtept>
    <rtept lat="41.541111" lon="12.918056">
      <name>LAT</name>
      <overfly>false</overfly>
    </rtept>
    <rtept lat="41.800278" lon="12.238889">
      <name>LIRF</name>
      <overfly>false</overfly>
    </rtept>

  </rte>
</gpx>
