<?xml version="1.0" encoding="UTF-8"?>
<gpx xmlns="http://www.topografix.com/GPX/1/1" xmlns:xsi="http://www.w3.org/2001/XMLSchema-instance" creator="SkyVector" version="1.1" xsi:schemaLocation="http://www.topografix.com/GPX/1/1 http://www.topografix.com/GPX/1/1/gpx.xsd">
  <rte>
    <name>OERK-LOWW</name>
    <rtept lat="24.962778" lon="46.708056">
      <name>OERK</name>
      <overfly>false</overfly>
    </rtept>
    <rtept lat="26.170556" lon="45.438889">
      <name>LONIB</name>
      <overfly>false</overfly>
    </rtept>
    <rtept lat="26.304167" lon="45.298611">
      <name>LABIS</name>
      <overfly>false</overfly>
    </rtept>
    <rtept lat="26.592222" lon="44.995833">
      <name>ASVUL</name>
      <overfly>false</overfly>
    </rtept>
    <rtept lat="26.768889" lon="44.809167">
      <name>SERPU</name>
      <overfly>false</overfly>
    </rtept>
    <rtept lat="26.994167" lon="44.569444">
      <name>RARLO</name>
      <overfly>false</overfly>
    </rtept>
    <rtept lat="27.169722" lon="44.381389">
      <name>PASIT</name>
      <overfly>false</overfly>
    </rtept>
    <rtept lat="27.845278" lon="43.651111">
      <name>TOTAD</name>
      <overfly>false</overfly>
    </rtept>
    <rtept lat="28.643889" lon="42.679722">
      <name>TAMRO</name>
      <overfly>false</overfly>
    </rtept>
    <rtept lat="29.043056" lon="42.185278">
      <name>ORSAL</name>
      <overfly>false</overfly>
    </rtept>
    <rtept lat="29.738333" lon="41.309167">
      <name>PAXAN</name>
      <overfly>false</overfly>
    </rtept>
    <rtept lat="30.386667" lon="40.639167">
      <name>GADLI</name>
      <overfly>false</overfly>
    </rtept>
    <rtept lat="31.432778" lon="39.553611">
      <name>BONIS</name>
      <overfly>false</overfly>
    </rtept>
    <rtept lat="31.800278" lon="39.164167">
      <name>OVANO</name>
      <overfly>false</overfly>
    </rtept>
    <rtept lat="32.025278" lon="39.031344">
      <name>OTILA</name>
      <overfly>false</overfly>
    </rtept>
    <rtept lat="32.594411" lon="38.693928">
      <name>MODAD</name>
      <overfly>false</overfly>
    </rtept>
    <rtept lat="32.969950" lon="38.468797">
      <name>KUMLO</name>
      <overfly>false</overfly>
    </rtept>
    <rtept lat="33.135833" lon="38.368611">
      <name>SOKAN</name>
      <overfly>false</overfly>
    </rtept>
    <rtept lat="33.871944" lon="37.920000">
      <name>FIRAS</name>
      <overfly>false</overfly>
    </rtept>
    <rtept lat="35.193333" lon="35.716667">
      <name>NIKAS</name>
      <overfly>false</overfly>
    </rtept>
    <rtept lat="35.915556" lon="34.016111">
      <name>VESAR</name>
      <overfly>false</overfly>
    </rtept>
    <rtept lat="36.261111" lon="33.754444">
      <name>EVKIT</name>
      <overfly>false</overfly>
    </rtept>
    <rtept lat="36.863028" lon="33.291833">
      <name>MUT</name>
      <overfly>false</overfly>
    </rtept>
    <rtept lat="37.651667" lon="32.203611">
      <name>SEHIR</name>
      <overfly>false</overfly>
    </rtept>
    <rtept lat="38.090833" lon="31.582778">
      <name>OKLAM</name>
      <overfly>false</overfly>
    </rtept>
    <rtept lat="38.481944" lon="31.018611">
      <name>OSVEL</name>
      <overfly>false</overfly>
    </rtept>
    <rtept lat="39.546944" lon="30.500833">
      <name>RAVGO</name>
      <overfly>false</overfly>
    </rtept>
    <rtept lat="41.198889" lon="29.516111">
      <name>YASEN</name>
      <overfly>false</overfly>
    </rtept>
    <rtept lat="42.170556" lon="29.142778">
      <name>MAKOL</name>
      <overfly>false</overfly>
    </rtept>
    <rtept lat="44.920556" lon="24.331667">
      <name>BIVBU</name>
      <overfly>false</overfly>
    </rtept>
    <rtept lat="45.837500" lon="22.646667">
      <name>TIXIP</name>
      <overfly>false</overfly>
    </rtept>
    <rtept lat="45.953222" lon="22.408075">
      <name>VASIS</name>
      <overfly>false</overfly>
    </rtept>
    <rtept lat="46.493611" lon="21.267222">
      <name>DEGET</name>
      <overfly>false</overfly>
    </rtept>
    <rtept lat="47.340833" lon="19.129444">
      <name>BALUX</name>
      <overfly>false</overfly>
    </rtept>
    <rtept lat="47.539722" lon="18.490000">
      <name>TORNO</name>
      <overfly>false</overfly>
    </rtept>
    <rtept lat="47.746944" lon="17.500000">
      <name>NATEX</name>
      <overfly>false</overfly>
    </rtept>
    <rtept lat="48.110278" lon="16.569722">
      <name>LOWW</name>
      <overfly>false</overfly>
    </rtept>

  </rte>
</gpx>
