<?xml version="1.0" encoding="UTF-8"?>
<gpx xmlns="http://www.topografix.com/GPX/1/1" xmlns:xsi="http://www.w3.org/2001/XMLSchema-instance" creator="SkyVector" version="1.1" xsi:schemaLocation="http://www.topografix.com/GPX/1/1 http://www.topografix.com/GPX/1/1/gpx.xsd">
  <rte>
    <name>OERK-LGAV</name>
    <rtept lat="24.962778" lon="46.708056">
      <name>OERK</name>
      <overfly>false</overfly>
    </rtept>
    <rtept lat="25.056389" lon="45.675000">
      <name>IVONU</name>
      <overfly>false</overfly>
    </rtept>
    <rtept lat="25.531944" lon="44.574722">
      <name>SOKOP</name>
      <overfly>false</overfly>
    </rtept>
    <rtept lat="26.298083" lon="43.779611">
      <name>GAS</name>
      <overfly>false</overfly>
    </rtept>
    <rtept lat="26.645000" lon="43.144444">
      <name>MODIV</name>
      <overfly>false</overfly>
    </rtept>
    <rtept lat="27.084722" lon="42.326667">
      <name>DAROP</name>
      <overfly>false</overfly>
    </rtept>
    <rtept lat="27.425056" lon="41.682917">
      <name>HIL</name>
      <overfly>false</overfly>
    </rtept>
    <rtept lat="27.916111" lon="41.173333">
      <name>EGVOP</name>
      <overfly>false</overfly>
    </rtept>
    <rtept lat="29.109722" lon="39.906944">
      <name>NIMAR</name>
      <overfly>false</overfly>
    </rtept>
    <rtept lat="29.110833" lon="38.930556">
      <name>ENABI</name>
      <overfly>false</overfly>
    </rtept>
    <rtept lat="29.107778" lon="38.376944">
      <name>ASTUM</name>
      <overfly>false</overfly>
    </rtept>
    <rtept lat="29.098333" lon="37.508889">
      <name>OBNAK</name>
      <overfly>false</overfly>
    </rtept>
    <rtept lat="29.087500" lon="36.480556">
      <name>EGSIS</name>
      <overfly>false</overfly>
    </rtept>
    <rtept lat="29.034722" lon="34.847222">
      <name>RUKET</name>
      <overfly>false</overfly>
    </rtept>
    <rtept lat="29.033333" lon="34.758056">
      <name>KITIT</name>
      <overfly>false</overfly>
    </rtept>
    <rtept lat="29.032222" lon="34.671111">
      <name>NOVPA</name>
      <overfly>false</overfly>
    </rtept>
    <rtept lat="29.241111" lon="33.954444">
      <name>SIMSA</name>
      <overfly>false</overfly>
    </rtept>
    <rtept lat="29.600000" lon="32.685000">
      <name>SISIK</name>
      <overfly>false</overfly>
    </rtept>
    <rtept lat="29.783333" lon="31.868333">
      <name>MENLI</name>
      <overfly>false</overfly>
    </rtept>
    <rtept lat="29.915000" lon="31.663056">
      <name>GESON</name>
      <overfly>false</overfly>
    </rtept>
    <rtept lat="30.092306" lon="31.388417">
      <name>CVO</name>
      <overfly>false</overfly>
    </rtept>
    <rtept lat="31.091944" lon="30.301667">
      <name>MENKU</name>
      <overfly>false</overfly>
    </rtept>
    <rtept lat="32.096944" lon="29.565000">
      <name>MUXEB</name>
      <overfly>false</overfly>
    </rtept>
    <rtept lat="33.800000" lon="28.266667">
      <name>ANTAR</name>
      <overfly>false</overfly>
    </rtept>
    <rtept lat="35.421822" lon="27.146911">
      <name>KPC</name>
      <overfly>false</overfly>
    </rtept>
    <rtept lat="35.907778" lon="26.763333">
      <name>TIPAS</name>
      <overfly>false</overfly>
    </rtept>
    <rtept lat="36.565278" lon="26.232778">
      <name>ASTIS</name>
      <overfly>false</overfly>
    </rtept>
    <rtept lat="37.204444" lon="25.451667">
      <name>PEROK</name>
      <overfly>false</overfly>
    </rtept>
    <rtept lat="37.275833" lon="25.362778">
      <name>RIPLI</name>
      <overfly>false</overfly>
    </rtept>
    <rtept lat="37.363889" lon="25.034167">
      <name>VARIX</name>
      <overfly>false</overfly>
    </rtept>
    <rtept lat="37.936700" lon="23.944500">
      <name>LGAV</name>
      <overfly>false</overfly>
    </rtept>

  </rte>
</gpx>
