<?xml version="1.0" encoding="UTF-8"?>
<gpx xmlns="http://www.topografix.com/GPX/1/1" xmlns:xsi="http://www.w3.org/2001/XMLSchema-instance" creator="SkyVector" version="1.1" xsi:schemaLocation="http://www.topografix.com/GPX/1/1 http://www.topografix.com/GPX/1/1/gpx.xsd">
  <rte>
    <name>OKKK-LOWW</name>
    <rtept lat="29.226767" lon="47.979953">
      <name>OKKK</name>
      <overfly>false</overfly>
    </rtept>
    <rtept lat="28.649167" lon="47.615556">
      <name>NIDAP</name>
      <overfly>false</overfly>
    </rtept>
    <rtept lat="28.709444" lon="46.874444">
      <name>BOSID</name>
      <overfly>false</overfly>
    </rtept>
    <rtept lat="28.751667" lon="46.335000">
      <name>SIBSA</name>
      <overfly>false</overfly>
    </rtept>
    <rtept lat="28.797500" lon="45.691389">
      <name>LAKSO</name>
      <overfly>false</overfly>
    </rtept>
    <rtept lat="28.860000" lon="44.745278">
      <name>VATIM</name>
      <overfly>false</overfly>
    </rtept>
    <rtept lat="29.620194" lon="43.497972">
      <name>RAF</name>
      <overfly>false</overfly>
    </rtept>
    <rtept lat="30.088333" lon="42.196944">
      <name>RAGED</name>
      <overfly>false</overfly>
    </rtept>
    <rtept lat="30.908028" lon="41.142167">
      <name>AAR</name>
      <overfly>false</overfly>
    </rtept>
    <rtept lat="31.800278" lon="39.164167">
      <name>OVANO</name>
      <overfly>false</overfly>
    </rtept>
    <rtept lat="32.025278" lon="39.031344">
      <name>OTILA</name>
      <overfly>false</overfly>
    </rtept>
    <rtept lat="32.594411" lon="38.693928">
      <name>MODAD</name>
      <overfly>false</overfly>
    </rtept>
    <rtept lat="32.969950" lon="38.468797">
      <name>KUMLO</name>
      <overfly>false</overfly>
    </rtept>
    <rtept lat="33.135833" lon="38.368611">
      <name>SOKAN</name>
      <overfly>false</overfly>
    </rtept>
    <rtept lat="33.871944" lon="37.920000">
      <name>FIRAS</name>
      <overfly>false</overfly>
    </rtept>
    <rtept lat="36.784444" lon="36.641389">
      <name>NISAP</name>
      <overfly>false</overfly>
    </rtept>
    <rtept lat="36.951389" lon="36.479444">
      <name>MILBA</name>
      <overfly>false</overfly>
    </rtept>
    <rtept lat="38.372778" lon="35.066667">
      <name>TEVDA</name>
      <overfly>false</overfly>
    </rtept>
    <rtept lat="39.130833" lon="34.286389">
      <name>BELSU</name>
      <overfly>false</overfly>
    </rtept>
    <rtept lat="40.241861" lon="33.104917">
      <name>BUK</name>
      <overfly>false</overfly>
    </rtept>
    <rtept lat="40.713889" lon="32.193333">
      <name>DEREL</name>
      <overfly>false</overfly>
    </rtept>
    <rtept lat="41.428889" lon="30.724722">
      <name>AKCAK</name>
      <overfly>false</overfly>
    </rtept>
    <rtept lat="42.170556" lon="29.142778">
      <name>MAKOL</name>
      <overfly>false</overfly>
    </rtept>
    <rtept lat="43.912222" lon="22.392222">
      <name>UTEKA</name>
      <overfly>false</overfly>
    </rtept>
    <rtept lat="44.748861" lon="21.169556">
      <name>DONIV</name>
      <overfly>false</overfly>
    </rtept>
    <rtept lat="46.163889" lon="20.094167">
      <name>PARAK</name>
      <overfly>false</overfly>
    </rtept>
    <rtept lat="47.340833" lon="19.129444">
      <name>BALUX</name>
      <overfly>false</overfly>
    </rtept>
    <rtept lat="47.539722" lon="18.490000">
      <name>TORNO</name>
      <overfly>false</overfly>
    </rtept>
    <rtept lat="47.746944" lon="17.500000">
      <name>NATEX</name>
      <overfly>false</overfly>
    </rtept>
    <rtept lat="48.110278" lon="16.569722">
      <name>LOWW</name>
      <overfly>false</overfly>
    </rtept>

  </rte>
</gpx>
